Straßennummer,Straßenname,Ortsbezirk,Stadtteil Name,Stadtbezirk,Stadtbezirksvorst,Schiedsleutebezirk,Sozialrathaus Name,Polizeirevier,Postleitzahl,Address,Latitude,Longitude,class,type,Strassenname,Strassenname_äöü,imagelink,survey
929,Germaniaplatz,4,Bornheim,240,4.23,4,Ost,6.0,60385,Germaniaplatz 60385 Frankfurt,50.1252,8.7012904,highway,way,Germaniaplatz,Germaniaplatz,Germaniaplatz_60385.jpeg,1
2403,Usinger Straße,4,Bornheim,271,4.23,4,Ost,6.0,60389,Usinger Straße 60389 Frankfurt,50.1303956,8.7061186,highway,way,Usinger_Strasse,Usinger Strasse,Usinger_Strasse_60389.jpeg,1
1541,Langenselbolder Straße,11,Fechenheim,510,11.77,11,Ost,18.0,60386,Langenselbolder Straße 60386 Frankfurt,50.1328462,8.7544365,highway,way,Langenselbolder_Strasse,Langenselbolder Strasse,Langenselbolder_Strasse_60386.jpeg,1
2414,Vogelstraße,5,Niederrad,372,5.36,5B,Sachsenhausen,10.0,60528,Vogelstraße 60528 Frankfurt,50.0779039,8.6508437,highway,way,Vogelstrasse,Vogelstrasse,Vogelstrasse_60528.jpeg,1
446,Bleichstraße,1,Innenstadt,60,1.02,1,Ost,1.0,60313,Bleichstraße 60313 Frankfurt,50.1173765,8.6814112,highway,way,Bleichstrasse,Bleichstrasse,Bleichstrasse_60313.jpeg,1
1030,Gutleuthofweg,1,Gutleutviertel,151,1.04,1,Gallus,4.0,60327,Gutleuthofweg 60327 Frankfurt,50.0956074,8.64499,highway,way,Gutleuthofweg,Gutleuthofweg,Gutleuthofweg_60327.jpeg,1
492,Breitenbachbrücke,7,Bockenheim,343,7.57,2,Bockenheim,11.0,60487,Breitenbachbrücke 60487 Frankfurt,50.1254398,8.633799,highway,way,Breitenbachbruecke,Breitenbachbruecke,Breitenbachbruecke_60487.jpeg,1
914,Gelbehirschstraße,1,Innenstadt,70,1.01,1,Ost,1.0,60313,Gelbehirschstraße 60313 Frankfurt,50.1152507,8.6875205,highway,way,Gelbehirschstrasse,Gelbehirschstrasse,Gelbehirschstrasse_60313.jpeg,1
3472,Salvador-Allende-Straße,2,Bockenheim,350,2.13,2,Bockenheim,13.0,60487,Salvador-Allende-Straße 60487 Frankfurt,50.1221553,8.6353689,highway,way,Salvador-Allende-Strasse,Salvador-Allende-Strasse,Salvador-Allende-Strasse_60487.jpeg,1
2385,Unter den Birken,5,Sachsenhausen-N.,322,5.33,5A,Sachsenhausen,8.0,60596,Unter den Birken 60596 Frankfurt,50.0907098,8.6712342,highway,way,Unter_den_Birken,Unter den Birken,Unter_den_Birken_60596.jpeg,1
1709,Melchiorstraße,6,Höchst,591,6.46,6C,Höchst,17.0,65929,Melchiorstraße 65929 Frankfurt,50.1001749,8.5460594,highway,way,Melchiorstrasse,Melchiorstrasse,Melchiorstrasse_65929.jpeg,1
220,An den Postwiesen,7,Hausen,410,7.58,7,Bockenheim,11.0,60488,An den Postwiesen 60488 Frankfurt,50.1394062,8.6216321,highway,way,An_den_Postwiesen,An den Postwiesen,An_den_Postwiesen_60488.jpeg,1
1511,Kruppstraße,11,Seckbach,390,11.75,11,Ost,18.0,60388,Kruppstraße 60388 Frankfurt,50.1418649,8.7423109,amenity,node,Kruppstrasse,Kruppstrasse,Kruppstrasse_60388.jpeg,1
3480,Johanna-Spyri-Weg,12,Kalbach-Riedberg,651,12.79,12,Nord,14.0,60438,Johanna-Spyri-Weg 60438 Frankfurt,50.1796281,8.6301968,highway,way,Johanna-Spyri-Weg,Johanna-Spyri-Weg,Johanna-Spyri-Weg_60438.jpeg,1
270,Apostelstraße,5,Niederrad,372,5.36,5B,Sachsenhausen,10.0,60528,Apostelstraße 60528 Frankfurt,50.0846067,8.6459768,amenity,node,Apostelstrasse,Apostelstrasse,Apostelstrasse_60528.jpeg,1
2003,Rheinstraße,2,Westend-Süd,100,2.11,2,Bockenheim,13.0,60325,Rheinstraße 60325 Frankfurt,50.1125721,8.6593828,amenity,node,Rheinstrasse,Rheinstrasse,Rheinstrasse_60325.jpeg,1
1100,Heckerstraße,6,Schwanheim,531,6.38,6A,Sachsenhausen,10.0,60529,Heckerstraße 60529 Frankfurt,50.0857665,8.5773119,highway,way,Heckerstrasse,Heckerstrasse,Heckerstrasse_60529.jpeg,1
1653,Malßstraße,9,Dornbusch,442,9.68,9,Dornbusch,12.0,60320,Malßstraße 60320 Frankfurt,50.1396413,8.6698408,highway,way,Malssstrasse,Malssstrasse,Malssstrasse_60320.jpeg,1
1935,Plessengasse,11,Fechenheim,510,11.77,11,Ost,18.0,60386,Plessengasse 60386 Frankfurt,50.1242144,8.7694198,highway,way,Plessengasse,Plessengasse,Plessengasse_60386.jpeg,1
611,Däumling,6,Sossenheim,631,6.53,6C,Höchst,17.0,65936,Däumling 65936 Frankfurt,50.1116007,8.5529265,highway,way,Daeumling,Daeumling,Daeumling_65936.jpeg,1
3288,Josef-Fenzl-Straße,6,Höchst,570,6.44,6C,Höchst,17.0,65929,Josef-Fenzl-Straße 65929 Frankfurt,50.1112253,8.5508476,highway,way,Josef-Fenzl-Strasse,Josef-Fenzl-Strasse,Josef-Fenzl-Strasse_65929.jpeg,1
526,Buchwaldstraße,4,Bornheim,290,4.22,4,Ost,6.0,60385,Buchwaldstraße 60385 Frankfurt,50.1300571,8.7167025,amenity,node,Buchwaldstrasse,Buchwaldstrasse,Buchwaldstrasse_60385.jpeg,1
678,Dunantring,6,Sossenheim,631,6.53,6C,Höchst,17.0,65936,Dunantring 65936 Frankfurt,50.1166589,8.5573718,highway,way,Dunantring,Dunantring,Dunantring_65936.jpeg,1
1762,Myliusstraße,2,Westend-Süd,180,2.1,2,Bockenheim,3.0,60323,Myliusstraße 60323 Frankfurt,50.1200399,8.6617731,highway,way,Myliusstrasse,Myliusstrasse,Myliusstrasse_60323.jpeg,1
2831,Turiner Straße,5,Sachsenhausen-S.,323,5.3,5A,Sachsenhausen,8.0,60598,Turiner Straße 60598 Frankfurt,50.0897661,8.6883857,highway,way,Turiner_Strasse,Turiner Strasse,Turiner_Strasse_60598.jpeg,1
2785,Maybachbrücke,8,Heddernheim,431,8.61,8,Nord,14.0,60439,Maybachbrücke 60439 Frankfurt,50.1602057,8.6514421,highway,way,Maybachbruecke,Maybachbruecke,Maybachbruecke_60439.jpeg,1
1293,In den Waldgärten,7,Hausen,410,7.58,7,Bockenheim,11.0,60488,In den Waldgärten 60488 Frankfurt,50.1359544,8.6222048,highway,way,In_den_Waldgaerten,In den Waldgaerten,In_den_Waldgaerten_60488.jpeg,1
2004,Rhönstraße,4,Ostend,251,4.25,4,Ost,5.0,60316,Rhönstraße 60316 Frankfurt,50.1168445,8.7075205,highway,way,Rhoenstrasse,Rhoenstrasse,Rhoenstrasse_60316.jpeg,1
648,Ditmarstraße,2,Bockenheim,362,2.12,2,Bockenheim,13.0,60487,Ditmarstraße 60487 Frankfurt,50.1278,8.6508305,highway,way,Ditmarstrasse,Ditmarstrasse,Ditmarstrasse_60487.jpeg,1
723,Elsterstraße,6,Griesheim,552,6.41,6A,Gallus,16.0,65933,Elsterstraße 65933 Frankfurt,50.1017536,8.5939401,highway,way,Elsterstrasse,Elsterstrasse,Elsterstrasse_65933.jpeg,1
3713,Gisèle-Freund-Platz,2,Westend-Nord,191,2.09,2,Dornbusch,3.0,60323,Gisèle-Freund-Platz 60323 Frankfurt,50.1268401,8.670769150369665,highway,way,Gisèle-Freund-Platz,Gisèle-Freund-Platz,Gisèle-Freund-Platz_60323.jpeg,1
1734,Mörfelder Landstraße,5,Sachsenhausen-S.,323,5.3,5A,Sachsenhausen,8.0,60598,Mörfelder Landstraße 60598 Frankfurt,50.0935047,8.6783642,highway,way,Moerfelder_Landstrasse,Moerfelder Landstrasse,Moerfelder_Landstrasse_60598.jpeg,1
1851,Oberwiesenstraße,10,Preungesheim,470,10.73,10,Dornbusch,12.0,60435,Oberwiesenstraße 60435 Frankfurt,50.157628,8.6900221,amenity,node,Oberwiesenstrasse,Oberwiesenstrasse,Oberwiesenstrasse_60435.jpeg,1
1690,Mauritiusstraße,6,Schwanheim,531,6.38,6A,Sachsenhausen,10.0,60529,Mauritiusstraße 60529 Frankfurt,50.0885318,8.5773209,amenity,node,Mauritiusstrasse,Mauritiusstrasse,Mauritiusstrasse_60529.jpeg,1
189,Am Steinernen Stock,9,Dornbusch,463,9.69,9,Dornbusch,12.0,60320,Am Steinernen Stock 60320 Frankfurt,50.1373178,8.6807674,highway,way,Am_Steinernen_Stock,Am Steinernen Stock,Am_Steinernen_Stock_60320.jpeg,1
1955,Rabenkopfweg,6,Zeilsheim,604,6.49,6B,Höchst,17.0,65931,Rabenkopfweg 65931 Frankfurt,50.097933,8.5105105,highway,way,Rabenkopfweg,Rabenkopfweg,Rabenkopfweg_65931.jpeg,1
443,Blauenstraße,5,Niederrad,371,5.35,5B,Sachsenhausen,10.0,60528,Blauenstraße 60528 Frankfurt,50.0870979,8.6420055,highway,way,Blauenstrasse,Blauenstrasse,Blauenstrasse_60528.jpeg,1
2117,Schellingstraße,3,Nordend-Ost,230,3.2,3,Ost,3.0,60316,Schellingstraße 60316 Frankfurt,50.1213997,8.6994818,highway,way,Schellingstrasse,Schellingstrasse,Schellingstrasse_60316.jpeg,1
1862,Ohmstraße,2,Bockenheim,342,2.14,2,Bockenheim,13.0,60486,Ohmstraße 60486 Frankfurt,50.1175564,8.6345551,highway,way,Ohmstrasse,Ohmstrasse,Ohmstrasse_60486.jpeg,1
656,Donnersbergstraße,5,Niederrad,371,5.35,5B,Sachsenhausen,10.0,60528,Donnersbergstraße 60528 Frankfurt,50.0877437,8.6353421,highway,way,Donnersbergstrasse,Donnersbergstrasse,Donnersbergstrasse_60528.jpeg,1
1497,Kreutzerstraße,3,Nordend-West,212,3.17,3,Ost,3.0,60318,Kreutzerstraße 60318 Frankfurt,50.1317973,8.6906909,highway,way,Kreutzerstrasse,Kreutzerstrasse,Kreutzerstrasse_60318.jpeg,1
2046,Rossittener Straße,7,Bockenheim,343,7.57,2,Bockenheim,11.0,60487,Rossittener Straße 60487 Frankfurt,50.1243983,8.6248528,highway,way,Rossittener_Strasse,Rossittener Strasse,Rossittener_Strasse_60487.jpeg,1
2049,Rostocker Straße,2,Westend-Nord,191,2.09,2,Dornbusch,3.0,60323,Rostocker Straße 60323 Frankfurt,50.1305682,8.6675465,highway,way,Rostocker_Strasse,Rostocker Strasse,Rostocker_Strasse_60323.jpeg,1
1554,Legienstraße,6,Unterliederbach,621,6.51,6C,Höchst,17.0,65929,Legienstraße 65929 Frankfurt,50.1105717,8.5356574,highway,way,Legienstrasse,Legienstrasse,Legienstrasse_65929.jpeg,1
1296,In der Beginenklause,5,Oberrad,380,5.28,5A,Sachsenhausen,8.0,60599,In der Beginenklause 60599 Frankfurt,50.099343,8.7270692,highway,way,In_der_Beginenklause,In der Beginenklause,In_der_Beginenklause_60599.jpeg,1
1017,Günthersburgallee,3,Nordend-Ost,222,3.18,3,Ost,6.0,60389,Günthersburgallee 60389 Frankfurt,50.1279971,8.69942797733454,leisure,way,Guenthersburgallee,Guenthersburgallee,Guenthersburgallee_60389.jpeg,1
1336,Jugenheimer Straße,5,Niederrad,372,5.36,5B,Sachsenhausen,10.0,60528,Jugenheimer Straße 60528 Frankfurt,50.083944,8.6408024,highway,way,Jugenheimer_Strasse,Jugenheimer Strasse,Jugenheimer_Strasse_60528.jpeg,1
268,Anzengruberstraße,9,Dornbusch,442,9.68,9,Dornbusch,12.0,60320,Anzengruberstraße 60320 Frankfurt,50.1414689,8.6669041,highway,way,Anzengruberstrasse,Anzengruberstrasse,Anzengruberstrasse_60320.jpeg,1
2085,Salmünsterer Straße,11,Fechenheim,510,11.77,11,Ost,18.0,60386,Salmünsterer Straße 60386 Frankfurt,50.1339111,8.7559582,highway,way,Salmuensterer_Strasse,Salmuensterer Strasse,Salmuensterer_Strasse_60386.jpeg,1
322,Bachstelzenweg,6,Unterliederbach,621,6.51,6C,Höchst,17.0,65929,Bachstelzenweg 65929 Frankfurt,50.1049265,8.5308885,highway,way,Bachstelzenweg,Bachstelzenweg,Bachstelzenweg_65929.jpeg,1
1784,Neue Schlesingergasse,1,Innenstadt,40,1.03,1,Ost,1.0,60311,Neue Schlesingergasse 60311 Frankfurt,50.1129187,8.672259,highway,way,Neue_Schlesingergasse,Neue Schlesingergasse,Neue_Schlesingergasse_60311.jpeg,1
860,Friedberger Anlage,4,Ostend,140,4.26,4,Ost,5.0,60314,Friedberger Anlage 60314 Frankfurt,50.11456875,8.694583068018336,leisure,way,Friedberger_Anlage,Friedberger Anlage,Friedberger_Anlage_60314.jpeg,1
2087,Sandäckerstraße,6,Griesheim,552,6.41,6A,Gallus,16.0,65933,Sandäckerstraße 65933 Frankfurt,50.0995057,8.5956136,highway,way,Sandaeckerstrasse,Sandaeckerstrasse,Sandaeckerstrasse_65933.jpeg,1
2005,Rhonestraße,5,Niederrad,373,5.36,5B,Sachsenhausen,10.0,60528,Rhonestraße 60528 Frankfurt,50.0799479,8.626438,highway,way,Rhonestrasse,Rhonestrasse,Rhonestrasse_60528.jpeg,1
1435,Kleine Nelkenstraße,7,Hausen,410,7.58,7,Bockenheim,11.0,60488,Kleine Nelkenstraße 60488 Frankfurt,50.1340862,8.6260726,highway,way,Kleine_Nelkenstrasse,Kleine Nelkenstrasse,Kleine_Nelkenstrasse_60488.jpeg,1
3498,Chlodwig-Poth-Anlage,6,Sossenheim,632,6.54,6C,Höchst,17.0,65936,Chlodwig-Poth-Anlage 65936 Frankfurt,50.113488,8.57007989106094,leisure,way,Chlodwig-Poth-Anlage,Chlodwig-Poth-Anlage,Chlodwig-Poth-Anlage_65936.jpeg,1
1520,Kurmainzer Straße,6,Höchst,580,6.45,6C,Höchst,17.0,65929,Kurmainzer Straße 65929 Frankfurt,50.1092091,8.5514816,highway,way,Kurmainzer_Strasse,Kurmainzer Strasse,Kurmainzer_Strasse_65929.jpeg,1
1778,Neue Mainzer Straße,1,Innenstadt,50,1.02,1,Ost,1.0,60313,Neue Mainzer Straße 60313 Frankfurt,50.1141582,8.6722704,highway,way,Neue_Mainzer_Strasse,Neue Mainzer Strasse,Neue_Mainzer_Strasse_60313.jpeg,1
1154,Hermesweg,3,Nordend-Ost,130,3.2,3,Ost,3.0,60316,Hermesweg 60316 Frankfurt,50.1181174,8.6931804,highway,way,Hermesweg,Hermesweg,Hermesweg_60316.jpeg,1
1169,Hildburghäuser Weg,6,Zeilsheim,611,6.49,6B,Höchst,17.0,65931,Hildburghäuser Weg 65931 Frankfurt,50.0969326,8.4990575,highway,way,Hildburghaeuser_Weg,Hildburghaeuser Weg,Hildburghaeuser_Weg_65931.jpeg,1
2969,Zum Eiskeller,6,Schwanheim,532,6.37,6A,Sachsenhausen,10.0,60529,Zum Eiskeller 60529 Frankfurt,50.0782764,8.6024194,highway,way,Zum_Eiskeller,Zum Eiskeller,Zum_Eiskeller_60529.jpeg,1
1162,Hesselbergweg,6,Zeilsheim,604,6.49,6B,Höchst,17.0,65931,Hesselbergweg 65931 Frankfurt,50.0991212,8.5079614,highway,way,Hesselbergweg,Hesselbergweg,Hesselbergweg_65931.jpeg,1
1947,Preungesheimer Straße,4,Bornheim,272,4.22,4,Ost,6.0,60389,Preungesheimer Straße 60389 Frankfurt,50.1343855,8.7080851,highway,way,Preungesheimer_Strasse,Preungesheimer Strasse,Preungesheimer_Strasse_60389.jpeg,1
1650,Mainzer Landstraße,2,Westend-Süd,100,2.11,2,Bockenheim,13.0,60325,Mainzer Landstraße 60325 Frankfurt,50.1111157,8.6646562,highway,way,Mainzer_Landstrasse,Mainzer Landstrasse,Mainzer_Landstrasse_60325.jpeg,1
1168,Heylstraße,9,Eschersheim,452,9.66,9,Dornbusch,12.0,60431,Heylstraße 60431 Frankfurt,50.151134,8.658087,highway,way,Heylstrasse,Heylstrasse,Heylstrasse_60431.jpeg,1
1236,Hugo-Wolf-Straße,6,Schwanheim,531,6.38,6A,Sachsenhausen,10.0,60529,Hugo-Wolf-Straße 60529 Frankfurt,50.0844154,8.5865045,highway,way,Hugo-Wolf-Strasse,Hugo-Wolf-Strasse,Hugo-Wolf-Strasse_60529.jpeg,1
2893,Krummauer Straße,16,Bergen-Enkheim,680,16.83,16,Ost,18.0,60388,Krummauer Straße 60388 Frankfurt,50.1475843,8.7580046,highway,way,Krummauer_Strasse,Krummauer Strasse,Krummauer_Strasse_60388.jpeg,1
2438,Walter-Kolb-Straße,5,Sachsenhausen-N.,300,5.31,5A,Sachsenhausen,8.0,60594,Walter-Kolb-Straße 60594 Frankfurt,50.1050459,8.6841484,amenity,node,Walter-Kolb-Strasse,Walter-Kolb-Strasse,Walter-Kolb-Strasse_60594.jpeg,1
1227,Hostatostraße,6,Höchst,591,6.46,6C,Höchst,17.0,65929,Hostatostraße 65929 Frankfurt,50.09994,8.5418441,highway,way,Hostatostrasse,Hostatostrasse,Hostatostrasse_65929.jpeg,1
2306,Stiftstraße,1,Innenstadt,60,1.02,1,Ost,1.0,60313,Stiftstraße 60313 Frankfurt,50.1154928,8.6825552,highway,way,Stiftstrasse,Stiftstrasse,Stiftstrasse_60313.jpeg,1
2222,Selma-Lagerlöf-Straße,9,Ginnheim,441,9.67,9,Nord,12.0,60431,Selma-Lagerlöf-Straße 60431 Frankfurt,50.1447697,8.6612338,highway,way,Selma-Lagerloef-Strasse,Selma-Lagerloef-Strasse,Selma-Lagerloef-Strasse_60431.jpeg,1
2863,Bruderhofstraße,16,Bergen-Enkheim,680,16.83,16,Ost,18.0,60388,Bruderhofstraße 60388 Frankfurt,50.1506118,8.7561147,highway,way,Bruderhofstrasse,Bruderhofstrasse,Bruderhofstrasse_60388.jpeg,1
2761,Berner Straße,15,Nieder-Eschbach,670,15.82,15,Nord,14.0,60437,Berner Straße 60437 Frankfurt,50.1919221,8.6664441,highway,way,Berner_Strasse,Berner Strasse,Berner_Strasse_60437.jpeg,1
3685,August-Laubenheimer-Straße,6,Schwanheim,531,6.38,6A,Sachsenhausen,10.0,65929,August-Laubenheimer-Straße 65929 Frankfurt,50.0924007,8.5495078,highway,way,August-Laubenheimer-Strasse,August-Laubenheimer-Strasse,August-Laubenheimer-Strasse_65929.jpeg,1
1787,Neuhofstraße,3,Nordend-West,211,3.19,3,Ost,3.0,60318,Neuhofstraße 60318 Frankfurt,50.1259412,8.6905039,highway,way,Neuhofstrasse,Neuhofstrasse,Neuhofstrasse_60318.jpeg,1
1551,Launitzstraße,5,Sachsenhausen-N.,324,5.32,5A,Sachsenhausen,8.0,60594,Launitzstraße 60594 Frankfurt,50.1025247,8.6833215,highway,way,Launitzstrasse,Launitzstrasse,Launitzstrasse_60594.jpeg,1
3161,Wallfahrtsweg,11,Seckbach,390,11.75,11,Ost,6.0,60389,Wallfahrtsweg 60389 Frankfurt,50.1485305,8.7388334,highway,way,Wallfahrtsweg,Wallfahrtsweg,Wallfahrtsweg_60389.jpeg,1
2698,Neugasse,12,Kalbach-Riedberg,650,12.79,12,Nord,14.0,60437,Neugasse 60437 Frankfurt,50.1889855,8.638435,highway,way,Neugasse,Neugasse,Neugasse_60437.jpeg,1
661,Dottenfeldstraße,6,Sossenheim,632,6.54,6C,Höchst,17.0,65936,Dottenfeldstraße 65936 Frankfurt,50.1192112,8.5675316,highway,way,Dottenfeldstrasse,Dottenfeldstrasse,Dottenfeldstrasse_65936.jpeg,1
2905,Rangenbergstraße,16,Bergen-Enkheim,680,16.83,16,Ost,18.0,60388,Rangenbergstraße 60388 Frankfurt,50.1499677,8.7598387,highway,way,Rangenbergstrasse,Rangenbergstrasse,Rangenbergstrasse_60388.jpeg,1
3258,Golub-Lebedenko-Platz,1,Gallus,153,1.05,1,Gallus,4.0,60326,Golub-Lebedenko-Platz 60326 Frankfurt,50.101151,8.6395118,highway,way,Golub-Lebedenko-Platz,Golub-Lebedenko-Platz,Golub-Lebedenko-Platz_60326.jpeg,1
2121,Schichaustraße,4,Ostend,261,4.27,4,Ost,5.0,60314,Schichaustraße 60314 Frankfurt,50.1119178,8.7041775,highway,way,Schichaustrasse,Schichaustrasse,Schichaustrasse_60314.jpeg,1
2057,Rotlintstraße,3,Nordend-Ost,222,3.18,3,Ost,6.0,60389,Rotlintstraße 60389 Frankfurt,50.1317391,8.6965574,highway,way,Rotlintstrasse,Rotlintstrasse,Rotlintstrasse_60389.jpeg,1
1073,Hanauer Landstraße,4,Ostend,140,4.26,4,Ost,5.0,60314,Hanauer Landstraße 60314 Frankfurt,50.1114604,8.7117853,highway,way,Hanauer_Landstrasse,Hanauer Landstrasse,Hanauer_Landstrasse_60314.jpeg,1
423,Biebergasse,1,Innenstadt,50,1.02,1,Ost,1.0,60313,Biebergasse 60313 Frankfurt,50.1141435,8.6771737,amenity,node,Biebergasse,Biebergasse,Biebergasse_60313.jpeg,1
1314,Jahnstraße,3,Nordend-West,120,3.21,3,Ost,3.0,60318,Jahnstraße 60318 Frankfurt,50.1204521,8.6828591,amenity,node,Jahnstrasse,Jahnstrasse,Jahnstrasse_60318.jpeg,1
518,Brüningstraße,6,Höchst,591,6.46,6C,Höchst,17.0,65929,Brüningstraße 65929 Frankfurt,50.0975652,8.5434644,highway,way,Brueningstrasse,Brueningstrasse,Brueningstrasse_65929.jpeg,1
2590,Römerstadtsteg,8,Heddernheim,432,8.62,8,Nord,14.0,60439,Römerstadtsteg 60439 Frankfurt,50.1559263,8.6344592,highway,way,Roemerstadtsteg,Roemerstadtsteg,Roemerstadtsteg_60439.jpeg,1
1956,Radilostraße,7,Rödelheim,402,7.56,7,Bockenheim,11.0,60489,Radilostraße 60489 Frankfurt,50.1239889,8.6079655,amenity,node,Radilostrasse,Radilostrasse,Radilostrasse_60489.jpeg,1
2639,Am Buchbaum,13,Nieder-Erlenbach,640,13.8,13,Nord,14.0,60437,Am Buchbaum 60437 Frankfurt,50.2005483,8.7160369,highway,way,Am_Buchbaum,Am Buchbaum,Am_Buchbaum_60437.jpeg,1
164,Am Riederbruch,11,Riederwald,262,11.76,11,Ost,18.0,60386,Am Riederbruch 60386 Frankfurt,50.125941,8.7249403,highway,way,Am_Riederbruch,Am Riederbruch,Am_Riederbruch_60386.jpeg,1
766,Eysseneckstraße,3,Nordend-West,203,3.16,3,Dornbusch,3.0,60322,Eysseneckstraße 60322 Frankfurt,50.1272917,8.6770811,highway,way,Eysseneckstrasse,Eysseneckstrasse,Eysseneckstrasse_60322.jpeg,1
2649,Erlenbacher Stadtweg,13,Nieder-Erlenbach,640,13.8,13,Nord,14.0,60437,Erlenbacher Stadtweg 60437 Frankfurt,50.1857553,8.6871057,highway,way,Erlenbacher_Stadtweg,Erlenbacher Stadtweg,Erlenbacher_Stadtweg_60437.jpeg,1
2326,Tarnowitzer Straße,6,Griesheim,552,6.41,6A,Gallus,16.0,65933,Tarnowitzer Straße 65933 Frankfurt,50.1039821,8.5919109,highway,way,Tarnowitzer_Strasse,Tarnowitzer Strasse,Tarnowitzer_Strasse_65933.jpeg,1
3219,Propst-Goebels-Weg,11,Seckbach,390,11.75,11,Ost,6.0,60389,Propst-Goebels-Weg 60389 Frankfurt,50.143345,8.7236239,highway,way,Propst-Goebels-Weg,Propst-Goebels-Weg,Propst-Goebels-Weg_60389.jpeg,1
2535,Wittelsbacherallee,4,Ostend,252,4.25,4,Ost,5.0,60385,Wittelsbacherallee 60385 Frankfurt,50.1259534,8.7161864,amenity,node,Wittelsbacherallee,Wittelsbacherallee,Wittelsbacherallee_60385.jpeg,1
2245,Sömmerringstraße,3,Nordend-West,201,3.21,3,Dornbusch,3.0,60322,Sömmerringstraße 60322 Frankfurt,50.1238222,8.6811347,highway,way,Soemmerringstrasse,Soemmerringstrasse,Soemmerringstrasse_60322.jpeg,1
1628,Ludwigstraße,1,Gallus,152,1.06,1,Gallus,4.0,60327,Ludwigstraße 60327 Frankfurt,50.1073965,8.6591901,highway,way,Ludwigstrasse,Ludwigstrasse,Ludwigstrasse_60327.jpeg,1
2107,Schalkwiesenweg,7,Praunheim,424,7.6,7,Bockenheim,14.0,60488,Schalkwiesenweg 60488 Frankfurt,50.1408457,8.626226,highway,way,Schalkwiesenweg,Schalkwiesenweg,Schalkwiesenweg_60488.jpeg,1
313,Aussiger Straße,5,Sachsenhausen-S.,326,5.34,5A,Sachsenhausen,8.0,60598,Aussiger Straße 60598 Frankfurt,50.08682225,8.670719777783862,highway,way,Aussiger_Strasse,Aussiger Strasse,Aussiger_Strasse_60598.jpeg,1
3321,Polizeimeister-Kaspar-Straße,3,Nordend-West,202,3.16,3,Dornbusch,12.0,60320,Polizeimeister-Kaspar-Straße 60320 Frankfurt,50.1334732,8.6726236,highway,way,Polizeimeister-Kaspar-Strasse,Polizeimeister-Kaspar-Strasse,Polizeimeister-Kaspar-Strasse_60320.jpeg,1
2199,Schwarzwaldstraße,5,Niederrad,371,5.35,5B,Sachsenhausen,10.0,60528,Schwarzwaldstraße 60528 Frankfurt,50.0830427,8.6512631,amenity,node,Schwarzwaldstrasse,Schwarzwaldstrasse,Schwarzwaldstrasse_60528.jpeg,1
1187,Höchster Schloßplatz,6,Höchst,580,6.45,6C,Höchst,17.0,65929,Höchster Schloßplatz 65929 Frankfurt,50.09863445,8.547601305008712,highway,way,Hoechster_Schlossplatz,Hoechster Schlossplatz,Hoechster_Schlossplatz_65929.jpeg,1
2982,Am Lohwald,7,Hausen,410,7.58,7,Bockenheim,11.0,60488,Am Lohwald 60488 Frankfurt,50.1390283,8.6253006,highway,way,Am_Lohwald,Am Lohwald,Am_Lohwald_60488.jpeg,1
3618,Jakob-Quirin-Weg,14,Harheim,660,14.81,14,Nord,14.0,60437,Jakob-Quirin-Weg 60437 Frankfurt,50.1850711,8.6864204,highway,way,Jakob-Quirin-Weg,Jakob-Quirin-Weg,Jakob-Quirin-Weg_60437.jpeg,1
2703,Wirschelweg,12,Kalbach-Riedberg,650,12.79,12,Nord,14.0,60437,Wirschelweg 60437 Frankfurt,50.1879565,8.6332899,highway,way,Wirschelweg,Wirschelweg,Wirschelweg_60437.jpeg,1
920,Georg-Voigt-Straße,2,Westend-Süd,170,2.11,2,Bockenheim,13.0,60325,Georg-Voigt-Straße 60325 Frankfurt,50.1148042,8.6514579,highway,way,Georg-Voigt-Strasse,Georg-Voigt-Strasse,Georg-Voigt-Strasse_60325.jpeg,1
1579,Licher Straße,3,Nordend-Ost,222,3.18,3,Ost,6.0,60389,Licher Straße 60389 Frankfurt,50.1319818,8.7004757,highway,way,Licher_Strasse,Licher Strasse,Licher_Strasse_60389.jpeg,1
1144,Herbert-Boehm-Straße,5,Niederrad,372,5.36,5B,Sachsenhausen,10.0,60528,Herbert-Boehm-Straße 60528 Frankfurt,50.0819198,8.6432441,highway,way,Herbert-Boehm-Strasse,Herbert-Boehm-Strasse,Herbert-Boehm-Strasse_60528.jpeg,1
1042,Händelstraße,3,Nordend-West,212,3.17,3,Ost,3.0,60318,Händelstraße 60318 Frankfurt,50.1310448,8.6860166,highway,way,Haendelstrasse,Haendelstrasse,Haendelstrasse_60318.jpeg,1
606,Corneliusstraße,2,Westend-Süd,170,2.11,2,Bockenheim,13.0,60325,Corneliusstraße 60325 Frankfurt,50.1162716,8.6598015,highway,way,Corneliusstrasse,Corneliusstrasse,Corneliusstrasse_60325.jpeg,1
1733,Mönchhofstraße,6,Griesheim,542,6.4,6A,Gallus,16.0,60326,Mönchhofstraße 60326 Frankfurt,50.1005102,8.6162949,highway,way,Moenchhofstrasse,Moenchhofstrasse,Moenchhofstrasse_60326.jpeg,1
2058,Rotteckstraße,3,Nordend-Ost,130,3.2,3,Ost,3.0,60316,Rotteckstraße 60316 Frankfurt,50.1212175,8.6916779,highway,way,Rotteckstrasse,Rotteckstrasse,Rotteckstrasse_60316.jpeg,1
3624,Kamelienstraße,6,Unterliederbach,623,6.51,6C,Höchst,17.0,65929,Kamelienstraße 65929 Frankfurt,50.1058333,8.5282889,highway,way,Kamelienstrasse,Kamelienstrasse,Kamelienstrasse_65929.jpeg,1
722,Elsheimerstraße,2,Westend-Süd,110,2.1,2,Bockenheim,3.0,60322,Elsheimerstraße 60322 Frankfurt,50.1196498,8.6721884,highway,way,Elsheimerstrasse,Elsheimerstrasse,Elsheimerstrasse_60322.jpeg,1
198,Amtsgasse,6,Höchst,580,6.45,6C,Höchst,17.0,65929,Amtsgasse 65929 Frankfurt,50.1014168,8.5531066,highway,way,Amtsgasse,Amtsgasse,Amtsgasse_65929.jpeg,1
415,Beselerstraße,4,Ostend,252,4.25,4,Ost,5.0,60385,Beselerstraße 60385 Frankfurt,50.1215635,8.7156434,highway,way,Beselerstrasse,Beselerstrasse,Beselerstrasse_60385.jpeg,1
477,Bornheimer Landwehr,4,Bornheim,282,4.24,4,Ost,5.0,60385,Bornheimer Landwehr 60385 Frankfurt,50.1226167,8.71125,highway,way,Bornheimer_Landwehr,Bornheimer Landwehr,Bornheimer_Landwehr_60385.jpeg,1
1145,Herbert-von-Meister-Straße,6,Sindlingen,601,6.47,6B,Höchst,17.0,65931,Herbert-von-Meister-Straße 65931 Frankfurt,50.0804296,8.5138041,highway,way,Herbert-von-Meister-Strasse,Herbert-von-Meister-Strasse,Herbert-von-Meister-Strasse_65931.jpeg,1
1675,Martin-Luther-Straße,3,Nordend-Ost,221,3.19,3,Ost,3.0,60316,Martin-Luther-Straße 60316 Frankfurt,50.1259691,8.6976484,highway,way,Martin-Luther-Strasse,Martin-Luther-Strasse,Martin-Luther-Strasse_60316.jpeg,1
595,Casparistraße,10,Eckenheim,461,10.72,10,Dornbusch,12.0,60435,Casparistraße 60435 Frankfurt,50.1432341,8.6850853,highway,way,Casparistrasse,Casparistrasse,Casparistrasse_60435.jpeg,1
3259,Galvanistraße,2,Bockenheim,342,2.14,2,Bockenheim,13.0,60486,Galvanistraße 60486 Frankfurt,50.1168508,8.636197,highway,way,Galvanistrasse,Galvanistrasse,Galvanistrasse_60486.jpeg,1
2491,Westendstraße,2,Westend-Süd,100,2.11,2,Bockenheim,13.0,60325,Westendstraße 60325 Frankfurt,50.11443,8.66103,amenity,node,Westendstrasse,Westendstrasse,Westendstrasse_60325.jpeg,1
2854,An der Pfaffenmauer,16,Bergen-Enkheim,680,16.83,16,Ost,18.0,60388,An der Pfaffenmauer 60388 Frankfurt,50.1529292,8.7593223,highway,way,An_der_Pfaffenmauer,An der Pfaffenmauer,An_der_Pfaffenmauer_60388.jpeg,1
1708,Melanchthonplatz,5,Oberrad,380,5.28,5A,Sachsenhausen,8.0,60599,Melanchthonplatz 60599 Frankfurt,50.0979592,8.72825719018789,landuse,way,Melanchthonplatz,Melanchthonplatz,Melanchthonplatz_60599.jpeg,1
703,Einbaumstraße,6,Griesheim,541,6.39,6A,Gallus,16.0,65933,Einbaumstraße 65933 Frankfurt,50.0917813,8.6195961,highway,way,Einbaumstrasse,Einbaumstrasse,Einbaumstrasse_65933.jpeg,1
1155,Herriotstraße,5,Niederrad,373,5.36,5B,Sachsenhausen,10.0,60528,Herriotstraße 60528 Frankfurt,50.0801166,8.6285788,highway,way,Herriotstrasse,Herriotstrasse,Herriotstrasse_60528.jpeg,1
3307,Am Galgenberg,4,Bornheim,272,4.22,4,Ost,6.0,60389,Am Galgenberg 60389 Frankfurt,50.1372349,8.7140444,highway,way,Am_Galgenberg,Am Galgenberg,Am_Galgenberg_60389.jpeg,1
2862,Bornweidstraße,16,Bergen-Enkheim,680,16.83,16,Ost,18.0,60388,Bornweidstraße 60388 Frankfurt,50.1476762,8.755329,highway,way,Bornweidstrasse,Bornweidstrasse,Bornweidstrasse_60388.jpeg,1
3744,Platz der vergessenen Kinder,5,Sachsenhausen-N.,321,5.32,5A,Sachsenhausen,8.0,60596,Platz der vergessenen Kinder 60596 Frankfurt,50.1024277,8.6768117,historic,node,Platz_der_vergessenen_Kinder,Platz der vergessenen Kinder,Platz_der_vergessenen_Kinder_60596.jpeg,1
3268,Carlo-Schmid-Platz,2,Bockenheim,361,2.12,2,Bockenheim,13.0,60325,Carlo-Schmid-Platz 60325 Frankfurt,50.1203358,8.6513775,amenity,node,Carlo-Schmid-Platz,Carlo-Schmid-Platz,Carlo-Schmid-Platz_60325.jpeg,1
1586,Liederbacher Straße,6,Unterliederbach,621,6.51,6C,Höchst,17.0,65929,Liederbacher Straße 65929 Frankfurt,50.1062973,8.5366781,highway,way,Liederbacher_Strasse,Liederbacher Strasse,Liederbacher_Strasse_65929.jpeg,1
695,Egestraße,7,Praunheim,423,7.59,7,Bockenheim,11.0,60488,Egestraße 60488 Frankfurt,50.138223,8.6129539,highway,way,Egestrasse,Egestrasse,Egestrasse_60488.jpeg,1
849,Franz-Simon-Straße,6,Nied,561,6.42,6A,Höchst,16.0,65934,Franz-Simon-Straße 65934 Frankfurt,50.1006474,8.5705483,highway,way,Franz-Simon-Strasse,Franz-Simon-Strasse,Franz-Simon-Strasse_65934.jpeg,1
1782,Neuer Wall,5,Sachsenhausen-N.,300,5.31,5A,Sachsenhausen,8.0,60594,Neuer Wall 60594 Frankfurt,50.1047846,8.6907206,highway,way,Neuer_Wall,Neuer Wall,Neuer_Wall_60594.jpeg,1
2877,Hammersbacher Weg,16,Bergen-Enkheim,680,16.83,16,Ost,18.0,60388,Hammersbacher Weg 60388 Frankfurt,50.1565773,8.7505131,highway,way,Hammersbacher_Weg,Hammersbacher Weg,Hammersbacher_Weg_60388.jpeg,1
442,Blankenheimer Straße,6,Schwanheim,531,6.38,6A,Sachsenhausen,10.0,60529,Blankenheimer Straße 60529 Frankfurt,50.0857665,8.5773119,highway,way,Blankenheimer_Strasse,Blankenheimer Strasse,Blankenheimer_Strasse_60529.jpeg,1
2945,Am Martinszehnten,12,Kalbach-Riedberg,650,12.79,12,Nord,14.0,60437,Am Martinszehnten 60437 Frankfurt,50.190727,8.6532529,highway,way,Am_Martinszehnten,Am Martinszehnten,Am_Martinszehnten_60437.jpeg,1
3128,Azaleenweg,10,Frankfurter Berg,492,10.71,10,Nord,14.0,60433,Azaleenweg 60433 Frankfurt,50.1638473,8.6714541,highway,way,Azaleenweg,Azaleenweg,Azaleenweg_60433.jpeg,1
1081,Hans-Thoma-Straße,5,Sachsenhausen-N.,321,5.32,5A,Sachsenhausen,8.0,60596,Hans-Thoma-Straße 60596 Frankfurt,50.1024158,8.6766146,highway,way,Hans-Thoma-Strasse,Hans-Thoma-Strasse,Hans-Thoma-Strasse_60596.jpeg,1
252,An der Wolfsweide,10,Preungesheim,470,10.73,10,Dornbusch,12.0,60435,An der Wolfsweide 60435 Frankfurt,50.1471671,8.698094,highway,way,An_der_Wolfsweide,An der Wolfsweide,An_der_Wolfsweide_60435.jpeg,1
3411,Hannah-Arendt-Straße,12,Kalbach-Riedberg,651,12.79,12,Nord,14.0,60438,Hannah-Arendt-Straße 60438 Frankfurt,50.1798884,8.6411468,highway,way,Hannah-Arendt-Strasse,Hannah-Arendt-Strasse,Hannah-Arendt-Strasse_60438.jpeg,1
504,Briandring,5,Sachsenhausen-S.,323,5.3,5A,Sachsenhausen,8.0,60598,Briandring 60598 Frankfurt,50.0799274,8.6760829,highway,way,Briandring,Briandring,Briandring_60598.jpeg,1
70,Alt-Rödelheim,7,Rödelheim,402,7.56,7,Bockenheim,11.0,60489,Alt-Rödelheim 60489 Frankfurt,50.1253732,8.6117602,highway,way,Alt-Roedelheim,Alt-Roedelheim,Alt-Roedelheim_60489.jpeg,1
1971,Rauschenberger Straße,9,Eschersheim,452,9.66,9,Dornbusch,12.0,60433,Rauschenberger Straße 60433 Frankfurt,50.1538648,8.6688766,highway,way,Rauschenberger_Strasse,Rauschenberger Strasse,Rauschenberger_Strasse_60433.jpeg,1
500,Breslauer Straße,5,Sachsenhausen-S.,326,5.34,5A,Sachsenhausen,8.0,60598,Breslauer Straße 60598 Frankfurt,50.0913538,8.6782179,highway,way,Breslauer_Strasse,Breslauer Strasse,Breslauer_Strasse_60598.jpeg,1
2312,Stralsunder Straße,2,Westend-Nord,191,2.09,2,Dornbusch,3.0,60323,Stralsunder Straße 60323 Frankfurt,50.1291736,8.6706642,highway,way,Stralsunder_Strasse,Stralsunder Strasse,Stralsunder_Strasse_60323.jpeg,1
1927,Pfungststraße,4,Ostend,251,4.25,4,Ost,5.0,60314,Pfungststraße 60314 Frankfurt,50.1182798,8.7057997,highway,way,Pfungststrasse,Pfungststrasse,Pfungststrasse_60314.jpeg,1
65,Altkönigstraße,2,Westend-Süd,180,2.1,2,Bockenheim,3.0,60323,Altkönigstraße 60323 Frankfurt,50.1209257,8.665503,highway,way,Altkoenigstrasse,Altkoenigstrasse,Altkoenigstrasse_60323.jpeg,1
1953,Quirinsstraße,5,Sachsenhausen-S.,332,5.29,5A,Sachsenhausen,8.0,60599,Quirinsstraße 60599 Frankfurt,50.0999838,8.6932807,highway,way,Quirinsstrasse,Quirinsstrasse,Quirinsstrasse_60599.jpeg,1
1343,Justinianstraße,3,Nordend-West,203,3.16,3,Dornbusch,3.0,60322,Justinianstraße 60322 Frankfurt,50.1252075,8.6799663,highway,way,Justinianstrasse,Justinianstrasse,Justinianstrasse_60322.jpeg,1
919,Georg-Speyer-Straße,2,Bockenheim,362,2.12,2,Bockenheim,13.0,60487,Georg-Speyer-Straße 60487 Frankfurt,50.1288312,8.6429176,amenity,node,Georg-Speyer-Strasse,Georg-Speyer-Strasse,Georg-Speyer-Strasse_60487.jpeg,1
1764,Nachtigallenweg,6,Unterliederbach,621,6.51,6C,Höchst,17.0,65929,Nachtigallenweg 65929 Frankfurt,50.1043913,8.5312714,highway,way,Nachtigallenweg,Nachtigallenweg,Nachtigallenweg_65929.jpeg,1
1362,Karl-Albert-Straße,4,Bornheim,281,4.24,4,Ost,6.0,60385,Karl-Albert-Straße 60385 Frankfurt,50.1253678,8.7166103,highway,way,Karl-Albert-Strasse,Karl-Albert-Strasse,Karl-Albert-Strasse_60385.jpeg,1
153,Am Mühlkanal,5,Sachsenhausen-S.,332,5.29,5A,Sachsenhausen,8.0,60599,Am Mühlkanal 60599 Frankfurt,50.1007539,8.7010406,highway,way,Am_Muehlkanal,Am Muehlkanal,Am_Muehlkanal_60599.jpeg,1
159,Amöneburger Straße,9,Eschersheim,452,9.66,9,Dornbusch,12.0,60433,Amöneburger Straße 60433 Frankfurt,50.1551843,8.6687191,highway,way,Amoeneburger_Strasse,Amoeneburger Strasse,Amoeneburger_Strasse_60433.jpeg,1
1239,Humperdinckstraße,5,Sachsenhausen-S.,325,5.34,5A,Sachsenhausen,10.0,60598,Humperdinckstraße 60598 Frankfurt,50.0898784,8.6670757,highway,way,Humperdinckstrasse,Humperdinckstrasse,Humperdinckstrasse_60598.jpeg,1
2028,Rödelheimer Straße,2,Bockenheim,350,2.13,2,Bockenheim,13.0,60487,Rödelheimer Straße 60487 Frankfurt,50.1251337,8.637684,highway,way,Roedelheimer_Strasse,Roedelheimer Strasse,Roedelheimer_Strasse_60487.jpeg,1
318,Aystettstraße,3,Nordend-West,203,3.16,3,Dornbusch,3.0,60322,Aystettstraße 60322 Frankfurt,50.1287858,8.6775389,highway,way,Aystettstrasse,Aystettstrasse,Aystettstrasse_60322.jpeg,1
202,Am Wasserturm,10,Preungesheim,470,10.73,10,Dornbusch,12.0,60435,Am Wasserturm 60435 Frankfurt,50.1467852,8.6939928,highway,way,Am_Wasserturm,Am Wasserturm,Am_Wasserturm_60435.jpeg,1
1597,Lindenstraße,2,Westend-Süd,100,2.11,2,Bockenheim,13.0,60325,Lindenstraße 60325 Frankfurt,50.118311,8.6618373,amenity,node,Lindenstrasse,Lindenstrasse,Lindenstrasse_60325.jpeg,1
2390,Unter den Linden,5,Sachsenhausen-N.,322,5.33,5A,Sachsenhausen,8.0,60596,Unter den Linden 60596 Frankfurt,50.091918,8.6711014,highway,way,Unter_den_Linden,Unter den Linden,Unter_den_Linden_60596.jpeg,1
3588,Jakob-Latscha-Straße,4,Ostend,261,4.27,4,Ost,5.0,60314,Jakob-Latscha-Straße 60314 Frankfurt,50.1137488,8.714173,highway,way,Jakob-Latscha-Strasse,Jakob-Latscha-Strasse,Jakob-Latscha-Strasse_60314.jpeg,1
2240,Sindlinger Straße,1,Gallus,162,1.07,1,Gallus,4.0,60326,Sindlinger Straße 60326 Frankfurt,50.1043149,8.6368406,highway,way,Sindlinger_Strasse,Sindlinger Strasse,Sindlinger_Strasse_60326.jpeg,1
2896,Leuchte,16,Bergen-Enkheim,680,16.83,16,Ost,18.0,60388,Leuchte 60388 Frankfurt,50.1430802,8.7555199,amenity,node,Leuchte,Leuchte,Leuchte_60388.jpeg,1
2689,Habichtsweg,12,Kalbach-Riedberg,650,12.79,12,Nord,14.0,60437,Habichtsweg 60437 Frankfurt,50.1871118,8.632558,highway,way,Habichtsweg,Habichtsweg,Habichtsweg_60437.jpeg,1
13,Adolf-Miersch-Straße,5,Niederrad,372,5.36,5B,Sachsenhausen,10.0,60528,Adolf-Miersch-Straße 60528 Frankfurt,50.0831416,8.6432138,highway,way,Adolf-Miersch-Strasse,Adolf-Miersch-Strasse,Adolf-Miersch-Strasse_60528.jpeg,1
197,Am Treutengraben,7,Praunheim,424,7.6,7,Bockenheim,14.0,60488,Am Treutengraben 60488 Frankfurt,50.1422813,8.6228033,highway,way,Am_Treutengraben,Am Treutengraben,Am_Treutengraben_60488.jpeg,1
586,Cäcilienstraße,9,Eschersheim,451,9.65,9,Dornbusch,12.0,60433,Cäcilienstraße 60433 Frankfurt,50.1578444,8.6581993,highway,way,Caecilienstrasse,Caecilienstrasse,Caecilienstrasse_60433.jpeg,1
730,Emser Straße,2,Bockenheim,341,2.13,2,Bockenheim,13.0,60486,Emser Straße 60486 Frankfurt,50.1165156,8.6432187,highway,way,Emser_Strasse,Emser Strasse,Emser_Strasse_60486.jpeg,1
158,Am Oberforsthaus,5,Sachsenhausen-S.,325,5.34,5A,Sachsenhausen,10.0,60528,Am Oberforsthaus 60528 Frankfurt,50.0788855,8.6574495,highway,way,Am_Oberforsthaus,Am Oberforsthaus,Am_Oberforsthaus_60528.jpeg,1
1803,Niddastraße,1,Gallus,152,1.06,1,Gallus,4.0,60327,Niddastraße 60327 Frankfurt,50.1069642,8.6576105,amenity,node,Niddastrasse,Niddastrasse,Niddastrasse_60327.jpeg,1
3412,Skylineblick,12,Kalbach-Riedberg,651,12.79,12,Nord,14.0,60438,Skylineblick 60438 Frankfurt,50.1794095,8.6418266,highway,way,Skylineblick,Skylineblick,Skylineblick_60438.jpeg,1
1004,Grüneburgpark,2,Westend-Nord,191,2.09,2,Dornbusch,3.0,60323,Grüneburgpark 60323 Frankfurt,50.1272042,8.662198939536973,leisure,way,Grueneburgpark,Grueneburgpark,Grueneburgpark_60323.jpeg,1
1727,Miquelallee,2,Bockenheim,362,2.12,2,Bockenheim,13.0,60487,Miquelallee 60487 Frankfurt,50.1251044,8.652358,highway,way,Miquelallee,Miquelallee,Miquelallee_60487.jpeg,1
238,An der Mannsfaust,5,Oberrad,380,5.28,5A,Sachsenhausen,8.0,60599,An der Mannsfaust 60599 Frankfurt,50.0978987,8.7228344,highway,way,An_der_Mannsfaust,An der Mannsfaust,An_der_Mannsfaust_60599.jpeg,1
2479,Welschgrabenstraße,6,Zeilsheim,611,6.49,6B,Höchst,17.0,65931,Welschgrabenstraße 65931 Frankfurt,50.0952972,8.4914236,highway,way,Welschgrabenstrasse,Welschgrabenstrasse,Welschgrabenstrasse_65931.jpeg,1
2959,Jürgen-Ponto-Platz,1,Bahnhofsviertel,90,1.03,1,Gallus,4.0,60329,Jürgen-Ponto-Platz 60329 Frankfurt,50.1088547,8.669464,highway,way,Juergen-Ponto-Platz,Juergen-Ponto-Platz,Juergen-Ponto-Platz_60329.jpeg,1
3519,Wilhelm-Koppel-Weg,6,Nied,562,6.43,6A,Höchst,16.0,65934,Wilhelm-Koppel-Weg 65934 Frankfurt,50.1055851,8.5877797,highway,way,Wilhelm-Koppel-Weg,Wilhelm-Koppel-Weg,Wilhelm-Koppel-Weg_65934.jpeg,1
2711,Am Wetterhahn,14,Harheim,660,14.81,14,Nord,14.0,60437,Am Wetterhahn 60437 Frankfurt,50.1866279,8.6934504,highway,way,Am_Wetterhahn,Am Wetterhahn,Am_Wetterhahn_60437.jpeg,1
2344,Theodor-Heuss-Allee,2,Westend-Süd,170,2.11,2,Bockenheim,13.0,60327,Theodor-Heuss-Allee 60327 Frankfurt,50.1136964,8.6504085,highway,way,Theodor-Heuss-Allee,Theodor-Heuss-Allee,Theodor-Heuss-Allee_60327.jpeg,1
2393,Unterer Atzemer,4,Ostend,251,4.25,4,Ost,5.0,60316,Unterer Atzemer 60316 Frankfurt,50.1165797,8.7034431,highway,way,Unterer_Atzemer,Unterer Atzemer,Unterer_Atzemer_60316.jpeg,1
3447,Johanniskirchplatz,4,Bornheim,272,4.22,4,Ost,6.0,60385,Johanniskirchplatz 60385 Frankfurt,50.1309844,8.7117526,amenity,node,Johanniskirchplatz,Johanniskirchplatz,Johanniskirchplatz_60385.jpeg,1
298,Auf der Platte,10,Preungesheim,470,10.73,10,Dornbusch,12.0,60435,Auf der Platte 60435 Frankfurt,50.1487383,8.6933042,highway,way,Auf_der_Platte,Auf der Platte,Auf_der_Platte_60435.jpeg,1
2624,Peter-Henlein-Straße,10,Eckenheim,461,10.72,10,Dornbusch,12.0,60435,Peter-Henlein-Straße 60435 Frankfurt,50.1502852,8.6782154,highway,way,Peter-Henlein-Strasse,Peter-Henlein-Strasse,Peter-Henlein-Strasse_60435.jpeg,1
859,Freudenberger Straße,5,Sachsenhausen-S.,332,5.29,5A,Sachsenhausen,8.0,60599,Freudenberger Straße 60599 Frankfurt,50.0957992,8.6980777,highway,way,Freudenberger_Strasse,Freudenberger Strasse,Freudenberger_Strasse_60599.jpeg,1
1828,Nußbaumstraße,4,Bornheim,272,4.22,4,Ost,6.0,60385,Nußbaumstraße 60385 Frankfurt,50.1349451,8.7126002,highway,way,Nussbaumstrasse,Nussbaumstrasse,Nussbaumstrasse_60385.jpeg,1
2111,Scheerengasse,5,Oberrad,380,5.28,5A,Sachsenhausen,8.0,60599,Scheerengasse 60599 Frankfurt,50.0990121,8.7164336,highway,way,Scheerengasse,Scheerengasse,Scheerengasse_60599.jpeg,1
1776,Nesselbuschstraße,8,Heddernheim,432,8.62,8,Nord,14.0,60439,Nesselbuschstraße 60439 Frankfurt,50.15622,8.6403243,highway,way,Nesselbuschstrasse,Nesselbuschstrasse,Nesselbuschstrasse_60439.jpeg,1
2751,Hinter der Krebsmühle,8,Niederursel,482,8.64,8,Nord,14.0,60439,Hinter der Krebsmühle 60439 Frankfurt,50.176187,8.6099235,highway,way,Hinter_der_Krebsmuehle,Hinter der Krebsmuehle,Hinter_der_Krebsmuehle_60439.jpeg,1
3241,Buber-Neumann-Weg,8,Heddernheim,431,8.61,8,Nord,14.0,60439,Buber-Neumann-Weg 60439 Frankfurt,50.1645488,8.6407749,highway,way,Buber-Neumann-Weg,Buber-Neumann-Weg,Buber-Neumann-Weg_60439.jpeg,1
869,Friedrich-List-Straße,11,Riederwald,262,11.76,11,Ost,18.0,60386,Friedrich-List-Straße 60386 Frankfurt,50.13081275,8.736777715077476,highway,way,Friedrich-List-Strasse,Friedrich-List-Strasse,Friedrich-List-Strasse_60386.jpeg,1
2613,Morsestraße,7,Bockenheim,343,7.57,2,Bockenheim,11.0,60486,Morsestraße 60486 Frankfurt,50.119685,8.625594,highway,way,Morsestrasse,Morsestrasse,Morsestrasse_60486.jpeg,1
2338,Textorstraße,5,Sachsenhausen-N.,321,5.32,5A,Sachsenhausen,8.0,60596,Textorstraße 60596 Frankfurt,50.0985667,8.6780294,highway,way,Textorstrasse,Textorstrasse,Textorstrasse_60596.jpeg,1
2718,Hermannspforte,14,Harheim,660,14.81,14,Nord,14.0,60437,Hermannspforte 60437 Frankfurt,50.1819402,8.6894236,highway,way,Hermannspforte,Hermannspforte,Hermannspforte_60437.jpeg,1
161,Ampèrestraße,2,Bockenheim,344,2.14,2,Bockenheim,11.0,60486,Ampèrestraße 60486 Frankfurt,50.1183666,8.6203377,highway,way,Ampèrestrasse,Ampèrestrasse,Ampèrestrasse_60486.jpeg,1
493,Breitenbachstraße,7,Bockenheim,343,7.57,2,Bockenheim,11.0,60487,Breitenbachstraße 60487 Frankfurt,50.1260039,8.6327888,highway,way,Breitenbachstrasse,Breitenbachstrasse,Breitenbachstrasse_60487.jpeg,1
1143,Herbartstraße,3,Nordend-Ost,230,3.2,3,Ost,3.0,60316,Herbartstraße 60316 Frankfurt,50.1215067,8.6962352,highway,way,Herbartstrasse,Herbartstrasse,Herbartstrasse_60316.jpeg,1
663,Dreieichstraße,5,Sachsenhausen-N.,331,5.31,5A,Sachsenhausen,8.0,60594,Dreieichstraße 60594 Frankfurt,50.1028361,8.6906329,highway,way,Dreieichstrasse,Dreieichstrasse,Dreieichstrasse_60594.jpeg,1
846,Franz-Kafka-Straße,9,Ginnheim,441,9.67,9,Nord,12.0,60431,Franz-Kafka-Straße 60431 Frankfurt,50.1390316,8.6564856,highway,way,Franz-Kafka-Strasse,Franz-Kafka-Strasse,Franz-Kafka-Strasse_60431.jpeg,1
1725,Mierendorffstraße,9,Dornbusch,462,9.69,9,Dornbusch,12.0,60320,Mierendorffstraße 60320 Frankfurt,50.1398506,8.6740618,highway,way,Mierendorffstrasse,Mierendorffstrasse,Mierendorffstrasse_60320.jpeg,1
680,Ebereschenweg,10,Frankfurter Berg,492,10.71,10,Nord,14.0,60433,Ebereschenweg 60433 Frankfurt,50.1675507,8.6678167,highway,way,Ebereschenweg,Ebereschenweg,Ebereschenweg_60433.jpeg,1
2172,Schrimpegasse,6,Schwanheim,531,6.38,6A,Sachsenhausen,10.0,60529,Schrimpegasse 60529 Frankfurt,50.0850437,8.5804662,highway,way,Schrimpegasse,Schrimpegasse,Schrimpegasse_60529.jpeg,1
2492,Westerbachstraße,6,Sossenheim,632,6.54,6C,Höchst,17.0,65936,Westerbachstraße 65936 Frankfurt,50.1232893,8.5703232,highway,way,Westerbachstrasse,Westerbachstrasse,Westerbachstrasse_65936.jpeg,1
1228,Howaldtstraße,4,Ostend,261,4.27,4,Ost,5.0,60314,Howaldtstraße 60314 Frankfurt,50.1115546,8.7023505,highway,way,Howaldtstrasse,Howaldtstrasse,Howaldtstrasse_60314.jpeg,1
3423,Bachforellenweg,1,Gutleutviertel,151,1.04,1,Gallus,4.0,60327,Bachforellenweg 60327 Frankfurt,50.1007908,8.6632506,highway,way,Bachforellenweg,Bachforellenweg,Bachforellenweg_60327.jpeg,1
1553,Leerbachstraße,2,Westend-Süd,110,2.1,2,Bockenheim,3.0,60322,Leerbachstraße 60322 Frankfurt,50.1229225,8.6716355,highway,way,Leerbachstrasse,Leerbachstrasse,Leerbachstrasse_60322.jpeg,1
2681,An der Wellenburg,12,Kalbach-Riedberg,650,12.79,12,Nord,14.0,60437,An der Wellenburg 60437 Frankfurt,50.1867744,8.6352571,highway,way,An_der_Wellenburg,An der Wellenburg,An_der_Wellenburg_60437.jpeg,1
1047,Haeussermannstraße,6,Griesheim,551,6.39,6A,Gallus,16.0,65933,Haeussermannstraße 65933 Frankfurt,50.0912319,8.597652,highway,way,Haeussermannstrasse,Haeussermannstrasse,Haeussermannstrasse_65933.jpeg,1
964,Goldsteinstraße,5,Niederrad,372,5.36,5B,Sachsenhausen,10.0,60528,Goldsteinstraße 60528 Frankfurt,50.0845719,8.6324572,amenity,node,Goldsteinstrasse,Goldsteinstrasse,Goldsteinstrasse_60528.jpeg,1
511,Bruchfeldstraße,5,Niederrad,371,5.35,5B,Sachsenhausen,10.0,60528,Bruchfeldstraße 60528 Frankfurt,50.0863877,8.6417086,amenity,node,Bruchfeldstrasse,Bruchfeldstrasse,Bruchfeldstrasse_60528.jpeg,1
246,An der Seehecke,11,Fechenheim,510,11.77,11,Ost,18.0,60386,An der Seehecke 60386 Frankfurt,50.1251537,8.7639482,highway,way,An_der_Seehecke,An der Seehecke,An_der_Seehecke_60386.jpeg,1
462,Bönstädter Straße,4,Bornheim,272,4.22,4,Ost,6.0,60385,Bönstädter Straße 60385 Frankfurt,50.132427,8.7142082,highway,way,Boenstaedter_Strasse,Boenstaedter Strasse,Boenstaedter_Strasse_60385.jpeg,1
2200,Schwedenpfad,6,Nied,561,6.42,6A,Höchst,17.0,65934,Schwedenpfad 65934 Frankfurt,50.1020141,8.5625341,highway,way,Schwedenpfad,Schwedenpfad,Schwedenpfad_65934.jpeg,1
2619,Guerickestraße,7,Rödelheim,401,7.55,7,Bockenheim,11.0,60488,Guerickestraße 60488 Frankfurt,50.1361752,8.5989247,highway,way,Guerickestrasse,Guerickestrasse,Guerickestrasse_60488.jpeg,1
2131,Schleiermacherstraße,3,Nordend-Ost,230,3.2,3,Ost,3.0,60316,Schleiermacherstraße 60316 Frankfurt,50.1227995,8.6995715,highway,way,Schleiermacherstrasse,Schleiermacherstrasse,Schleiermacherstrasse_60316.jpeg,1
1575,Leunastraße,6,Höchst,591,6.46,6C,Höchst,17.0,65929,Leunastraße 65929 Frankfurt,50.1013538,8.5390357,highway,way,Leunastrasse,Leunastrasse,Leunastrasse_65929.jpeg,1
2430,Waldmeisterpfad,6,Griesheim,542,6.4,6A,Gallus,16.0,65933,Waldmeisterpfad 65933 Frankfurt,50.106626,8.6013276,highway,way,Waldmeisterpfad,Waldmeisterpfad,Waldmeisterpfad_65933.jpeg,1
1344,Justinuskirchstraße,6,Höchst,591,6.46,6C,Höchst,17.0,65929,Justinuskirchstraße 65929 Frankfurt,50.1011376,8.5449911,highway,way,Justinuskirchstrasse,Justinuskirchstrasse,Justinuskirchstrasse_65929.jpeg,1
2894,Landgraben,16,Bergen-Enkheim,680,16.83,16,Ost,18.0,60388,Landgraben 60388 Frankfurt,50.1562788,8.7493215,highway,way,Landgraben,Landgraben,Landgraben_60388.jpeg,1
1534,Landauer Straße,6,Nied,561,6.42,6A,Höchst,16.0,65934,Landauer Straße 65934 Frankfurt,50.0973277,8.5719161,highway,way,Landauer_Strasse,Landauer Strasse,Landauer_Strasse_65934.jpeg,1
1077,Hansenweg,5,Oberrad,380,5.28,5A,Sachsenhausen,8.0,60599,Hansenweg 60599 Frankfurt,50.0975045,8.7188806,highway,way,Hansenweg,Hansenweg,Hansenweg_60599.jpeg,1
2651,Hinterm Hain,13,Nieder-Erlenbach,640,13.8,13,Nord,14.0,60437,Hinterm Hain 60437 Frankfurt,50.2013205,8.708989,highway,way,Hinterm_Hain,Hinterm Hain,Hinterm_Hain_60437.jpeg,1
916,Gellertstraße,3,Nordend-Ost,222,3.18,3,Ost,6.0,60389,Gellertstraße 60389 Frankfurt,50.1307909,8.6964852,highway,way,Gellertstrasse,Gellertstrasse,Gellertstrasse_60389.jpeg,1
1461,Kölner Straße,1,Gallus,161,1.06,1,Gallus,4.0,60327,Kölner Straße 60327 Frankfurt,50.1075335,8.6515511,highway,way,Koelner_Strasse,Koelner Strasse,Koelner_Strasse_60327.jpeg,1
3168,Holbeinsteg,5,Sachsenhausen-N.,321,5.32,5A,Sachsenhausen,4.0,60596,Holbeinsteg 60596 Frankfurt,50.104799,8.6708819,highway,way,Holbeinsteg,Holbeinsteg,Holbeinsteg_60596.jpeg,1
2066,Rühlstraße,9,Eschersheim,452,9.66,9,Dornbusch,12.0,60433,Rühlstraße 60433 Frankfurt,50.1569485,8.6607299,highway,way,Ruehlstrasse,Ruehlstrasse,Ruehlstrasse_60433.jpeg,1
1811,Niederräder Ufer,5,Niederrad,371,5.35,5B,Sachsenhausen,10.0,60528,Niederräder Ufer 60528 Frankfurt,50.0919771,8.6441659,highway,way,Niederraeder_Ufer,Niederraeder Ufer,Niederraeder_Ufer_60528.jpeg,1
191,Am Stiegelschlag,4,Bornheim,272,4.22,4,Ost,6.0,60385,Am Stiegelschlag 60385 Frankfurt,50.1326733,8.7149694,highway,way,Am_Stiegelschlag,Am Stiegelschlag,Am_Stiegelschlag_60385.jpeg,1
284,Auerstraße,6,Höchst,580,6.45,6C,Höchst,17.0,65929,Auerstraße 65929 Frankfurt,50.1054773,8.5514659,highway,way,Auerstrasse,Auerstrasse,Auerstrasse_65929.jpeg,1
98,Am Dornbusch,2,Westend-Nord,192,2.09,2,Dornbusch,12.0,60320,Am Dornbusch 60320 Frankfurt,50.1386188,8.6701407,highway,way,Am_Dornbusch,Am Dornbusch,Am_Dornbusch_60320.jpeg,1
3430,Heinz-Raspe-Platz,4,Ostend,261,4.27,4,Ost,5.0,60314,Heinz-Raspe-Platz 60314 Frankfurt,50.11273995,8.720248485584346,highway,way,Heinz-Raspe-Platz,Heinz-Raspe-Platz,Heinz-Raspe-Platz_60314.jpeg,1
1981,Rehstraße,6,Griesheim,552,6.41,6A,Gallus,16.0,65933,Rehstraße 65933 Frankfurt,50.102731,8.5936834,highway,way,Rehstrasse,Rehstrasse,Rehstrasse_65933.jpeg,1
208,Am Weingarten,2,Bockenheim,361,2.12,2,Bockenheim,13.0,60487,Am Weingarten 60487 Frankfurt,50.122835,8.6472277,highway,way,Am_Weingarten,Am Weingarten,Am_Weingarten_60487.jpeg,1
2498,Wichernstraße,11,Seckbach,390,11.75,11,Ost,6.0,60389,Wichernstraße 60389 Frankfurt,50.1433985,8.7279089,highway,way,Wichernstrasse,Wichernstrasse,Wichernstrasse_60389.jpeg,1
1991,Rembrandtstraße,5,Sachsenhausen-N.,322,5.33,5A,Sachsenhausen,8.0,60596,Rembrandtstraße 60596 Frankfurt,50.1017707,8.6725002,highway,way,Rembrandtstrasse,Rembrandtstrasse,Rembrandtstrasse_60596.jpeg,1
652,Börneplatz,1,Innenstadt,80,1.01,1,Ost,1.0,60311,Börneplatz 60311 Frankfurt,50.1113816,8.6882506,highway,way,Boerneplatz,Boerneplatz,Boerneplatz_60311.jpeg,1
1618,Luciusstraße,6,Höchst,591,6.46,6C,Höchst,17.0,65929,Luciusstraße 65929 Frankfurt,50.0982786,8.5423121,highway,way,Luciusstrasse,Luciusstrasse,Luciusstrasse_65929.jpeg,1
951,Glauburgstraße,3,Nordend-West,211,3.19,3,Ost,3.0,60318,Glauburgstraße 60318 Frankfurt,50.1273568,8.6907021,amenity,node,Glauburgstrasse,Glauburgstrasse,Glauburgstrasse_60318.jpeg,1
3233,Ernst-May-Platz,4,Bornheim,281,4.24,4,Ost,6.0,60385,Ernst-May-Platz 60385 Frankfurt,50.1259184,8.7160726,highway,way,Ernst-May-Platz,Ernst-May-Platz,Ernst-May-Platz_60385.jpeg,1
2255,Sophienstraße,2,Bockenheim,361,2.12,2,Bockenheim,13.0,60487,Sophienstraße 60487 Frankfurt,50.1274121,8.6426355,highway,way,Sophienstrasse,Sophienstrasse,Sophienstrasse_60487.jpeg,1
1901,Paulistraße,6,Höchst,591,6.46,6C,Höchst,17.0,65929,Paulistraße 65929 Frankfurt,50.0979217,8.5411837,highway,way,Paulistrasse,Paulistrasse,Paulistrasse_65929.jpeg,1
1650,Mainzer Landstraße,1,Gallus,152,1.06,1,Gallus,4.0,60326,Mainzer Landstraße 60326 Frankfurt,50.1016812,8.6303867,highway,way,Mainzer_Landstrasse,Mainzer Landstrasse,Mainzer_Landstrasse_60326.jpeg,1
959,Goldammerstraße,5,Niederrad,372,5.36,5B,Sachsenhausen,10.0,60528,Goldammerstraße 60528 Frankfurt,50.0815793,8.6477971,highway,way,Goldammerstrasse,Goldammerstrasse,Goldammerstrasse_60528.jpeg,1
875,Friedrich-Wilhelm-von-Steuben-Straße,7,Hausen,410,7.58,7,Bockenheim,11.0,60488,Friedrich-Wilhelm-von-Steuben-Straße 60488 Frankfurt,50.1296944,8.6283494,highway,way,Friedrich-Wilhelm-von-Steuben-Strasse,Friedrich-Wilhelm-von-Steuben-Strasse,Friedrich-Wilhelm-von-Steuben-Strasse_60488.jpeg,1
2520,Wilhelm-Leuschner-Straße,1,Bahnhofsviertel,90,1.03,1,Gallus,4.0,60329,Wilhelm-Leuschner-Straße 60329 Frankfurt,50.1070798,8.6726064,highway,way,Wilhelm-Leuschner-Strasse,Wilhelm-Leuschner-Strasse,Wilhelm-Leuschner-Strasse_60329.jpeg,1
1095,Hausener Obergasse,7,Hausen,410,7.58,7,Bockenheim,11.0,60488,Hausener Obergasse 60488 Frankfurt,50.1314523,8.6251273,highway,way,Hausener_Obergasse,Hausener Obergasse,Hausener_Obergasse_60488.jpeg,1
2345,Theodor-Stern-Kai,5,Sachsenhausen-N.,322,5.33,5A,Sachsenhausen,8.0,60596,Theodor-Stern-Kai 60596 Frankfurt,50.0978155,8.6635268,highway,way,Theodor-Stern-Kai,Theodor-Stern-Kai,Theodor-Stern-Kai_60596.jpeg,1
1063,Hainer Weg,5,Sachsenhausen-S.,332,5.29,5A,Sachsenhausen,8.0,60599,Hainer Weg 60599 Frankfurt,50.0949943,8.6961842,highway,way,Hainer_Weg,Hainer Weg,Hainer_Weg_60599.jpeg,1
2373,Im Trieb,11,Seckbach,390,11.75,11,Ost,6.0,60389,Im Trieb 60389 Frankfurt,50.1413175,8.7266118,highway,way,Im_Trieb,Im Trieb,Im_Trieb_60389.jpeg,1
2398,Untermainkai,1,Altstadt,10,1.01,1,Ost,1.0,60311,Untermainkai 60311 Frankfurt,50.1075165,8.6756603,highway,way,Untermainkai,Untermainkai,Untermainkai_60311.jpeg,1
888,Füllerstraße,9,Ginnheim,441,9.67,9,Nord,12.0,60431,Füllerstraße 60431 Frankfurt,50.1412448,8.6507355,highway,way,Fuellerstrasse,Fuellerstrasse,Fuellerstrasse_60431.jpeg,1
1240,Humserstraße,3,Nordend-West,202,3.16,3,Dornbusch,12.0,60320,Humserstraße 60320 Frankfurt,50.1351774,8.671828,highway,way,Humserstrasse,Humserstrasse,Humserstrasse_60320.jpeg,1
1394,Kehreinstraße,6,Nied,561,6.42,6A,Höchst,16.0,65934,Kehreinstraße 65934 Frankfurt,50.0988857,8.5706068,highway,way,Kehreinstrasse,Kehreinstrasse,Kehreinstrasse_65934.jpeg,1
1222,Honsellbrücke,4,Ostend,261,4.27,4,Ost,5.0,60314,Honsellbrücke 60314 Frankfurt,50.1075564,8.7110671,highway,way,Honsellbruecke,Honsellbruecke,Honsellbruecke_60314.jpeg,1
669,Droysenstraße,4,Ostend,252,4.25,4,Ost,5.0,60385,Droysenstraße 60385 Frankfurt,50.1179041,8.7123095,highway,way,Droysenstrasse,Droysenstrasse,Droysenstrasse_60385.jpeg,1
2369,Trajanstraße,8,Heddernheim,432,8.62,8,Nord,14.0,60439,Trajanstraße 60439 Frankfurt,50.1595624,8.6399917,highway,way,Trajanstrasse,Trajanstrasse,Trajanstrasse_60439.jpeg,1
2247,Solmsstraße,2,Bockenheim,342,2.14,2,Bockenheim,13.0,60486,Solmsstraße 60486 Frankfurt,50.1185212,8.628877,highway,way,Solmsstrasse,Solmsstrasse,Solmsstrasse_60486.jpeg,1
972,Gräfendeichstraße,5,Oberrad,380,5.28,5A,Sachsenhausen,8.0,60599,Gräfendeichstraße 60599 Frankfurt,50.1016358,8.7289748,highway,way,Graefendeichstrasse,Graefendeichstrasse,Graefendeichstrasse_60599.jpeg,1
3319,Buchrainplatz,5,Oberrad,380,5.28,5A,Sachsenhausen,8.0,60599,Buchrainplatz 60599 Frankfurt,50.1006931,8.7237386,highway,way,Buchrainplatz,Buchrainplatz,Buchrainplatz_60599.jpeg,1
1091,Hasselhorstweg,5,Sachsenhausen-S.,332,5.29,5A,Sachsenhausen,8.0,60599,Hasselhorstweg 60599 Frankfurt,50.0870798,8.7013949,amenity,node,Hasselhorstweg,Hasselhorstweg,Hasselhorstweg_60599.jpeg,1
3696,Max-Horkheimer-Straße,2,Westend-Nord,191,2.09,2,Dornbusch,3.0,60323,Max-Horkheimer-Straße 60323 Frankfurt,50.1291876,8.6694932,highway,way,Max-Horkheimer-Strasse,Max-Horkheimer-Strasse,Max-Horkheimer-Strasse_60323.jpeg,1
262,Anspacher Straße,1,Gallus,165,1.08,1,Gallus,4.0,60326,Anspacher Straße 60326 Frankfurt,50.105936,8.6218599,highway,way,Anspacher_Strasse,Anspacher Strasse,Anspacher_Strasse_60326.jpeg,1
1331,Josbacher Straße,1,Gallus,165,1.08,1,Gallus,4.0,60326,Josbacher Straße 60326 Frankfurt,50.1037158,8.6271743,highway,way,Josbacher_Strasse,Josbacher Strasse,Josbacher_Strasse_60326.jpeg,1
2069,Rüsterstraße,2,Westend-Süd,100,2.11,2,Bockenheim,13.0,60325,Rüsterstraße 60325 Frankfurt,50.1130671,8.6629704,highway,way,Ruesterstrasse,Ruesterstrasse,Ruesterstrasse_60325.jpeg,1
1562,Leipziger Straße,2,Bockenheim,350,2.13,2,Bockenheim,13.0,60487,Leipziger Straße 60487 Frankfurt,50.1226251,8.6455438,railway,node,Leipziger_Strasse,Leipziger Strasse,Leipziger_Strasse_60487.jpeg,1
994,Große Gallusstraße,1,Innenstadt,40,1.03,1,Ost,1.0,60312,Große Gallusstraße 60312 Frankfurt,50.1113887,8.6736982,highway,way,Grosse_Gallusstrasse,Grosse Gallusstrasse,Grosse_Gallusstrasse_60312.jpeg,1
900,Garbenstraße,1,Gutleutviertel,151,1.04,1,Gallus,4.0,60327,Garbenstraße 60327 Frankfurt,50.0952496,8.6403035,highway,way,Garbenstrasse,Garbenstrasse,Garbenstrasse_60327.jpeg,1
1644,Mainkai,1,Altstadt,10,1.01,1,Ost,1.0,60311,Mainkai 60311 Frankfurt,50.1089882,8.6821028,railway,node,Mainkai,Mainkai,Mainkai_60311.jpeg,1
2946,Heinrich-Lübke-Straße,7,Praunheim,422,7.59,7,Bockenheim,14.0,60488,Heinrich-Lübke-Straße 60488 Frankfurt,50.1434579,8.6130036,highway,way,Heinrich-Luebke-Strasse,Heinrich-Luebke-Strasse,Heinrich-Luebke-Strasse_60488.jpeg,1
992,Große Fischerstraße,1,Altstadt,10,1.01,1,Ost,1.0,60311,Große Fischerstraße 60311 Frankfurt,50.1097558,8.6856055,highway,way,Grosse_Fischerstrasse,Grosse Fischerstrasse,Grosse_Fischerstrasse_60311.jpeg,1
1932,Platanenstraße,6,Griesheim,552,6.41,6A,Gallus,16.0,65933,Platanenstraße 65933 Frankfurt,50.0972911,8.6054562,highway,way,Platanenstrasse,Platanenstrasse,Platanenstrasse_65933.jpeg,1
3680,Ziegelei-Allee,7,Praunheim,422,7.59,7,Bockenheim,14.0,60488,Ziegelei-Allee 60488 Frankfurt,50.1447528,8.6069527,highway,way,Ziegelei-Allee,Ziegelei-Allee,Ziegelei-Allee_60488.jpeg,1
2416,Vogesenstraße,6,Schwanheim,531,6.38,6A,Sachsenhausen,10.0,60529,Vogesenstraße 60529 Frankfurt,50.0848241,8.575979,amenity,node,Vogesenstrasse,Vogesenstrasse,Vogesenstrasse_60529.jpeg,1
956,Goethestraße,1,Innenstadt,50,1.02,1,Ost,1.0,60313,Goethestraße 60313 Frankfurt,50.1136636,8.6760008,highway,way,Goethestrasse,Goethestrasse,Goethestrasse_60313.jpeg,1
995,Große Nelkenstraße,7,Hausen,410,7.58,7,Bockenheim,11.0,60488,Große Nelkenstraße 60488 Frankfurt,50.1325914,8.6273862,highway,way,Grosse_Nelkenstrasse,Grosse Nelkenstrasse,Grosse_Nelkenstrasse_60488.jpeg,1
795,Feuerbachstraße,2,Westend-Süd,100,2.11,2,Bockenheim,13.0,60325,Feuerbachstraße 60325 Frankfurt,50.1177934,8.6635522,highway,way,Feuerbachstrasse,Feuerbachstrasse,Feuerbachstrasse_60325.jpeg,1
2544,Woogstraße,9,Ginnheim,441,9.67,9,Nord,12.0,60431,Woogstraße 60431 Frankfurt,50.1452155,8.6470114,highway,way,Woogstrasse,Woogstrasse,Woogstrasse_60431.jpeg,1
3675,Mitscherlichplatz,2,Westend-Nord,191,2.09,2,Dornbusch,3.0,60323,Mitscherlichplatz 60323 Frankfurt,50.1233901,8.66525683399669,leisure,way,Mitscherlichplatz,Mitscherlichplatz,Mitscherlichplatz_60323.jpeg,1
382,Battonnstraße,1,Innenstadt,80,1.01,1,Ost,1.0,60311,Battonnstraße 60311 Frankfurt,50.1124177,8.6861621,highway,way,Battonnstrasse,Battonnstrasse,Battonnstrasse_60311.jpeg,1
2045,Rossertstraße,2,Westend-Süd,180,2.1,2,Bockenheim,3.0,60323,Rossertstraße 60323 Frankfurt,50.1226381,8.6608565,highway,way,Rossertstrasse,Rossertstrasse,Rossertstrasse_60323.jpeg,1
2186,Schwalbacher Straße,1,Gallus,153,1.05,1,Gallus,4.0,60326,Schwalbacher Straße 60326 Frankfurt,50.1038676,8.6360289,amenity,node,Schwalbacher_Strasse,Schwalbacher Strasse,Schwalbacher_Strasse_60326.jpeg,1
1484,Kopernikusstraße,6,Höchst,570,6.44,6C,Höchst,17.0,65929,Kopernikusstraße 65929 Frankfurt,50.106043,8.5393963,highway,way,Kopernikusstrasse,Kopernikusstrasse,Kopernikusstrasse_65929.jpeg,1
2571,Zorbachstraße,10,Preungesheim,470,10.73,10,Dornbusch,12.0,60435,Zorbachstraße 60435 Frankfurt,50.1531006,8.6897232,highway,way,Zorbachstrasse,Zorbachstrasse,Zorbachstrasse_60435.jpeg,1
19,Ahornstraße,6,Griesheim,552,6.41,6A,Gallus,16.0,65933,Ahornstraße 65933 Frankfurt,50.0977096,8.6029078,highway,way,Ahornstrasse,Ahornstrasse,Ahornstrasse_65933.jpeg,1
1535,Landgrafenstraße,2,Bockenheim,350,2.13,2,Bockenheim,13.0,60487,Landgrafenstraße 60487 Frankfurt,50.1208823,8.6471726,highway,way,Landgrafenstrasse,Landgrafenstrasse,Landgrafenstrasse_60487.jpeg,1
3758,Cäcilie-Breckheimer-Platz,11,Riederwald,262,11.76,11,Ost,18.0,60386,Cäcilie-Breckheimer-Platz 60386 Frankfurt,50.1284424,8.734420798600787,highway,way,Caecilie-Breckheimer-Platz,Caecilie-Breckheimer-Platz,Caecilie-Breckheimer-Platz_60386.jpeg,1
1007,Grüne Straße,4,Ostend,140,4.26,4,Ost,5.0,60316,Grüne Straße 60316 Frankfurt,50.1143665,8.6964312,highway,way,Gruene_Strasse,Gruene Strasse,Gruene_Strasse_60316.jpeg,1
22,Albanusstraße,6,Höchst,591,6.46,6C,Höchst,17.0,65929,Albanusstraße 65929 Frankfurt,50.1016635,8.5459726,highway,way,Albanusstrasse,Albanusstrasse,Albanusstrasse_65929.jpeg,1
1460,Kochstraße,5,Oberrad,380,5.28,5A,Sachsenhausen,8.0,60599,Kochstraße 60599 Frankfurt,50.1002107,8.7161167,highway,way,Kochstrasse,Kochstrasse,Kochstrasse_60599.jpeg,1
1458,Kobbachstraße,9,Eschersheim,451,9.65,9,Dornbusch,12.0,60433,Kobbachstraße 60433 Frankfurt,50.1609772,8.6601801,highway,way,Kobbachstrasse,Kobbachstrasse,Kobbachstrasse_60433.jpeg,1
1466,Königsteiner Straße,6,Höchst,591,6.46,6C,Höchst,17.0,65929,Königsteiner Straße 65929 Frankfurt,50.1079675,8.5415609,highway,way,Koenigsteiner_Strasse,Koenigsteiner Strasse,Koenigsteiner_Strasse_65929.jpeg,1
697,Eichendorffstraße,9,Dornbusch,442,9.68,9,Dornbusch,12.0,60320,Eichendorffstraße 60320 Frankfurt,50.1401674,8.6649173,amenity,node,Eichendorffstrasse,Eichendorffstrasse,Eichendorffstrasse_60320.jpeg,1
657,Dorfelder Straße,4,Bornheim,271,4.23,4,Ost,6.0,60385,Dorfelder Straße 60385 Frankfurt,50.1286392,8.7084544,highway,way,Dorfelder_Strasse,Dorfelder Strasse,Dorfelder_Strasse_60385.jpeg,1
1441,Kleiner Hirschgraben,1,Altstadt,10,1.01,1,Ost,1.0,60311,Kleiner Hirschgraben 60311 Frankfurt,50.1121941,8.6787921,highway,way,Kleiner_Hirschgraben,Kleiner Hirschgraben,Kleiner_Hirschgraben_60311.jpeg,1
2029,Röderbergweg,4,Ostend,251,4.25,4,Ost,5.0,60316,Röderbergweg 60316 Frankfurt,50.1185277,8.7159931,highway,way,Roederbergweg,Roederbergweg,Roederbergweg_60316.jpeg,1
2612,Mailänder Straße,5,Sachsenhausen-S.,323,5.3,5A,Sachsenhausen,8.0,60598,Mailänder Straße 60598 Frankfurt,50.0905899,8.6876511,highway,way,Mailaender_Strasse,Mailaender Strasse,Mailaender_Strasse_60598.jpeg,1
985,Griesheimer Stadtweg,1,Gutleutviertel,151,1.04,1,Gallus,16.0,60327,Griesheimer Stadtweg 60327 Frankfurt,50.0919079,8.6205979,highway,way,Griesheimer_Stadtweg,Griesheimer Stadtweg,Griesheimer_Stadtweg_60327.jpeg,1
1316,Jakob-Heller-Straße,9,Dornbusch,463,9.69,9,Dornbusch,12.0,60320,Jakob-Heller-Straße 60320 Frankfurt,50.1390603,8.6814277,highway,way,Jakob-Heller-Strasse,Jakob-Heller-Strasse,Jakob-Heller-Strasse_60320.jpeg,1
3231,Leunabrücke,6,Schwanheim,531,6.38,6A,Sachsenhausen,10.0,60529,Leunabrücke 60529 Frankfurt,50.09449785,8.545872130562362,man_made,way,Leunabruecke,Leunabruecke,Leunabruecke_60529.jpeg,1
2887,Im Sperber,16,Bergen-Enkheim,680,16.83,16,Ost,18.0,60388,Im Sperber 60388 Frankfurt,50.1545357,8.7537279,highway,way,Im_Sperber,Im Sperber,Im_Sperber_60388.jpeg,1
30,Allerheiligenstraße,1,Innenstadt,80,1.01,1,Ost,1.0,60313,Allerheiligenstraße 60313 Frankfurt,50.1134816,8.6904755,highway,way,Allerheiligenstrasse,Allerheiligenstrasse,Allerheiligenstrasse_60313.jpeg,1
1566,Leonhardsgasse,11,Seckbach,390,11.75,11,Ost,6.0,60389,Leonhardsgasse 60389 Frankfurt,50.1449592,8.7289046,highway,way,Leonhardsgasse,Leonhardsgasse,Leonhardsgasse_60389.jpeg,1
1327,Johannesallee,6,Unterliederbach,621,6.51,6C,Höchst,17.0,65929,Johannesallee 65929 Frankfurt,50.1084645,8.5383551,highway,way,Johannesallee,Johannesallee,Johannesallee_65929.jpeg,1
1521,Kurt-Schumacher-Straße,1,Altstadt,10,1.01,1,Ost,1.0,60311,Kurt-Schumacher-Straße 60311 Frankfurt,50.1097385,8.6877287,highway,way,Kurt-Schumacher-Strasse,Kurt-Schumacher-Strasse,Kurt-Schumacher-Strasse_60311.jpeg,1
598,Chattenweg,6,Unterliederbach,622,6.52,6C,Höchst,17.0,65929,Chattenweg 65929 Frankfurt,50.1133292,8.5362683,highway,way,Chattenweg,Chattenweg,Chattenweg_65929.jpeg,1
1726,Miltenberger Straße,5,Sachsenhausen-S.,332,5.29,5A,Sachsenhausen,8.0,60599,Miltenberger Straße 60599 Frankfurt,50.0966079,8.6993214,highway,way,Miltenberger_Strasse,Miltenberger Strasse,Miltenberger_Strasse_60599.jpeg,1
2993,Volgersbrunnenweg,11,Riederwald,262,11.76,11,Ost,18.0,60386,Volgersbrunnenweg 60386 Frankfurt,50.1262073,8.7378144,highway,way,Volgersbrunnenweg,Volgersbrunnenweg,Volgersbrunnenweg_60386.jpeg,1
297,Auf der Lindenhöhe,9,Eschersheim,452,9.66,9,Dornbusch,12.0,60433,Auf der Lindenhöhe 60433 Frankfurt,50.1507152,8.6650439,highway,way,Auf_der_Lindenhoehe,Auf der Lindenhoehe,Auf_der_Lindenhoehe_60433.jpeg,1
577,Burgholzer Platz,9,Eschersheim,452,9.66,9,Dornbusch,12.0,60433,Burgholzer Platz 60433 Frankfurt,50.1557204,8.6691484,highway,way,Burgholzer_Platz,Burgholzer Platz,Burgholzer_Platz_60433.jpeg,1
3579,Karl-Gerold-Platz,5,Sachsenhausen-N.,324,5.32,5A,Sachsenhausen,8.0,60594,Karl-Gerold-Platz 60594 Frankfurt,50.1013962,8.686509282740031,highway,way,Karl-Gerold-Platz,Karl-Gerold-Platz,Karl-Gerold-Platz_60594.jpeg,1
1147,Herborner Straße,8,Heddernheim,431,8.61,8,Nord,14.0,60439,Herborner Straße 60439 Frankfurt,50.1564757,8.6481345,highway,way,Herborner_Strasse,Herborner Strasse,Herborner_Strasse_60439.jpeg,1
1585,Liebknechtstraße,6,Unterliederbach,622,6.52,6C,Höchst,17.0,65929,Liebknechtstraße 65929 Frankfurt,50.1067458,8.5430423,highway,way,Liebknechtstrasse,Liebknechtstrasse,Liebknechtstrasse_65929.jpeg,1
257,Anemonenpfad,6,Griesheim,542,6.4,6A,Gallus,16.0,65933,Anemonenpfad 65933 Frankfurt,50.1068013,8.6016358,highway,way,Anemonenpfad,Anemonenpfad,Anemonenpfad_65933.jpeg,1
91,Am Brennhaus,6,Griesheim,541,6.39,6A,Gallus,16.0,65933,Am Brennhaus 65933 Frankfurt,50.0936955,8.6102516,highway,way,Am_Brennhaus,Am Brennhaus,Am_Brennhaus_65933.jpeg,1
438,Bischofsweg,5,Sachsenhausen-S.,326,5.34,5A,Sachsenhausen,8.0,60598,Bischofsweg 60598 Frankfurt,50.0829749,8.68131,amenity,node,Bischofsweg,Bischofsweg,Bischofsweg_60598.jpeg,1
1301,In der Schildwacht,6,Griesheim,552,6.41,6A,Gallus,16.0,65933,In der Schildwacht 65933 Frankfurt,50.0975042,8.5929521,highway,way,In_der_Schildwacht,In der Schildwacht,In_der_Schildwacht_65933.jpeg,1
2241,Sinner Weg,8,Heddernheim,431,8.61,8,Nord,14.0,60439,Sinner Weg 60439 Frankfurt,50.1630353,8.6398806,highway,way,Sinner_Weg,Sinner Weg,Sinner_Weg_60439.jpeg,1
2095,Sandhofstraße,5,Niederrad,371,5.35,5B,Sachsenhausen,10.0,60528,Sandhofstraße 60528 Frankfurt,50.0921778,8.6582432,highway,way,Sandhofstrasse,Sandhofstrasse,Sandhofstrasse_60528.jpeg,1
2846,Am Rebenborn,16,Bergen-Enkheim,680,16.83,16,Ost,18.0,60388,Am Rebenborn 60388 Frankfurt,50.152006,8.7473203,highway,way,Am_Rebenborn,Am Rebenborn,Am_Rebenborn_60388.jpeg,1
3330,Carl-von-Noorden-Platz,5,Sachsenhausen-N.,322,5.33,5A,Sachsenhausen,8.0,60596,Carl-von-Noorden-Platz 60596 Frankfurt,50.0974865,8.6632336,highway,way,Carl-von-Noorden-Platz,Carl-von-Noorden-Platz,Carl-von-Noorden-Platz_60596.jpeg,1
1646,Mainluststraße,1,Bahnhofsviertel,90,1.03,1,Gallus,4.0,60329,Mainluststraße 60329 Frankfurt,50.1066459,8.6715832,highway,way,Mainluststrasse,Mainluststrasse,Mainluststrasse_60329.jpeg,1
1538,Landvogtstraße,9,Dornbusch,462,9.69,9,Dornbusch,12.0,60320,Landvogtstraße 60320 Frankfurt,50.1392627,8.6722867,highway,way,Landvogtstrasse,Landvogtstrasse,Landvogtstrasse_60320.jpeg,1
3353,Martin-Weber-Platz,4,Bornheim,281,4.24,4,Ost,6.0,60385,Martin-Weber-Platz 60385 Frankfurt,50.126899550000005,8.718122342951862,highway,way,Martin-Weber-Platz,Martin-Weber-Platz,Martin-Weber-Platz_60385.jpeg,1
1920,Pfingstbrunnenstraße,2,Bockenheim,342,2.14,2,Bockenheim,13.0,60486,Pfingstbrunnenstraße 60486 Frankfurt,50.1163274,8.6385563,highway,way,Pfingstbrunnenstrasse,Pfingstbrunnenstrasse,Pfingstbrunnenstrasse_60486.jpeg,1
1666,Marienstraße,1,Bahnhofsviertel,90,1.03,1,Gallus,4.0,60329,Marienstraße 60329 Frankfurt,50.1122054,8.6692739,highway,way,Marienstrasse,Marienstrasse,Marienstrasse_60329.jpeg,1
1467,Königswarterstraße,4,Ostend,140,4.26,4,Ost,5.0,60316,Königswarterstraße 60316 Frankfurt,50.1171018,8.6989002,highway,way,Koenigswarterstrasse,Koenigswarterstrasse,Koenigswarterstrasse_60316.jpeg,1
3347,Lia-Wöhr-Platz,1,Gallus,161,1.06,1,Gallus,4.0,60327,Lia-Wöhr-Platz 60327 Frankfurt,50.10741235,8.651064312260681,leisure,way,Lia-Woehr-Platz,Lia-Woehr-Platz,Lia-Woehr-Platz_60327.jpeg,1
229,An der Bitz,7,Praunheim,422,7.59,7,Bockenheim,14.0,60488,An der Bitz 60488 Frankfurt,50.1476346,8.6222293,highway,way,An_der_Bitz,An der Bitz,An_der_Bitz_60488.jpeg,1
2280,Stegerwaldstraße,6,Unterliederbach,621,6.51,6C,Höchst,17.0,65929,Stegerwaldstraße 65929 Frankfurt,50.1117275,8.5329695,highway,way,Stegerwaldstrasse,Stegerwaldstrasse,Stegerwaldstrasse_65929.jpeg,1
630,Deutschherrnbrücke,5,Sachsenhausen-N.,331,5.31,5A,Sachsenhausen,8.0,60594,Deutschherrnbrücke 60594 Frankfurt,50.1053276,8.7041905,highway,node,Deutschherrnbruecke,Deutschherrnbruecke,Deutschherrnbruecke_60594.jpeg,1
709,Eiserner Steg,5,Sachsenhausen-N.,300,5.31,5A,Sachsenhausen,8.0,60594,Eiserner Steg 60594 Frankfurt,50.1080532,8.682139074311543,man_made,way,Eiserner_Steg,Eiserner Steg,Eiserner_Steg_60594.jpeg,1
937,Gießener Straße,3,Nordend-West,213,3.17,3,Ost,12.0,60435,Gießener Straße 60435 Frankfurt,50.1512168,8.6883666,highway,way,Giessener_Strasse,Giessener Strasse,Giessener_Strasse_60435.jpeg,1
1161,Herzogstraße,5,Niederrad,372,5.36,5B,Sachsenhausen,10.0,60528,Herzogstraße 60528 Frankfurt,50.0822635,8.6500938,highway,way,Herzogstrasse,Herzogstrasse,Herzogstrasse_60528.jpeg,1
2620,Ossietzkystraße,5,Sachsenhausen-S.,323,5.3,5A,Sachsenhausen,8.0,60598,Ossietzkystraße 60598 Frankfurt,50.0978438,8.6877883,highway,way,Ossietzkystrasse,Ossietzkystrasse,Ossietzkystrasse_60598.jpeg,1
587,Camberger Straße,1,Gallus,153,1.05,1,Gallus,4.0,60327,Camberger Straße 60327 Frankfurt,50.1000845,8.648591,highway,way,Camberger_Strasse,Camberger Strasse,Camberger_Strasse_60327.jpeg,1
1695,Max-Hirsch-Straße,11,Riederwald,262,11.76,11,Ost,18.0,60386,Max-Hirsch-Straße 60386 Frankfurt,50.1291678,8.7312448,highway,way,Max-Hirsch-Strasse,Max-Hirsch-Strasse,Max-Hirsch-Strasse_60386.jpeg,1
1149,Hermann-Brill-Straße,6,Sindlingen,601,6.47,6B,Höchst,17.0,65931,Hermann-Brill-Straße 65931 Frankfurt,50.081506,8.5125228,highway,way,Hermann-Brill-Strasse,Hermann-Brill-Strasse,Hermann-Brill-Strasse_65931.jpeg,1
1529,Lärchenstraße,6,Griesheim,552,6.41,6A,Gallus,16.0,65933,Lärchenstraße 65933 Frankfurt,50.0965448,8.599374,highway,way,Laerchenstrasse,Laerchenstrasse,Laerchenstrasse_65933.jpeg,1
432,Birkenweg,2,Bockenheim,342,2.14,2,Bockenheim,13.0,60486,Birkenweg 60486 Frankfurt,50.1185255,8.6304272,highway,way,Birkenweg,Birkenweg,Birkenweg_60486.jpeg,1
75,Alt-Zeilsheim,6,Zeilsheim,611,6.49,6B,Höchst,17.0,65931,Alt-Zeilsheim 65931 Frankfurt,50.0964575,8.4904404,highway,way,Alt-Zeilsheim,Alt-Zeilsheim,Alt-Zeilsheim_65931.jpeg,1
1860,Offenbacher Landstraße,5,Sachsenhausen-N.,331,5.31,5A,Sachsenhausen,8.0,60599,Offenbacher Landstraße 60599 Frankfurt,50.099173,8.7114005,highway,way,Offenbacher_Landstrasse,Offenbacher Landstrasse,Offenbacher_Landstrasse_60599.jpeg,1
1941,Prächterstraße,9,Ginnheim,441,9.67,9,Nord,12.0,60431,Prächterstraße 60431 Frankfurt,50.1374159,8.644555,highway,way,Praechterstrasse,Praechterstrasse,Praechterstrasse_60431.jpeg,1
1320,Jaspertstraße,10,Preungesheim,470,10.73,10,Dornbusch,12.0,60435,Jaspertstraße 60435 Frankfurt,50.1510659,8.6926119,highway,way,Jaspertstrasse,Jaspertstrasse,Jaspertstrasse_60435.jpeg,1
1251,Ilkenhansstraße,9,Eschersheim,452,9.66,9,Dornbusch,12.0,60433,Ilkenhansstraße 60433 Frankfurt,50.1531076,8.664045,highway,way,Ilkenhansstrasse,Ilkenhansstrasse,Ilkenhansstrasse_60433.jpeg,1
879,Fritzlarer Straße,2,Bockenheim,362,2.12,2,Bockenheim,13.0,60487,Fritzlarer Straße 60487 Frankfurt,50.1253095,8.6369656,highway,way,Fritzlarer_Strasse,Fritzlarer Strasse,Fritzlarer_Strasse_60487.jpeg,1
2415,Vogelweidstraße,5,Sachsenhausen-N.,322,5.33,5A,Sachsenhausen,8.0,60596,Vogelweidstraße 60596 Frankfurt,50.0978044,8.6664813,amenity,node,Vogelweidstrasse,Vogelweidstrasse,Vogelweidstrasse_60596.jpeg,1
3458,Heinrich-Lanz-Allee,12,Kalbach-Riedberg,650,12.79,12,Nord,14.0,60437,Heinrich-Lanz-Allee 60437 Frankfurt,50.1903435,8.6528866,highway,way,Heinrich-Lanz-Allee,Heinrich-Lanz-Allee,Heinrich-Lanz-Allee_60437.jpeg,1
2794,Ferdinand-Schrey-Weg,5,Sachsenhausen-S.,323,5.3,5A,Sachsenhausen,8.0,60598,Ferdinand-Schrey-Weg 60598 Frankfurt,50.0905841,8.6809279,highway,way,Ferdinand-Schrey-Weg,Ferdinand-Schrey-Weg,Ferdinand-Schrey-Weg_60598.jpeg,1
2457,Wed,6,Höchst,591,6.46,6C,Höchst,17.0,65929,Wed 65929 Frankfurt,50.0995774,8.5466312,highway,way,Wed,Wed,Wed_65929.jpeg,1
2395,Unterlindau,2,Westend-Süd,110,2.1,2,Bockenheim,3.0,60323,Unterlindau 60323 Frankfurt,50.1211706,8.6674117,highway,way,Unterlindau,Unterlindau,Unterlindau_60323.jpeg,1
758,Eschersheimer Landstraße,2,Westend-Süd,110,2.1,2,Bockenheim,3.0,60322,Eschersheimer Landstraße 60322 Frankfurt,50.1242968,8.6751665,highway,way,Eschersheimer_Landstrasse,Eschersheimer Landstrasse,Eschersheimer_Landstrasse_60322.jpeg,1
1658,Manskopfstraße,2,Bockenheim,163,2.15,2,Bockenheim,13.0,60486,Manskopfstraße 60486 Frankfurt,50.1141237,8.6342561,highway,way,Manskopfstrasse,Manskopfstrasse,Manskopfstrasse_60486.jpeg,1
3154,Am Seckbacher Preul,11,Seckbach,390,11.75,11,Ost,6.0,60389,Am Seckbacher Preul 60389 Frankfurt,50.1423437,8.729004,highway,way,Am_Seckbacher_Preul,Am Seckbacher Preul,Am_Seckbacher_Preul_60389.jpeg,1
1356,Kandelstraße,5,Niederrad,371,5.35,5B,Sachsenhausen,10.0,60528,Kandelstraße 60528 Frankfurt,50.085872,8.6435846,highway,way,Kandelstrasse,Kandelstrasse,Kandelstrasse_60528.jpeg,1
203,Am Weidenbaum,6,Griesheim,541,6.39,6A,Gallus,16.0,65933,Am Weidenbaum 65933 Frankfurt,50.091021,8.6127716,highway,way,Am_Weidenbaum,Am Weidenbaum,Am_Weidenbaum_65933.jpeg,1
379,Baseler Straße,1,Gutleutviertel,151,1.04,1,Gallus,4.0,60329,Baseler Straße 60329 Frankfurt,50.1057609,8.6651685,highway,way,Baseler_Strasse,Baseler Strasse,Baseler_Strasse_60329.jpeg,1
2168,Schottener Straße,10,Eckenheim,461,10.72,10,Dornbusch,12.0,60435,Schottener Straße 60435 Frankfurt,50.1514459,8.6869775,highway,way,Schottener_Strasse,Schottener Strasse,Schottener_Strasse_60435.jpeg,1
3257,An der Rosenkranzkirche,11,Seckbach,390,11.75,11,Ost,6.0,60389,An der Rosenkranzkirche 60389 Frankfurt,50.1401719,8.7219701,highway,way,An_der_Rosenkranzkirche,An der Rosenkranzkirche,An_der_Rosenkranzkirche_60389.jpeg,1
1611,Loreleistraße,6,Unterliederbach,621,6.51,6C,Höchst,17.0,65929,Loreleistraße 65929 Frankfurt,50.1072534,8.540183,highway,way,Loreleistrasse,Loreleistrasse,Loreleistrasse_65929.jpeg,1
1196,Hofeckweg,9,Dornbusch,463,9.69,9,Dornbusch,12.0,60320,Hofeckweg 60320 Frankfurt,50.1372566,8.6828004,highway,way,Hofeckweg,Hofeckweg,Hofeckweg_60320.jpeg,1
1980,Rechneigrabenstraße,1,Innenstadt,80,1.01,1,Ost,1.0,60311,Rechneigrabenstraße 60311 Frankfurt,50.111324,8.6902974,highway,way,Rechneigrabenstrasse,Rechneigrabenstrasse,Rechneigrabenstrasse_60311.jpeg,1
3276,Martin-Elsässer-Weg,4,Ostend,140,4.26,4,Ost,5.0,60314,Martin-Elsässer-Weg 60314 Frankfurt,50.111117,8.6986429,highway,way,Martin-Elsaesser-Weg,Martin-Elsaesser-Weg,Martin-Elsaesser-Weg_60314.jpeg,1
1750,Mühlwehrstraße,7,Hausen,410,7.58,7,Bockenheim,11.0,60488,Mühlwehrstraße 60488 Frankfurt,50.1319652,8.6235068,highway,way,Muehlwehrstrasse,Muehlwehrstrasse,Muehlwehrstrasse_60488.jpeg,1
1310,Iselinstraße,11,Riederwald,262,11.76,11,Ost,18.0,60386,Iselinstraße 60386 Frankfurt,50.126708,8.7389576,highway,way,Iselinstrasse,Iselinstrasse,Iselinstrasse_60386.jpeg,1
3745,An der alten Ziegelei,15,Nieder-Eschbach,670,15.82,15,Nord,14.0,60437,An der alten Ziegelei 60437 Frankfurt,50.1912519,8.6630988,highway,way,An_der_alten_Ziegelei,An der alten Ziegelei,An_der_alten_Ziegelei_60437.jpeg,1
2480,Wendelsplatz,5,Sachsenhausen-S.,323,5.3,5A,Sachsenhausen,8.0,60598,Wendelsplatz 60598 Frankfurt,50.1006277,8.691522,place,node,Wendelsplatz,Wendelsplatz,Wendelsplatz_60598.jpeg,1
2709,Am Eschbachtal,14,Harheim,660,14.81,14,Nord,14.0,60437,Am Eschbachtal 60437 Frankfurt,50.1856657,8.6937813,highway,way,Am_Eschbachtal,Am Eschbachtal,Am_Eschbachtal_60437.jpeg,1
3735,Alter Gerichtsplatz,12,Kalbach-Riedberg,651,12.79,12,Nord,14.0,60438,Alter Gerichtsplatz 60438 Frankfurt,50.17714745,8.637048163852041,highway,way,Alter_Gerichtsplatz,Alter Gerichtsplatz,Alter_Gerichtsplatz_60438.jpeg,1
3703,Zeppelinpark,2,Bockenheim,163,2.15,2,Bockenheim,13.0,60486,Zeppelinpark 60486 Frankfurt,50.11057955,8.627618054882815,leisure,way,Zeppelinpark,Zeppelinpark,Zeppelinpark_60486.jpeg,1
1043,Hänggasse,6,Schwanheim,531,6.38,6A,Sachsenhausen,10.0,60529,Hänggasse 60529 Frankfurt,50.0879437,8.5812267,highway,way,Haenggasse,Haenggasse,Haenggasse_60529.jpeg,1
1722,Metzstraße,2,Bockenheim,361,2.12,2,Bockenheim,13.0,60487,Metzstraße 60487 Frankfurt,50.1250392,8.6411002,highway,way,Metzstrasse,Metzstrasse,Metzstrasse_60487.jpeg,1
1205,Hohenstaufenstraße,1,Gallus,161,1.06,1,Gallus,13.0,60327,Hohenstaufenstraße 60327 Frankfurt,50.1105399,8.6570186,highway,way,Hohenstaufenstrasse,Hohenstaufenstrasse,Hohenstaufenstrasse_60327.jpeg,1
1108,Heidelbachstraße,4,Bornheim,281,4.24,4,Ost,5.0,60385,Heidelbachstraße 60385 Frankfurt,50.1253817,8.7130876,highway,way,Heidelbachstrasse,Heidelbachstrasse,Heidelbachstrasse_60385.jpeg,1
2539,Wörsdorfer Straße,1,Gallus,165,1.08,1,Gallus,4.0,60326,Wörsdorfer Straße 60326 Frankfurt,50.1060716,8.6270216,highway,way,Woersdorfer_Strasse,Woersdorfer Strasse,Woersdorfer_Strasse_60326.jpeg,1
1891,Paquetstraße,9,Ginnheim,441,9.67,9,Nord,12.0,60431,Paquetstraße 60431 Frankfurt,50.1431677,8.65848,highway,way,Paquetstrasse,Paquetstrasse,Paquetstrasse_60431.jpeg,1
1260,Im Füldchen,7,Rödelheim,401,7.55,7,Bockenheim,11.0,60489,Im Füldchen 60489 Frankfurt,50.1225493,8.6167264,highway,way,Im_Fueldchen,Im Fueldchen,Im_Fueldchen_60489.jpeg,1
1863,Okrifteler Straße,6,Sindlingen,601,6.47,6B,Höchst,17.0,65931,Okrifteler Straße 65931 Frankfurt,50.0774387,8.5171422,highway,way,Okrifteler_Strasse,Okrifteler Strasse,Okrifteler_Strasse_65931.jpeg,1
2103,Schäfers Gärten,9,Ginnheim,441,9.67,9,Nord,12.0,60431,Schäfers Gärten 60431 Frankfurt,50.1459613,8.6490638,highway,way,Schaefers_Gaerten,Schaefers Gaerten,Schaefers_Gaerten_60431.jpeg,1
2464,Weiherstraße,4,Ostend,140,4.26,4,Ost,5.0,60314,Weiherstraße 60314 Frankfurt,50.1122995,8.6964251,highway,way,Weiherstrasse,Weiherstrasse,Weiherstrasse_60314.jpeg,1
51,Alte Rothofstraße,1,Innenstadt,50,1.02,1,Ost,1.0,60313,Alte Rothofstraße 60313 Frankfurt,50.1131153,8.6752023,highway,way,Alte_Rothofstrasse,Alte Rothofstrasse,Alte_Rothofstrasse_60313.jpeg,1
488,Braunschweiger Weg,6,Zeilsheim,611,6.49,6B,Höchst,17.0,65931,Braunschweiger Weg 65931 Frankfurt,50.0939102,8.4999451,highway,way,Braunschweiger_Weg,Braunschweiger Weg,Braunschweiger_Weg_65931.jpeg,1
1470,Körnerstraße,2,Westend-Nord,191,2.09,2,Dornbusch,3.0,60322,Körnerstraße 60322 Frankfurt,50.1209883,8.6743512,highway,way,Koernerstrasse,Koernerstrasse,Koernerstrasse_60322.jpeg,1
2804,In den Schafgärten,14,Harheim,660,14.81,14,Nord,14.0,60437,In den Schafgärten 60437 Frankfurt,50.1866105,8.6912795,highway,way,In_den_Schafgaerten,In den Schafgaerten,In_den_Schafgaerten_60437.jpeg,1
1456,Kniebisstraße,5,Niederrad,371,5.35,5B,Sachsenhausen,10.0,60528,Kniebisstraße 60528 Frankfurt,50.0852078,8.6447451,highway,way,Kniebisstrasse,Kniebisstrasse,Kniebisstrasse_60528.jpeg,1
2524,Wilhelmshöher Straße,11,Seckbach,390,11.75,11,Ost,6.0,60389,Wilhelmshöher Straße 60389 Frankfurt,50.140691,8.722919,highway,way,Wilhelmshoeher_Strasse,Wilhelmshoeher Strasse,Wilhelmshoeher_Strasse_60389.jpeg,1
3350,Am Wingert,12,Kalbach-Riedberg,650,12.79,12,Nord,14.0,60437,Am Wingert 60437 Frankfurt,50.1905532,8.6405262,highway,way,Am_Wingert,Am Wingert,Am_Wingert_60437.jpeg,1
2521,Wilhelm-Roser-Weg,6,Unterliederbach,621,6.51,6C,Höchst,17.0,65929,Wilhelm-Roser-Weg 65929 Frankfurt,50.106925,8.5361539,highway,way,Wilhelm-Roser-Weg,Wilhelm-Roser-Weg,Wilhelm-Roser-Weg_65929.jpeg,1
614,Dalbergstraße,6,Höchst,591,6.46,6C,Höchst,17.0,65929,Dalbergstraße 65929 Frankfurt,50.1019557,8.5430195,highway,way,Dalbergstrasse,Dalbergstrasse,Dalbergstrasse_65929.jpeg,1
308,August-Schanz-Straße,10,Preungesheim,470,10.73,10,Dornbusch,14.0,60433,August-Schanz-Straße 60433 Frankfurt,50.1627814,8.6883877,amenity,node,August-Schanz-Strasse,August-Schanz-Strasse,August-Schanz-Strasse_60433.jpeg,1
1624,Ludwigsburger Weg,6,Zeilsheim,611,6.49,6B,Höchst,17.0,65931,Ludwigsburger Weg 65931 Frankfurt,50.0968652,8.4968365,highway,way,Ludwigsburger_Weg,Ludwigsburger Weg,Ludwigsburger_Weg_65931.jpeg,1
2101,Schadowstraße,5,Sachsenhausen-N.,321,5.32,5A,Sachsenhausen,8.0,60596,Schadowstraße 60596 Frankfurt,50.0998812,8.6781114,highway,way,Schadowstrasse,Schadowstrasse,Schadowstrasse_60596.jpeg,1
1939,Porzellanhofstraße,1,Innenstadt,70,1.01,1,Ost,1.0,60313,Porzellanhofstraße 60313 Frankfurt,50.1148616,8.6885594,highway,way,Porzellanhofstrasse,Porzellanhofstrasse,Porzellanhofstrasse_60313.jpeg,1
3217,Straßheimstraße,5,Sachsenhausen-N.,322,5.33,5A,Sachsenhausen,8.0,60596,Straßheimstraße 60596 Frankfurt,50.0955193,8.6707048,highway,way,Strassheimstrasse,Strassheimstrasse,Strassheimstrasse_60596.jpeg,1
2287,Steinkleestraße,10,Eckenheim,461,10.72,10,Dornbusch,12.0,60435,Steinkleestraße 60435 Frankfurt,50.1506134,8.683652,highway,way,Steinkleestrasse,Steinkleestrasse,Steinkleestrasse_60435.jpeg,1
2871,Florianweg,16,Bergen-Enkheim,680,16.83,16,Ost,18.0,60388,Florianweg 60388 Frankfurt,50.1488871,8.7536848,highway,way,Florianweg,Florianweg,Florianweg_60388.jpeg,1
2088,Am Sandberg,5,Sachsenhausen-S.,332,5.29,5A,Sachsenhausen,8.0,60599,Am Sandberg 60599 Frankfurt,50.0937605,8.6996339,highway,way,Am_Sandberg,Am Sandberg,Am_Sandberg_60599.jpeg,1
377,Basaltstraße,2,Bockenheim,361,2.12,2,Bockenheim,13.0,60487,Basaltstraße 60487 Frankfurt,50.124996,8.6428148,highway,way,Basaltstrasse,Basaltstrasse,Basaltstrasse_60487.jpeg,1
2394,Unterer Kalbacher Weg,10,Bonames,491,10.7,10,Nord,14.0,60437,Unterer Kalbacher Weg 60437 Frankfurt,50.1810612,8.6612535,highway,way,Unterer_Kalbacher_Weg,Unterer Kalbacher Weg,Unterer_Kalbacher_Weg_60437.jpeg,1
1450,Klingenweg,16,Bergen-Enkheim,680,16.83,16,Ost,18.0,60388,Klingenweg 60388 Frankfurt,50.1550245,8.7482368,highway,way,Klingenweg,Klingenweg,Klingenweg_60388.jpeg,1
2566,Zillestraße,7,Praunheim,423,7.59,7,Bockenheim,11.0,60488,Zillestraße 60488 Frankfurt,50.1371196,8.6130596,highway,way,Zillestrasse,Zillestrasse,Zillestrasse_60488.jpeg,1
1878,Osthafenplatz,4,Ostend,261,4.27,4,Ost,5.0,60314,Osthafenplatz 60314 Frankfurt,50.1113245,8.7119909,highway,way,Osthafenplatz,Osthafenplatz,Osthafenplatz_60314.jpeg,1
510,Bruchfeldplatz,5,Niederrad,371,5.35,5B,Sachsenhausen,10.0,60528,Bruchfeldplatz 60528 Frankfurt,50.08704565,8.644796683238763,leisure,way,Bruchfeldplatz,Bruchfeldplatz,Bruchfeldplatz_60528.jpeg,1
924,Gerbermühlstraße,5,Oberrad,380,5.28,5A,Sachsenhausen,8.0,60599,Gerbermühlstraße 60599 Frankfurt,50.1048353,8.7150936,highway,way,Gerbermuehlstrasse,Gerbermuehlstrasse,Gerbermuehlstrasse_60599.jpeg,1
3408,Christiane-Vulpius-Straße,12,Kalbach-Riedberg,651,12.79,12,Nord,14.0,60438,Christiane-Vulpius-Straße 60438 Frankfurt,50.1792777,8.6390715,highway,way,Christiane-Vulpius-Strasse,Christiane-Vulpius-Strasse,Christiane-Vulpius-Strasse_60438.jpeg,1
1999,Reuterweg,2,Westend-Süd,180,2.1,2,Bockenheim,3.0,60323,Reuterweg 60323 Frankfurt,50.1232452,8.6699494,highway,way,Reuterweg,Reuterweg,Reuterweg_60323.jpeg,1
1858,Oeserstraße,6,Nied,561,6.42,6A,Höchst,16.0,65934,Oeserstraße 65934 Frankfurt,50.104429,8.5746197,highway,way,Oeserstrasse,Oeserstrasse,Oeserstrasse_65934.jpeg,1
1431,Kleine Brückenstraße,5,Sachsenhausen-N.,300,5.31,5A,Sachsenhausen,8.0,60594,Kleine Brückenstraße 60594 Frankfurt,50.1045227,8.6885723,highway,way,Kleine_Brueckenstrasse,Kleine Brueckenstrasse,Kleine_Brueckenstrasse_60594.jpeg,1
3446,Dietrich-Bonhoeffer-Weg,4,Bornheim,272,4.22,4,Ost,6.0,60389,Dietrich-Bonhoeffer-Weg 60389 Frankfurt,50.1402615,8.7033618,highway,way,Dietrich-Bonhoeffer-Weg,Dietrich-Bonhoeffer-Weg,Dietrich-Bonhoeffer-Weg_60389.jpeg,1
3057,Im Dörner,16,Bergen-Enkheim,680,16.83,16,Ost,18.0,60388,Im Dörner 60388 Frankfurt,50.1576212,8.7659232,highway,way,Im_Doerner,Im Doerner,Im_Doerner_60388.jpeg,1
854,Frauensteinstraße,3,Nordend-West,203,3.16,3,Dornbusch,3.0,60322,Frauensteinstraße 60322 Frankfurt,50.1321466,8.679578,highway,way,Frauensteinstrasse,Frauensteinstrasse,Frauensteinstrasse_60322.jpeg,1
461,Böhmerstraße,2,Westend-Nord,191,2.09,2,Dornbusch,3.0,60322,Böhmerstraße 60322 Frankfurt,50.1231367,8.6734233,amenity,node,Boehmerstrasse,Boehmerstrasse,Boehmerstrasse_60322.jpeg,1
2643,Am Steinberg,13,Nieder-Erlenbach,640,13.8,13,Nord,14.0,60437,Am Steinberg 60437 Frankfurt,50.2021415,8.7137339,highway,way,Am_Steinberg,Am Steinberg,Am_Steinberg_60437.jpeg,1
2559,Zentmarkweg,7,Rödelheim,402,7.56,7,Bockenheim,11.0,60489,Zentmarkweg 60489 Frankfurt,50.1251839,8.6043216,highway,way,Zentmarkweg,Zentmarkweg,Zentmarkweg_60489.jpeg,1
3615,Ambronenpfad,6,Unterliederbach,622,6.52,6C,Höchst,17.0,65929,Ambronenpfad 65929 Frankfurt,50.1134404,8.5405841,highway,way,Ambronenpfad,Ambronenpfad,Ambronenpfad_65929.jpeg,1
508,Brommstraße,9,Dornbusch,463,9.69,9,Dornbusch,12.0,60320,Brommstraße 60320 Frankfurt,50.1390767,8.6828759,highway,way,Brommstrasse,Brommstrasse,Brommstrasse_60320.jpeg,1
1697,Max-Quarck-Straße,5,Sachsenhausen-N.,322,5.33,5A,Sachsenhausen,8.0,60596,Max-Quarck-Straße 60596 Frankfurt,50.0927128,8.6763833,highway,way,Max-Quarck-Strasse,Max-Quarck-Strasse,Max-Quarck-Strasse_60596.jpeg,1
1715,Merianplatz,3,Nordend-Ost,130,3.2,3,Ost,3.0,60316,Merianplatz 60316 Frankfurt,50.1199769,8.6950815,railway,node,Merianplatz,Merianplatz,Merianplatz_60316.jpeg,1
608,Cretzschmarstraße,2,Bockenheim,362,2.12,2,Bockenheim,13.0,60487,Cretzschmarstraße 60487 Frankfurt,50.1272823,8.6493513,highway,way,Cretzschmarstrasse,Cretzschmarstrasse,Cretzschmarstrasse_60487.jpeg,1
714,Elisabethenplatz,2,Bockenheim,350,2.13,2,Bockenheim,13.0,60486,Elisabethenplatz 60486 Frankfurt,50.1201364,8.6434939,highway,way,Elisabethenplatz,Elisabethenplatz,Elisabethenplatz_60486.jpeg,1
2372,Treisberger Straße,8,Praunheim,426,8.62,7,Nord,14.0,60439,Treisberger Straße 60439 Frankfurt,50.1548277,8.625979,highway,way,Treisberger_Strasse,Treisberger Strasse,Treisberger_Strasse_60439.jpeg,1
1625,Ludwig-Scriba-Straße,6,Höchst,580,6.45,6C,Höchst,17.0,65929,Ludwig-Scriba-Straße 65929 Frankfurt,50.1030397,8.5519615,highway,way,Ludwig-Scriba-Strasse,Ludwig-Scriba-Strasse,Ludwig-Scriba-Strasse_65929.jpeg,1
1710,Melemstraße,3,Nordend-West,203,3.16,3,Dornbusch,3.0,60322,Melemstraße 60322 Frankfurt,50.1296821,8.6755229,highway,way,Melemstrasse,Melemstrasse,Melemstrasse_60322.jpeg,1
421,Beunestraße,6,Nied,561,6.42,6A,Höchst,16.0,65934,Beunestraße 65934 Frankfurt,50.1000073,8.5665069,highway,way,Beunestrasse,Beunestrasse,Beunestrasse_65934.jpeg,1
467,Bolongarostraße,6,Höchst,580,6.45,6C,Höchst,17.0,65929,Bolongarostraße 65929 Frankfurt,50.1018414,8.5541942,highway,way,Bolongarostrasse,Bolongarostrasse,Bolongarostrasse_65929.jpeg,1
1673,Marschnerstraße,3,Nordend-West,211,3.19,3,Ost,3.0,60318,Marschnerstraße 60318 Frankfurt,50.1257385,8.6860369,highway,way,Marschnerstrasse,Marschnerstrasse,Marschnerstrasse_60318.jpeg,1
2552,Zehntgasse,6,Schwanheim,531,6.38,6A,Sachsenhausen,10.0,60529,Zehntgasse 60529 Frankfurt,50.0864682,8.5829325,highway,way,Zehntgasse,Zehntgasse,Zehntgasse_60529.jpeg,1
2488,Weserstraße,1,Bahnhofsviertel,90,1.03,1,Gallus,4.0,60329,Weserstraße 60329 Frankfurt,50.107946,8.6702693,highway,way,Weserstrasse,Weserstrasse,Weserstrasse_60329.jpeg,1
814,Flörsheimer Straße,1,Gallus,162,1.07,1,Gallus,4.0,60326,Flörsheimer Straße 60326 Frankfurt,50.104048,8.6374111,highway,way,Floersheimer_Strasse,Floersheimer Strasse,Floersheimer_Strasse_60326.jpeg,1
2249,Sondershausenstraße,1,Gallus,154,1.05,1,Gallus,16.0,60326,Sondershausenstraße 60326 Frankfurt,50.0972419,8.622749,highway,way,Sondershausenstrasse,Sondershausenstrasse,Sondershausenstrasse_60326.jpeg,1
1406,Kiebitzpfad,6,Griesheim,552,6.41,6A,Gallus,16.0,65933,Kiebitzpfad 65933 Frankfurt,50.1029186,8.5892334,highway,way,Kiebitzpfad,Kiebitzpfad,Kiebitzpfad_65933.jpeg,1
2665,Zum Erlengrund,13,Nieder-Erlenbach,640,13.8,13,Nord,14.0,60437,Zum Erlengrund 60437 Frankfurt,50.1991328,8.7100081,highway,way,Zum_Erlengrund,Zum Erlengrund,Zum_Erlengrund_60437.jpeg,1
2081,Saarbrücker Straße,6,Schwanheim,531,6.38,6A,Sachsenhausen,10.0,60529,Saarbrücker Straße 60529 Frankfurt,50.0824954,8.5809252,highway,way,Saarbruecker_Strasse,Saarbruecker Strasse,Saarbruecker_Strasse_60529.jpeg,1
990,Große Bockenheimer Straße (Freßgass´),1,Innenstadt,50,1.02,1,Ost,1.0,60313,Große Bockenheimer Straße (Freßgass´) 60313 Frankfurt,50.1149466,8.6731916,amenity,node,Grosse_Bockenheimer_Strasse_(Fressgass´),Grosse Bockenheimer Strasse (Fressgass´),Grosse_Bockenheimer_Strasse_(Fressgass´)_60313.jpeg,1
947,Gladenbacher Weg,7,Rödelheim,402,7.56,7,Bockenheim,11.0,60489,Gladenbacher Weg 60489 Frankfurt,50.1205093,8.6066766,highway,way,Gladenbacher_Weg,Gladenbacher Weg,Gladenbacher_Weg_60489.jpeg,1
2666,Zum Schäferköppel,13,Nieder-Erlenbach,640,13.8,13,Nord,14.0,60437,Zum Schäferköppel 60437 Frankfurt,50.2060882,8.708666,highway,way,Zum_Schaeferkoeppel,Zum Schaeferkoeppel,Zum_Schaeferkoeppel_60437.jpeg,1
2204,Schweizer Platz,5,Sachsenhausen-N.,324,5.32,5A,Sachsenhausen,8.0,60594,Schweizer Platz 60594 Frankfurt,50.1024094,8.6800572,railway,node,Schweizer_Platz,Schweizer Platz,Schweizer_Platz_60594.jpeg,1
948,Glaserstraße,5,Oberrad,380,5.28,5A,Sachsenhausen,8.0,60599,Glaserstraße 60599 Frankfurt,50.0996379,8.7286888,highway,way,Glaserstrasse,Glaserstrasse,Glaserstrasse_60599.jpeg,1
2146,Schmalkaldener Straße,6,Unterliederbach,621,6.51,6C,Höchst,17.0,65929,Schmalkaldener Straße 65929 Frankfurt,50.10788,8.5285652,highway,way,Schmalkaldener_Strasse,Schmalkaldener Strasse,Schmalkaldener_Strasse_65929.jpeg,1
1279,Im Teller,5,Oberrad,380,5.28,5A,Sachsenhausen,8.0,60599,Im Teller 60599 Frankfurt,50.0937055,8.7375145,highway,way,Im_Teller,Im Teller,Im_Teller_60599.jpeg,1
3073,Ludwig-Reinheimer-Straße,8,Heddernheim,431,8.61,8,Nord,14.0,60439,Ludwig-Reinheimer-Straße 60439 Frankfurt,50.1646708,8.6394886,highway,way,Ludwig-Reinheimer-Strasse,Ludwig-Reinheimer-Strasse,Ludwig-Reinheimer-Strasse_60439.jpeg,1
2147,Schmickbrücke,4,Ostend,261,4.27,4,Ost,5.0,60314,Schmickbrücke 60314 Frankfurt,50.1084936,8.7144224,highway,way,Schmickbruecke,Schmickbruecke,Schmickbruecke_60314.jpeg,1
435,Birsteiner Straße,11,Fechenheim,510,11.77,11,Ost,18.0,60386,Birsteiner Straße 60386 Frankfurt,50.135801,8.7640473,highway,way,Birsteiner_Strasse,Birsteiner Strasse,Birsteiner_Strasse_60386.jpeg,1
1808,Nieder Kirchweg,6,Nied,561,6.42,6A,Höchst,16.0,65934,Nieder Kirchweg 65934 Frankfurt,50.0962805,8.5713588,highway,way,Nieder_Kirchweg,Nieder Kirchweg,Nieder_Kirchweg_65934.jpeg,1
679,Dunckerstraße,11,Riederwald,262,11.76,11,Ost,18.0,60386,Dunckerstraße 60386 Frankfurt,50.1285825,8.7319051,highway,way,Dunckerstrasse,Dunckerstrasse,Dunckerstrasse_60386.jpeg,1
2914,Schönecker Straße,16,Bergen-Enkheim,680,16.83,16,Ost,18.0,60388,Schönecker Straße 60388 Frankfurt,50.158354,8.7572767,highway,way,Schoenecker_Strasse,Schoenecker Strasse,Schoenecker_Strasse_60388.jpeg,1
3723,Rothschildpark,2,Westend-Süd,110,2.1,2,Bockenheim,3.0,60323,Rothschildpark 60323 Frankfurt,50.117414,8.670021214236783,leisure,way,Rothschildpark,Rothschildpark,Rothschildpark_60323.jpeg,1
288,Auf dem Gleichen,6,Nied,562,6.43,6A,Höchst,16.0,65934,Auf dem Gleichen 65934 Frankfurt,50.1033213,8.574634,highway,way,Auf_dem_Gleichen,Auf dem Gleichen,Auf_dem_Gleichen_65934.jpeg,1
895,Gagernstraße,4,Ostend,252,4.25,4,Ost,5.0,60385,Gagernstraße 60385 Frankfurt,50.1234789,8.7138837,highway,way,Gagernstrasse,Gagernstrasse,Gagernstrasse_60385.jpeg,1
794,Feststraße,3,Nordend-Ost,130,3.2,3,Ost,3.0,60316,Feststraße 60316 Frankfurt,50.1216441,8.6929537,highway,way,Feststrasse,Feststrasse,Feststrasse_60316.jpeg,1
1198,Hofgartenweg,11,Seckbach,390,11.75,11,Ost,6.0,60389,Hofgartenweg 60389 Frankfurt,50.1447076,8.7208956,amenity,node,Hofgartenweg,Hofgartenweg,Hofgartenweg_60389.jpeg,1
2906,Riedstraße,16,Bergen-Enkheim,680,16.83,16,Ost,18.0,60388,Riedstraße 60388 Frankfurt,50.1492924,8.7540973,highway,way,Riedstrasse,Riedstrasse,Riedstrasse_60388.jpeg,1
3389,Am Jessenapfel,10,Preungesheim,470,10.73,10,Dornbusch,12.0,60435,Am Jessenapfel 60435 Frankfurt,50.1548708,8.7002618,highway,way,Am_Jessenapfel,Am Jessenapfel,Am_Jessenapfel_60435.jpeg,1
1197,Hoffeldstraße,5,Oberrad,380,5.28,5A,Sachsenhausen,8.0,60599,Hoffeldstraße 60599 Frankfurt,50.1010732,8.7216105,highway,way,Hoffeldstrasse,Hoffeldstrasse,Hoffeldstrasse_60599.jpeg,1
517,Brühlstraße,8,Heddernheim,431,8.61,8,Nord,14.0,60439,Brühlstraße 60439 Frankfurt,50.1608357,8.6475001,amenity,node,Bruehlstrasse,Bruehlstrasse,Bruehlstrasse_60439.jpeg,1
837,Francstraße,9,Dornbusch,463,9.69,9,Dornbusch,12.0,60320,Francstraße 60320 Frankfurt,50.1376744,8.6818714,highway,way,Francstrasse,Francstrasse,Francstrasse_60320.jpeg,1
2489,Westenbergerstraße,6,Sindlingen,601,6.47,6B,Höchst,17.0,65931,Westenbergerstraße 65931 Frankfurt,50.0800943,8.5087824,highway,way,Westenbergerstrasse,Westenbergerstrasse,Westenbergerstrasse_65931.jpeg,1
1350,Kalbächer Gasse (Freßgass'),1,Innenstadt,50,1.02,1,Ost,1.0,60313,Kalbächer Gasse (Freßgass') 60313 Frankfurt,50.1146516,8.6746686,amenity,node,Kalbaecher_Gasse_(Fressgass'),Kalbaecher Gasse (Fressgass'),Kalbaecher_Gasse_(Fressgass')_60313.jpeg,1
779,Falltorstraße,4,Bornheim,281,4.24,4,Ost,6.0,60385,Falltorstraße 60385 Frankfurt,50.1283189,8.7151952,highway,way,Falltorstrasse,Falltorstrasse,Falltorstrasse_60385.jpeg,1
2108,Schaubstraße,5,Sachsenhausen-N.,322,5.33,5A,Sachsenhausen,8.0,60596,Schaubstraße 60596 Frankfurt,50.099996,8.6701608,amenity,node,Schaubstrasse,Schaubstrasse,Schaubstrasse_60596.jpeg,1
1276,Georg-Treser-Straße,5,Oberrad,380,5.28,5A,Sachsenhausen,8.0,60599,Georg-Treser-Straße 60599 Frankfurt,50.0970465,8.7156836,amenity,node,Georg-Treser-Strasse,Georg-Treser-Strasse,Georg-Treser-Strasse_60599.jpeg,1
2321,Sulzbacher Straße,1,Gallus,162,1.07,1,Gallus,4.0,60326,Sulzbacher Straße 60326 Frankfurt,50.103784,8.6349399,highway,way,Sulzbacher_Strasse,Sulzbacher Strasse,Sulzbacher_Strasse_60326.jpeg,1
259,Annabergstraße,6,Zeilsheim,604,6.49,6B,Höchst,17.0,65931,Annabergstraße 65931 Frankfurt,50.0939083,8.5045208,highway,way,Annabergstrasse,Annabergstrasse,Annabergstrasse_65931.jpeg,1
2514,Wildunger Straße,2,Bockenheim,361,2.12,2,Bockenheim,13.0,60487,Wildunger Straße 60487 Frankfurt,50.1219927,8.6487816,highway,way,Wildunger_Strasse,Wildunger Strasse,Wildunger_Strasse_60487.jpeg,1
975,Grafenstraße,9,Dornbusch,462,9.69,9,Dornbusch,12.0,60433,Grafenstraße 60433 Frankfurt,50.1487805,8.6706003,amenity,node,Grafenstrasse,Grafenstrasse,Grafenstrasse_60433.jpeg,1
1284,Im Vogelsgesang,7,Hausen,410,7.58,7,Bockenheim,11.0,60488,Im Vogelsgesang 60488 Frankfurt,50.1376016,8.6261789,highway,way,Im_Vogelsgesang,Im Vogelsgesang,Im_Vogelsgesang_60488.jpeg,1
3601,Horst-Schulmann-Straße,4,Ostend,140,4.26,4,Ost,5.0,60314,Horst-Schulmann-Straße 60314 Frankfurt,50.1094894,8.7002459,highway,way,Horst-Schulmann-Strasse,Horst-Schulmann-Strasse,Horst-Schulmann-Strasse_60314.jpeg,1
1422,Klarastraße,9,Eschersheim,452,9.66,9,Dornbusch,12.0,60433,Klarastraße 60433 Frankfurt,50.1520762,8.6635374,highway,way,Klarastrasse,Klarastrasse,Klarastrasse_60433.jpeg,1
889,Fürstenbergerstraße,2,Westend-Nord,191,2.09,2,Dornbusch,3.0,60323,Fürstenbergerstraße 60323 Frankfurt,50.1236723,8.6655089,highway,way,Fuerstenbergerstrasse,Fuerstenbergerstrasse,Fuerstenbergerstrasse_60323.jpeg,1
1856,Oeder Weg,3,Nordend-West,120,3.21,3,Ost,3.0,60318,Oeder Weg 60318 Frankfurt,50.1270443,8.6823944,highway,way,Oeder_Weg,Oeder Weg,Oeder_Weg_60318.jpeg,1
1900,Paul-Heyse-Straße,9,Ginnheim,441,9.67,9,Nord,12.0,60431,Paul-Heyse-Straße 60431 Frankfurt,50.1472642,8.6588377,highway,way,Paul-Heyse-Strasse,Paul-Heyse-Strasse,Paul-Heyse-Strasse_60431.jpeg,1
2308,Stoltzestraße,1,Innenstadt,80,1.01,1,Ost,1.0,60311,Stoltzestraße 60311 Frankfurt,50.1127256,8.6895851,highway,way,Stoltzestrasse,Stoltzestrasse,Stoltzestrasse_60311.jpeg,1
1295,In der Au,7,Rödelheim,402,7.56,7,Bockenheim,11.0,60489,In der Au 60489 Frankfurt,50.1203522,8.6016976,amenity,node,In_der_Au,In der Au,In_der_Au_60489.jpeg,1
1712,Melsunger Straße,11,Seckbach,390,11.75,11,Ost,6.0,60389,Melsunger Straße 60389 Frankfurt,50.1396137,8.7125087,highway,way,Melsunger_Strasse,Melsunger Strasse,Melsunger_Strasse_60389.jpeg,1
2370,Trakehner Straße,7,Bockenheim,343,7.57,2,Bockenheim,11.0,60487,Trakehner Straße 60487 Frankfurt,50.1275283,8.6306016,highway,way,Trakehner_Strasse,Trakehner Strasse,Trakehner_Strasse_60487.jpeg,1
150,Ammelburgstraße,9,Dornbusch,463,9.69,9,Dornbusch,12.0,60320,Ammelburgstraße 60320 Frankfurt,50.1384751,8.6760945,highway,way,Ammelburgstrasse,Ammelburgstrasse,Ammelburgstrasse_60320.jpeg,1
2138,Schliemannweg,10,Eckenheim,461,10.72,10,Dornbusch,12.0,60435,Schliemannweg 60435 Frankfurt,50.1447881,8.6857656,highway,way,Schliemannweg,Schliemannweg,Schliemannweg_60435.jpeg,1
1952,Querstraße,3,Nordend-West,120,3.21,3,Ost,3.0,60322,Querstraße 60322 Frankfurt,50.1202585,8.6797324,highway,way,Querstrasse,Querstrasse,Querstrasse_60322.jpeg,1
1755,Münsterer Straße,1,Gallus,162,1.07,1,Gallus,4.0,60326,Münsterer Straße 60326 Frankfurt,50.1036815,8.63396,highway,way,Muensterer_Strasse,Muensterer Strasse,Muensterer_Strasse_60326.jpeg,1
2114,Scheidswaldstraße,4,Ostend,252,4.25,4,Ost,5.0,60385,Scheidswaldstraße 60385 Frankfurt,50.1203658,8.7096136,highway,way,Scheidswaldstrasse,Scheidswaldstrasse,Scheidswaldstrasse_60385.jpeg,1
1481,Konstablerwache,1,Altstadt,10,1.01,1,Ost,1.0,60313,Konstablerwache 60313 Frankfurt,50.1149772,8.6876403,railway,node,Konstablerwache,Konstablerwache,Konstablerwache_60313.jpeg,1
2332,Taunustor,1,Innenstadt,40,1.03,1,Ost,1.0,60310,Taunustor 60310 Frankfurt,50.110227,8.6727908,highway,way,Taunustor,Taunustor,Taunustor_60310.jpeg,1
3595,Robert-Schnitzer-Straße,6,Schwanheim,531,6.38,6A,Sachsenhausen,10.0,65929,Robert-Schnitzer-Straße 65929 Frankfurt,50.0914965,8.5527102,highway,way,Robert-Schnitzer-Strasse,Robert-Schnitzer-Strasse,Robert-Schnitzer-Strasse_65929.jpeg,1
424,Biedenkopfer Weg,7,Rödelheim,402,7.56,7,Bockenheim,11.0,60489,Biedenkopfer Weg 60489 Frankfurt,50.121972,8.6060335,highway,way,Biedenkopfer_Weg,Biedenkopfer Weg,Biedenkopfer_Weg_60489.jpeg,1
2120,Scherbiusstraße,2,Bockenheim,163,2.15,2,Bockenheim,13.0,60486,Scherbiusstraße 60486 Frankfurt,50.1148301,8.6304112,highway,way,Scherbiusstrasse,Scherbiusstrasse,Scherbiusstrasse_60486.jpeg,1
955,Goetheplatz,1,Innenstadt,50,1.02,1,Ost,1.0,60311,Goetheplatz 60311 Frankfurt,50.1129001,8.6761595,highway,way,Goetheplatz,Goetheplatz,Goetheplatz_60311.jpeg,1
1287,Im Wörth,9,Eschersheim,451,9.65,9,Dornbusch,12.0,60433,Im Wörth 60433 Frankfurt,50.1578439,8.6584267,highway,way,Im_Woerth,Im Woerth,Im_Woerth_60433.jpeg,1
1045,Häuser Gasse,2,Bockenheim,350,2.13,2,Bockenheim,13.0,60487,Häuser Gasse 60487 Frankfurt,50.1242915,8.6354369,highway,way,Haeuser_Gasse,Haeuser Gasse,Haeuser_Gasse_60487.jpeg,1
620,Darmstädter Landstraße,5,Sachsenhausen-N.,331,5.31,5A,Sachsenhausen,8.0,60594,Darmstädter Landstraße 60594 Frankfurt,50.1027141,8.6905827,highway,way,Darmstaedter_Landstrasse,Darmstaedter Landstrasse,Darmstaedter_Landstrasse_60594.jpeg,1
1517,Kurfürstenplatz,2,Bockenheim,350,2.13,2,Bockenheim,13.0,60486,Kurfürstenplatz 60486 Frankfurt,50.120881,8.64246151304501,leisure,way,Kurfuerstenplatz,Kurfuerstenplatz,Kurfuerstenplatz_60486.jpeg,1
2386,Unter den Buchen,5,Sachsenhausen-N.,322,5.33,5A,Sachsenhausen,8.0,60596,Unter den Buchen 60596 Frankfurt,50.0902754,8.6712534,highway,way,Unter_den_Buchen,Unter den Buchen,Unter_den_Buchen_60596.jpeg,1
2043,Roßbachstraße,7,Hausen,410,7.58,7,Bockenheim,11.0,60488,Roßbachstraße 60488 Frankfurt,50.1328152,8.6240768,highway,way,Rossbachstrasse,Rossbachstrasse,Rossbachstrasse_60488.jpeg,1
6,Adam-Opel-Straße,11,Fechenheim,510,11.77,11,Ost,18.0,60386,Adam-Opel-Straße 60386 Frankfurt,50.1244892,8.7573191,highway,way,Adam-Opel-Strasse,Adam-Opel-Strasse,Adam-Opel-Strasse_60386.jpeg,1
151,Am Mühlgarten,9,Ginnheim,441,9.67,9,Nord,12.0,60431,Am Mühlgarten 60431 Frankfurt,50.1455388,8.651041,highway,way,Am_Muehlgarten,Am Muehlgarten,Am_Muehlgarten_60431.jpeg,1
724,Eltviller Straße,6,Sossenheim,631,6.53,6C,Höchst,17.0,65936,Eltviller Straße 65936 Frankfurt,50.1117481,8.5530828,highway,way,Eltviller_Strasse,Eltviller Strasse,Eltviller_Strasse_65936.jpeg,1
2320,Sudermannstraße,9,Ginnheim,441,9.67,9,Nord,12.0,60431,Sudermannstraße 60431 Frankfurt,50.1404742,8.657152,highway,way,Sudermannstrasse,Sudermannstrasse,Sudermannstrasse_60431.jpeg,1
1363,Carl-Benz-Straße,11,Fechenheim,510,11.77,11,Ost,5.0,60314,Carl-Benz-Straße 60314 Frankfurt,50.1223213,8.747434,highway,way,Carl-Benz-Strasse,Carl-Benz-Strasse,Carl-Benz-Strasse_60314.jpeg,1
1930,Philippsruher Straße,4,Ostend,261,4.27,4,Ost,5.0,60314,Philippsruher Straße 60314 Frankfurt,50.1144877,8.7068605,highway,way,Philippsruher_Strasse,Philippsruher Strasse,Philippsruher_Strasse_60314.jpeg,1
2712,An der Pfarrwiese,14,Harheim,660,14.81,14,Nord,14.0,60437,An der Pfarrwiese 60437 Frankfurt,50.1812133,8.6934318,highway,way,An_der_Pfarrwiese,An der Pfarrwiese,An_der_Pfarrwiese_60437.jpeg,1
1565,Leo-Gans-Straße,11,Fechenheim,510,11.77,11,Ost,18.0,60386,Leo-Gans-Straße 60386 Frankfurt,50.124292,8.7618315,amenity,node,Leo-Gans-Strasse,Leo-Gans-Strasse,Leo-Gans-Strasse_60386.jpeg,1
684,Eckenheimer Landstraße,10,Eckenheim,461,10.72,10,Dornbusch,12.0,60435,Eckenheimer Landstraße 60435 Frankfurt,50.1466145,8.6826451,highway,way,Eckenheimer_Landstrasse,Eckenheimer Landstrasse,Eckenheimer_Landstrasse_60435.jpeg,1
3545,Riedbergplatz,12,Kalbach-Riedberg,651,12.79,12,Nord,14.0,60438,Riedbergplatz 60438 Frankfurt,50.17660215,8.628989675896602,highway,relation,Riedbergplatz,Riedbergplatz,Riedbergplatz_60438.jpeg,1
1492,Kransberger Weg,8,Praunheim,426,8.62,7,Nord,14.0,60439,Kransberger Weg 60439 Frankfurt,50.15631,8.6279422,highway,way,Kransberger_Weg,Kransberger Weg,Kransberger_Weg_60439.jpeg,1
809,Fleischergasse,2,Bockenheim,350,2.13,2,Bockenheim,13.0,60487,Fleischergasse 60487 Frankfurt,50.1238993,8.6381276,highway,way,Fleischergasse,Fleischergasse,Fleischergasse_60487.jpeg,1
711,Elbinger Straße,7,Bockenheim,343,7.57,2,Bockenheim,11.0,60487,Elbinger Straße 60487 Frankfurt,50.1256689,8.6268472,highway,way,Elbinger_Strasse,Elbinger Strasse,Elbinger_Strasse_60487.jpeg,1
1718,Merziger Weg,6,Schwanheim,531,6.38,6A,Sachsenhausen,10.0,60529,Merziger Weg 60529 Frankfurt,50.0834691,8.5718368,highway,way,Merziger_Weg,Merziger Weg,Merziger_Weg_60529.jpeg,1
1761,Muthesiusweg,7,Praunheim,422,7.59,7,Bockenheim,14.0,60488,Muthesiusweg 60488 Frankfurt,50.1440951,8.6075203,highway,way,Muthesiusweg,Muthesiusweg,Muthesiusweg_60488.jpeg,1
3361,Am Alten Volkshaus,11,Riederwald,262,11.76,11,Ost,18.0,60386,Am Alten Volkshaus 60386 Frankfurt,50.1287744,8.7310033,highway,way,Am_Alten_Volkshaus,Am Alten Volkshaus,Am_Alten_Volkshaus_60386.jpeg,1
2926,Voltenseestraße,16,Bergen-Enkheim,680,16.83,16,Ost,18.0,60388,Voltenseestraße 60388 Frankfurt,50.1438465,8.7435312,highway,way,Voltenseestrasse,Voltenseestrasse,Voltenseestrasse_60388.jpeg,1
991,Große Eschenheimer Straße,1,Innenstadt,50,1.02,1,Ost,1.0,60313,Große Eschenheimer Straße 60313 Frankfurt,50.1142072,8.679275,amenity,node,Grosse_Eschenheimer_Strasse,Grosse Eschenheimer Strasse,Grosse_Eschenheimer_Strasse_60313.jpeg,1
2669,Alt-Kalbach,12,Kalbach-Riedberg,650,12.79,12,Nord,14.0,60437,Alt-Kalbach 60437 Frankfurt,50.1891678,8.6348389,highway,way,Alt-Kalbach,Alt-Kalbach,Alt-Kalbach_60437.jpeg,1
700,Eichwaldstraße,3,Nordend-Ost,222,3.18,3,Ost,6.0,60389,Eichwaldstraße 60389 Frankfurt,50.1268567,8.7009379,highway,way,Eichwaldstrasse,Eichwaldstrasse,Eichwaldstrasse_60389.jpeg,1
1518,Kurfürstenstraße,2,Bockenheim,350,2.13,2,Bockenheim,13.0,60486,Kurfürstenstraße 60486 Frankfurt,50.1197569,8.6408306,highway,way,Kurfuerstenstrasse,Kurfuerstenstrasse,Kurfuerstenstrasse_60486.jpeg,1
3563,François-Mitterrand-Platz,1,Bahnhofsviertel,90,1.03,1,Gallus,4.0,60329,François-Mitterrand-Platz 60329 Frankfurt,50.1108549,8.665228266815621,place,way,François-Mitterrand-Platz,François-Mitterrand-Platz,François-Mitterrand-Platz_60329.jpeg,1
2991,Niederurseler Landstraße,8,Niederursel,481,8.63,8,Nord,14.0,60439,Niederurseler Landstraße 60439 Frankfurt,50.1650842,8.627368,highway,way,Niederurseler_Landstrasse,Niederurseler Landstrasse,Niederurseler_Landstrasse_60439.jpeg,1
1849,Oberweg,3,Nordend-West,120,3.21,3,Ost,3.0,60318,Oberweg 60318 Frankfurt,50.122252,8.6810645,amenity,node,Oberweg,Oberweg,Oberweg_60318.jpeg,1
1334,Juchostraße,4,Ostend,252,4.25,4,Ost,5.0,60385,Juchostraße 60385 Frankfurt,50.1195426,8.7149378,highway,way,Juchostrasse,Juchostrasse,Juchostrasse_60385.jpeg,1
3352,Wolfshohl,12,Kalbach-Riedberg,650,12.79,12,Nord,14.0,60437,Wolfshohl 60437 Frankfurt,50.1895833,8.6449954,highway,way,Wolfshohl,Wolfshohl,Wolfshohl_60437.jpeg,1
1640,Mahräckerstraße,9,Ginnheim,441,9.67,9,Nord,12.0,60431,Mahräckerstraße 60431 Frankfurt,50.1402895,8.6458377,highway,way,Mahraeckerstrasse,Mahraeckerstrasse,Mahraeckerstrasse_60431.jpeg,1
1675,Martin-Luther-Straße,3,Nordend-Ost,222,3.18,3,Ost,6.0,60389,Martin-Luther-Straße 60389 Frankfurt,50.1293629,8.6979894,highway,way,Martin-Luther-Strasse,Martin-Luther-Strasse,Martin-Luther-Strasse_60389.jpeg,1
2790,Emser Brücke,2,Westend-Süd,170,2.11,2,Bockenheim,13.0,60486,Emser Brücke 60486 Frankfurt,50.1157757,8.6434469,highway,way,Emser_Bruecke,Emser Bruecke,Emser_Bruecke_60486.jpeg,1
3546,Heinz-Saalig-Weg,11,Riederwald,262,11.76,11,Ost,18.0,60386,Heinz-Saalig-Weg 60386 Frankfurt,50.1307028,8.7373661,highway,way,Heinz-Saalig-Weg,Heinz-Saalig-Weg,Heinz-Saalig-Weg_60386.jpeg,1
786,Feldbergstraße,2,Westend-Süd,180,2.1,2,Bockenheim,3.0,60323,Feldbergstraße 60323 Frankfurt,50.1227053,8.6649072,highway,way,Feldbergstrasse,Feldbergstrasse,Feldbergstrasse_60323.jpeg,1
1528,Länderweg,5,Sachsenhausen-N.,331,5.31,5A,Sachsenhausen,8.0,60599,Länderweg 60599 Frankfurt,50.1024368,8.7021529,highway,way,Laenderweg,Laenderweg,Laenderweg_60599.jpeg,1
3343,Martin-Henrich-Anlage,6,Schwanheim,531,6.38,6A,Sachsenhausen,10.0,60529,Martin-Henrich-Anlage 60529 Frankfurt,50.0845327,8.575639425831588,leisure,way,Martin-Henrich-Anlage,Martin-Henrich-Anlage,Martin-Henrich-Anlage_60529.jpeg,1
1729,Mittelseestraße,11,Fechenheim,510,11.77,11,Ost,18.0,60386,Mittelseestraße 60386 Frankfurt,50.124459,8.7672562,highway,way,Mittelseestrasse,Mittelseestrasse,Mittelseestrasse_60386.jpeg,1
1899,Paul-Ehrlich-Straße,5,Sachsenhausen-N.,322,5.33,5A,Sachsenhausen,8.0,60596,Paul-Ehrlich-Straße 60596 Frankfurt,50.0965283,8.6670694,amenity,node,Paul-Ehrlich-Strasse,Paul-Ehrlich-Strasse,Paul-Ehrlich-Strasse_60596.jpeg,1
304,Augrabenweg,6,Unterliederbach,621,6.51,6C,Höchst,17.0,65929,Augrabenweg 65929 Frankfurt,50.112006,8.5320782,highway,way,Augrabenweg,Augrabenweg,Augrabenweg_65929.jpeg,1
934,Gerstweg,5,Sachsenhausen-S.,325,5.34,5A,Sachsenhausen,10.0,60528,Gerstweg 60528 Frankfurt,50.076437,8.660507,highway,way,Gerstweg,Gerstweg,Gerstweg_60528.jpeg,1
1363,Carl-Benz-Straße,11,Fechenheim,510,11.77,11,Ost,18.0,60386,Carl-Benz-Straße 60386 Frankfurt,50.1179661,8.7585724,highway,way,Carl-Benz-Strasse,Carl-Benz-Strasse,Carl-Benz-Strasse_60386.jpeg,1
1698,Max-Reger-Straße,5,Sachsenhausen-S.,325,5.34,5A,Sachsenhausen,10.0,60598,Max-Reger-Straße 60598 Frankfurt,50.0882639,8.6661864,highway,way,Max-Reger-Strasse,Max-Reger-Strasse,Max-Reger-Strasse_60598.jpeg,1
66,Alt-Nied,6,Nied,561,6.42,6A,Höchst,16.0,65934,Alt-Nied 65934 Frankfurt,50.0988889,8.5662778,highway,way,Alt-Nied,Alt-Nied,Alt-Nied_65934.jpeg,1
840,Frankensteiner Straße,5,Sachsenhausen-N.,300,5.31,5A,Sachsenhausen,8.0,60594,Frankensteiner Straße 60594 Frankfurt,50.1060664,8.6907385,highway,way,Frankensteiner_Strasse,Frankensteiner Strasse,Frankensteiner_Strasse_60594.jpeg,1
955,Goetheplatz,1,Innenstadt,50,1.02,1,Ost,1.0,60313,Goetheplatz 60313 Frankfurt,50.113008,8.6769515,amenity,node,Goetheplatz,Goetheplatz,Goetheplatz_60313.jpeg,1
1486,Koselstraße,3,Nordend-West,120,3.21,3,Ost,3.0,60318,Koselstraße 60318 Frankfurt,50.1234251,8.6915447,highway,way,Koselstrasse,Koselstrasse,Koselstrasse_60318.jpeg,1
2190,Schwanheimer Brücke,6,Nied,561,6.42,6A,Höchst,10.0,65934,Schwanheimer Brücke 65934 Frankfurt,50.0922072,8.5740556,highway,way,Schwanheimer_Bruecke,Schwanheimer Bruecke,Schwanheimer_Bruecke_65934.jpeg,1
1127,Heinrich-Rößler-Straße,9,Dornbusch,462,9.69,9,Dornbusch,12.0,60433,Heinrich-Rößler-Straße 60433 Frankfurt,50.146787,8.6682844,highway,way,Heinrich-Roessler-Strasse,Heinrich-Roessler-Strasse,Heinrich-Roessler-Strasse_60433.jpeg,1
1385,Kastellstraße,8,Heddernheim,431,8.61,8,Nord,14.0,60439,Kastellstraße 60439 Frankfurt,50.1574867,8.646052,highway,way,Kastellstrasse,Kastellstrasse,Kastellstrasse_60439.jpeg,1
918,Gemündener Straße,5,Sachsenhausen-S.,332,5.29,5A,Sachsenhausen,8.0,60599,Gemündener Straße 60599 Frankfurt,50.0953357,8.6986026,highway,way,Gemuendener_Strasse,Gemuendener Strasse,Gemuendener_Strasse_60599.jpeg,1
1507,Kronthaler Straße,1,Gallus,165,1.08,1,Gallus,4.0,60326,Kronthaler Straße 60326 Frankfurt,50.105418,8.6226076,highway,way,Kronthaler_Strasse,Kronthaler Strasse,Kronthaler_Strasse_60326.jpeg,1
290,Auf dem Mühlberg,5,Sachsenhausen-S.,332,5.29,5A,Sachsenhausen,8.0,60599,Auf dem Mühlberg 60599 Frankfurt,50.0991686,8.7031925,highway,way,Auf_dem_Muehlberg,Auf dem Muehlberg,Auf_dem_Muehlberg_60599.jpeg,1
1760,Musikantenweg,3,Nordend-Ost,130,3.2,3,Ost,3.0,60316,Musikantenweg 60316 Frankfurt,50.1207667,8.6976783,highway,way,Musikantenweg,Musikantenweg,Musikantenweg_60316.jpeg,1
2626,Kilianstädter Straße,11,Fechenheim,510,11.77,11,Ost,18.0,60386,Kilianstädter Straße 60386 Frankfurt,50.1358987,8.7696528,highway,way,Kilianstaedter_Strasse,Kilianstaedter Strasse,Kilianstaedter_Strasse_60386.jpeg,1
2575,Zum Pfarrturm,1,Altstadt,10,1.01,1,Ost,1.0,60311,Zum Pfarrturm 60311 Frankfurt,50.1097381,8.6851146,highway,way,Zum_Pfarrturm,Zum Pfarrturm,Zum_Pfarrturm_60311.jpeg,1
1783,Heinrich-Limpert-Weg,5,Sachsenhausen-S.,332,5.29,5A,Sachsenhausen,8.0,60599,Heinrich-Limpert-Weg 60599 Frankfurt,50.0918636,8.6927755,highway,way,Heinrich-Limpert-Weg,Heinrich-Limpert-Weg,Heinrich-Limpert-Weg_60599.jpeg,1
1728,Mithrasstraße,8,Heddernheim,432,8.62,8,Nord,14.0,60439,Mithrasstraße 60439 Frankfurt,50.1523206,8.633423,highway,way,Mithrasstrasse,Mithrasstrasse,Mithrasstrasse_60439.jpeg,1
441,Blankenburger Weg,6,Zeilsheim,611,6.49,6B,Höchst,17.0,65931,Blankenburger Weg 65931 Frankfurt,50.0919417,8.5007278,highway,way,Blankenburger_Weg,Blankenburger Weg,Blankenburger_Weg_65931.jpeg,1
1639,Lyoner Straße,5,Niederrad,373,5.36,5B,Sachsenhausen,10.0,60528,Lyoner Straße 60528 Frankfurt,50.0799637,8.6358223,highway,way,Lyoner_Strasse,Lyoner Strasse,Lyoner_Strasse_60528.jpeg,1
2022,Robert-Mayer-Straße,2,Westend-Süd,170,2.11,2,Bockenheim,13.0,60325,Robert-Mayer-Straße 60325 Frankfurt,50.1166868,8.6527361,highway,way,Robert-Mayer-Strasse,Robert-Mayer-Strasse,Robert-Mayer-Strasse_60325.jpeg,1
710,Elbestraße,1,Bahnhofsviertel,90,1.03,1,Gallus,4.0,60329,Elbestraße 60329 Frankfurt,50.1067551,8.669861,highway,way,Elbestrasse,Elbestrasse,Elbestrasse_60329.jpeg,1
375,Barckhausstraße,2,Westend-Süd,100,2.11,2,Bockenheim,13.0,60325,Barckhausstraße 60325 Frankfurt,50.1173747,8.6647297,highway,way,Barckhausstrasse,Barckhausstrasse,Barckhausstrasse_60325.jpeg,1
316,Autogenstraße,6,Griesheim,551,6.39,6A,Gallus,16.0,65933,Autogenstraße 65933 Frankfurt,50.0939714,8.6062069,highway,way,Autogenstrasse,Autogenstrasse,Autogenstrasse_65933.jpeg,1
1491,Kranichsteiner Straße,5,Sachsenhausen-S.,323,5.3,5A,Sachsenhausen,8.0,60598,Kranichsteiner Straße 60598 Frankfurt,50.0992361,8.6900499,highway,way,Kranichsteiner_Strasse,Kranichsteiner Strasse,Kranichsteiner_Strasse_60598.jpeg,1
509,Broßstraße,2,Bockenheim,362,2.12,2,Bockenheim,13.0,60487,Broßstraße 60487 Frankfurt,50.1286934,8.6484323,highway,way,Brossstrasse,Brossstrasse,Brossstrasse_60487.jpeg,1
2555,Zeilweg,8,Heddernheim,431,8.61,8,Nord,14.0,60439,Zeilweg 60439 Frankfurt,50.1623123,8.6405513,highway,way,Zeilweg,Zeilweg,Zeilweg_60439.jpeg,1
2423,Waidmannstraße,5,Sachsenhausen-N.,322,5.33,5A,Sachsenhausen,8.0,60596,Waidmannstraße 60596 Frankfurt,50.0949579,8.6700787,highway,way,Waidmannstrasse,Waidmannstrasse,Waidmannstrasse_60596.jpeg,1
207,Am Weimarfloß,9,Ginnheim,441,9.67,9,Nord,12.0,60431,Am Weimarfloß 60431 Frankfurt,50.1460791,8.6508512,highway,way,Am_Weimarfloss,Am Weimarfloss,Am_Weimarfloss_60431.jpeg,1
494,Breitlacherstraße,7,Rödelheim,402,7.56,7,Bockenheim,11.0,60489,Breitlacherstraße 60489 Frankfurt,50.1221276,8.6070176,amenity,node,Breitlacherstrasse,Breitlacherstrasse,Breitlacherstrasse_60489.jpeg,1
225,An den Weiden,9,Eschersheim,452,9.66,9,Dornbusch,12.0,60433,An den Weiden 60433 Frankfurt,50.1555035,8.6598339,highway,way,An_den_Weiden,An den Weiden,An_den_Weiden_60433.jpeg,1
1392,Kaulbachstraße,5,Sachsenhausen-N.,324,5.32,5A,Sachsenhausen,8.0,60594,Kaulbachstraße 60594 Frankfurt,50.099505,8.6826865,highway,way,Kaulbachstrasse,Kaulbachstrasse,Kaulbachstrasse_60594.jpeg,1
433,Birkholzweg,9,Eschersheim,451,9.65,9,Dornbusch,12.0,60433,Birkholzweg 60433 Frankfurt,50.1651713,8.6592086,highway,way,Birkholzweg,Birkholzweg,Birkholzweg_60433.jpeg,1
2511,Wildenbruchstraße,9,Dornbusch,442,9.68,9,Dornbusch,12.0,60431,Wildenbruchstraße 60431 Frankfurt,50.1447176,8.6648515,highway,way,Wildenbruchstrasse,Wildenbruchstrasse,Wildenbruchstrasse_60431.jpeg,1
1288,Im Ziegelfeld,6,Nied,561,6.42,6A,Höchst,17.0,65934,Im Ziegelfeld 65934 Frankfurt,50.1020245,8.5619932,highway,way,Im_Ziegelfeld,Im Ziegelfeld,Im_Ziegelfeld_65934.jpeg,1
3641,Nell-Breuning-Straße,5,Sachsenhausen-N.,322,5.33,5A,Sachsenhausen,8.0,60596,Nell-Breuning-Straße 60596 Frankfurt,50.097161,8.6793443,highway,way,Nell-Breuning-Strasse,Nell-Breuning-Strasse,Nell-Breuning-Strasse_60596.jpeg,1
862,Friedberger Platz,3,Nordend-West,120,3.21,3,Ost,3.0,60316,Friedberger Platz 60316 Frankfurt,50.12331605,8.692202862620872,leisure,way,Friedberger_Platz,Friedberger Platz,Friedberger_Platz_60316.jpeg,1
1742,Moselstraße,1,Bahnhofsviertel,90,1.03,1,Gallus,4.0,60329,Moselstraße 60329 Frankfurt,50.1063068,8.6687086,amenity,node,Moselstrasse,Moselstrasse,Moselstrasse_60329.jpeg,1
3504,Über der Heiern,14,Harheim,660,14.81,14,Nord,14.0,60437,Über der Heiern 60437 Frankfurt,50.1880176,8.6951921,highway,way,ueber_der_Heiern,ueber der Heiern,ueber_der_Heiern_60437.jpeg,1
754,Eschenbachstraße,5,Sachsenhausen-N.,322,5.33,5A,Sachsenhausen,8.0,60596,Eschenbachstraße 60596 Frankfurt,50.0951921,8.6680843,highway,way,Eschenbachstrasse,Eschenbachstrasse,Eschenbachstrasse_60596.jpeg,1
1629,Ludwig-Tieck-Straße,9,Ginnheim,441,9.67,9,Nord,12.0,60431,Ludwig-Tieck-Straße 60431 Frankfurt,50.1503829,8.6553903,highway,way,Ludwig-Tieck-Strasse,Ludwig-Tieck-Strasse,Ludwig-Tieck-Strasse_60431.jpeg,1
1940,Poststraße,1,Gallus,152,1.06,1,Gallus,4.0,60329,Poststraße 60329 Frankfurt,50.1073105,8.6602918,amenity,node,Poststrasse,Poststrasse,Poststrasse_60329.jpeg,1
1070,Hammarskjöldring,8,Niederursel,481,8.63,8,Nord,14.0,60439,Hammarskjöldring 60439 Frankfurt,50.1625409,8.6290849,amenity,node,Hammarskjoeldring,Hammarskjoeldring,Hammarskjoeldring_60439.jpeg,1
1532,Lahnstraße,1,Gallus,153,1.05,1,Gallus,4.0,60326,Lahnstraße 60326 Frankfurt,50.1007841,8.6319488,highway,way,Lahnstrasse,Lahnstrasse,Lahnstrasse_60326.jpeg,1
3363,Straße zur Internationalen Schule,6,Sindlingen,602,6.48,6B,Höchst,17.0,65931,Straße zur Internationalen Schule 65931 Frankfurt,50.0849614,8.5055885,highway,way,Strasse_zur_Internationalen_Schule,Strasse zur Internationalen Schule,Strasse_zur_Internationalen_Schule_65931.jpeg,1
115,Am Graben,6,Schwanheim,531,6.38,6A,Sachsenhausen,10.0,60529,Am Graben 60529 Frankfurt,50.0853682,8.5822013,highway,way,Am_Graben,Am Graben,Am_Graben_60529.jpeg,1
1667,Mark-Aurel-Straße,8,Heddernheim,431,8.61,8,Nord,14.0,60439,Mark-Aurel-Straße 60439 Frankfurt,50.1581367,8.6440203,highway,way,Mark-Aurel-Strasse,Mark-Aurel-Strasse,Mark-Aurel-Strasse_60439.jpeg,1
3489,An der Rotterdamer Werft,1,Gutleutviertel,151,1.04,1,Gallus,4.0,60327,An der Rotterdamer Werft 60327 Frankfurt,50.09932405,8.658955988775592,highway,way,An_der_Rotterdamer_Werft,An der Rotterdamer Werft,An_der_Rotterdamer_Werft_60327.jpeg,1
34,Alpenroder Straße,6,Sossenheim,631,6.53,6C,Höchst,17.0,65936,Alpenroder Straße 65936 Frankfurt,50.1225508,8.5619394,highway,way,Alpenroder_Strasse,Alpenroder Strasse,Alpenroder_Strasse_65936.jpeg,1
685,Eckenheimer Schulstraße,10,Eckenheim,461,10.72,10,Dornbusch,12.0,60435,Eckenheimer Schulstraße 60435 Frankfurt,50.1506283,8.6819818,highway,way,Eckenheimer_Schulstrasse,Eckenheimer Schulstrasse,Eckenheimer_Schulstrasse_60435.jpeg,1
1570,Lerchesbergring,5,Sachsenhausen-S.,323,5.3,5A,Sachsenhausen,8.0,60598,Lerchesbergring 60598 Frankfurt,50.0826992,8.6783187,amenity,node,Lerchesbergring,Lerchesbergring,Lerchesbergring_60598.jpeg,1
2261,Speckgasse,5,Oberrad,380,5.28,5A,Sachsenhausen,8.0,60599,Speckgasse 60599 Frankfurt,50.0999875,8.7191224,highway,way,Speckgasse,Speckgasse,Speckgasse_60599.jpeg,1
1612,Lorsbacher Straße,1,Gallus,165,1.08,1,Gallus,4.0,60326,Lorsbacher Straße 60326 Frankfurt,50.1032455,8.6272937,highway,way,Lorsbacher_Strasse,Lorsbacher Strasse,Lorsbacher_Strasse_60326.jpeg,1
3652,Osthafenbrücke,5,Sachsenhausen-N.,331,5.31,5A,Sachsenhausen,5.0,60599,Osthafenbrücke 60599 Frankfurt,50.10638195,8.711271931023049,man_made,way,Osthafenbruecke,Osthafenbruecke,Osthafenbruecke_60599.jpeg,1
1298,In der Krümm,6,Nied,561,6.42,6A,Höchst,17.0,65934,In der Krümm 65934 Frankfurt,50.1015204,8.562694,highway,way,In_der_Kruemm,In der Kruemm,In_der_Kruemm_65934.jpeg,1
1328,Johann-Klotz-Straße,5,Niederrad,372,5.36,5B,Sachsenhausen,10.0,60528,Johann-Klotz-Straße 60528 Frankfurt,50.0791191,8.6520254,highway,way,Johann-Klotz-Strasse,Johann-Klotz-Strasse,Johann-Klotz-Strasse_60528.jpeg,1
603,Cohausenstraße,8,Heddernheim,431,8.61,8,Nord,14.0,60439,Cohausenstraße 60439 Frankfurt,50.1612431,8.6388358,highway,way,Cohausenstrasse,Cohausenstrasse,Cohausenstrasse_60439.jpeg,1
3424,Westhafenplatz,1,Gutleutviertel,151,1.04,1,Gallus,4.0,60327,Westhafenplatz 60327 Frankfurt,50.1011059,8.664169,highway,way,Westhafenplatz,Westhafenplatz,Westhafenplatz_60327.jpeg,1
145,Am Lindenbaum,9,Eschersheim,452,9.66,9,Dornbusch,12.0,60433,Am Lindenbaum 60433 Frankfurt,50.1552184,8.665749,highway,way,Am_Lindenbaum,Am Lindenbaum,Am_Lindenbaum_60433.jpeg,1
1340,Junghofstraße,1,Innenstadt,40,1.03,1,Ost,1.0,60315,Junghofstraße 60315 Frankfurt,50.113395,8.6717996,highway,way,Junghofstrasse,Junghofstrasse,Junghofstrasse_60315.jpeg,1
1638,Luzernenweg,10,Frankfurter Berg,492,10.71,10,Nord,14.0,60433,Luzernenweg 60433 Frankfurt,50.1675509,8.6757817,highway,way,Luzernenweg,Luzernenweg,Luzernenweg_60433.jpeg,1
1263,Im Heimgarten,11,Seckbach,390,11.75,11,Ost,6.0,60389,Im Heimgarten 60389 Frankfurt,50.1397877,8.7144659,highway,way,Im_Heimgarten,Im Heimgarten,Im_Heimgarten_60389.jpeg,1
1163,Hessenplatz,2,Bockenheim,361,2.12,2,Bockenheim,13.0,60487,Hessenplatz 60487 Frankfurt,50.1247353,8.6424916,highway,way,Hessenplatz,Hessenplatz,Hessenplatz_60487.jpeg,1
448,Bleiweißstraße,5,Oberrad,380,5.28,5A,Sachsenhausen,8.0,60599,Bleiweißstraße 60599 Frankfurt,50.0983863,8.7202665,highway,way,Bleiweissstrasse,Bleiweissstrasse,Bleiweissstrasse_60599.jpeg,1
773,Fahrgasse,1,Altstadt,10,1.01,1,Ost,1.0,60311,Fahrgasse 60311 Frankfurt,50.112187,8.6859152,highway,way,Fahrgasse,Fahrgasse,Fahrgasse_60311.jpeg,1
1805,Niederbornstraße,10,Eckenheim,461,10.72,10,Dornbusch,12.0,60435,Niederbornstraße 60435 Frankfurt,50.1516844,8.6808735,highway,way,Niederbornstrasse,Niederbornstrasse,Niederbornstrasse_60435.jpeg,1
2889,Im Winkel,16,Bergen-Enkheim,680,16.83,16,Ost,18.0,60388,Im Winkel 60388 Frankfurt,50.1437309,8.7540412,highway,way,Im_Winkel,Im Winkel,Im_Winkel_60388.jpeg,1
2853,An der Oberpforte,16,Bergen-Enkheim,680,16.83,16,Ost,18.0,60388,An der Oberpforte 60388 Frankfurt,50.1552758,8.7577023,highway,way,An_der_Oberpforte,An der Oberpforte,An_der_Oberpforte_60388.jpeg,1
2876,Haingasse,16,Bergen-Enkheim,680,16.83,16,Ost,18.0,60388,Haingasse 60388 Frankfurt,50.157275,8.7564463,highway,way,Haingasse,Haingasse,Haingasse_60388.jpeg,1
3149,Leonhardskirchhof,1,Altstadt,10,1.01,1,Ost,1.0,60311,Leonhardskirchhof 60311 Frankfurt,50.10909085,8.680111742304842,highway,way,Leonhardskirchhof,Leonhardskirchhof,Leonhardskirchhof_60311.jpeg,1
2417,Vogtstraße,3,Nordend-West,203,3.16,3,Dornbusch,3.0,60322,Vogtstraße 60322 Frankfurt,50.1261175,8.6754829,highway,way,Vogtstrasse,Vogtstrasse,Vogtstrasse_60322.jpeg,1
980,Greifstraße,2,Bockenheim,350,2.13,2,Bockenheim,13.0,60486,Greifstraße 60486 Frankfurt,50.1222331,8.6444915,highway,way,Greifstrasse,Greifstrasse,Greifstrasse_60486.jpeg,1
2164,Schönstraße,1,Gutleutviertel,151,1.04,1,Gallus,4.0,60327,Schönstraße 60327 Frankfurt,50.1024876,8.658598,highway,way,Schoenstrasse,Schoenstrasse,Schoenstrasse_60327.jpeg,1
230,An der Dammheide,2,Bockenheim,342,2.14,2,Bockenheim,13.0,60486,An der Dammheide 60486 Frankfurt,50.1172719,8.6301659,highway,way,An_der_Dammheide,An der Dammheide,An_der_Dammheide_60486.jpeg,1
3451,Hans-Burggraf-Anlage,9,Dornbusch,442,9.68,9,Dornbusch,12.0,60431,Hans-Burggraf-Anlage 60431 Frankfurt,50.1449672,8.66484096670451,landuse,way,Hans-Burggraf-Anlage,Hans-Burggraf-Anlage,Hans-Burggraf-Anlage_60431.jpeg,1
2151,Schmittener Straße,7,Rödelheim,401,7.55,7,Bockenheim,11.0,60489,Schmittener Straße 60489 Frankfurt,50.1315385,8.6146758,highway,way,Schmittener_Strasse,Schmittener Strasse,Schmittener_Strasse_60489.jpeg,1
3337,Klimsch-Anlage,9,Dornbusch,442,9.68,9,Dornbusch,12.0,60320,Klimsch-Anlage 60320 Frankfurt,50.1444886,8.6661601,highway,way,Klimsch-Anlage,Klimsch-Anlage,Klimsch-Anlage_60320.jpeg,1
732,Enge Gasse,9,Eschersheim,451,9.65,9,Dornbusch,12.0,60433,Enge Gasse 60433 Frankfurt,50.1606372,8.6550398,highway,way,Enge_Gasse,Enge Gasse,Enge_Gasse_60433.jpeg,1
2388,Unter den Eschen,5,Sachsenhausen-N.,322,5.33,5A,Sachsenhausen,8.0,60596,Unter den Eschen 60596 Frankfurt,50.0915281,8.6711873,highway,way,Unter_den_Eschen,Unter den Eschen,Unter_den_Eschen_60596.jpeg,1
1101,Hedderichstraße,5,Sachsenhausen-N.,324,5.32,5A,Sachsenhausen,8.0,60594,Hedderichstraße 60594 Frankfurt,50.0996526,8.6848434,highway,way,Hedderichstrasse,Hedderichstrasse,Hedderichstrasse_60594.jpeg,1
269,Apoldaer Weg,6,Zeilsheim,611,6.49,6B,Höchst,17.0,65931,Apoldaer Weg 65931 Frankfurt,50.0944857,8.5025594,highway,way,Apoldaer_Weg,Apoldaer Weg,Apoldaer_Weg_65931.jpeg,1
673,Düsseldorfer Straße,1,Gallus,152,1.06,1,Gallus,4.0,60329,Düsseldorfer Straße 60329 Frankfurt,50.1083119,8.6630146,highway,way,Duesseldorfer_Strasse,Duesseldorfer Strasse,Duesseldorfer_Strasse_60329.jpeg,1
2900,Neuer Weg,16,Bergen-Enkheim,680,16.83,16,Ost,18.0,60388,Neuer Weg 60388 Frankfurt,50.1498731,8.7526069,highway,way,Neuer_Weg,Neuer Weg,Neuer_Weg_60388.jpeg,1
2538,Wörbachstraße,8,Heddernheim,431,8.61,8,Nord,14.0,60439,Wörbachstraße 60439 Frankfurt,50.1572947,8.6468431,highway,way,Woerbachstrasse,Woerbachstrasse,Woerbachstrasse_60439.jpeg,1
1454,Klüberstraße,2,Westend-Süd,100,2.11,2,Bockenheim,13.0,60325,Klüberstraße 60325 Frankfurt,50.1137266,8.6670274,highway,way,Klueberstrasse,Klueberstrasse,Klueberstrasse_60325.jpeg,1
3768,Karoline-Veith-Straße,7,Bockenheim,343,7.57,2,Bockenheim,11.0,60486,Karoline-Veith-Straße 60486 Frankfurt,50.1274286,8.6946348,historic,node,Karoline-Veith-Strasse,Karoline-Veith-Strasse,Karoline-Veith-Strasse_60486.jpeg,1
248,An der Steinmühle,6,Nied,561,6.42,6A,Höchst,17.0,65934,An der Steinmühle 65934 Frankfurt,50.1031401,8.5584285,highway,way,An_der_Steinmuehle,An der Steinmuehle,An_der_Steinmuehle_65934.jpeg,1
31,Allerheiligentor,1,Innenstadt,70,1.01,1,Ost,1.0,60311,Allerheiligentor 60311 Frankfurt,50.1131852,8.6932046,highway,way,Allerheiligentor,Allerheiligentor,Allerheiligentor_60311.jpeg,1
2719,Hochfeldstraße,14,Harheim,660,14.81,14,Nord,14.0,60437,Hochfeldstraße 60437 Frankfurt,50.1868069,8.6953093,highway,way,Hochfeldstrasse,Hochfeldstrasse,Hochfeldstrasse_60437.jpeg,1
3023,Werner-Bockelmann-Straße,6,Nied,562,6.43,6A,Höchst,16.0,65934,Werner-Bockelmann-Straße 65934 Frankfurt,50.1039333,8.5792317,highway,way,Werner-Bockelmann-Strasse,Werner-Bockelmann-Strasse,Werner-Bockelmann-Strasse_65934.jpeg,1
2909,Rumpenheimer Straße,16,Bergen-Enkheim,680,16.83,16,Ost,18.0,60388,Rumpenheimer Straße 60388 Frankfurt,50.1439103,8.7577309,highway,way,Rumpenheimer_Strasse,Rumpenheimer Strasse,Rumpenheimer_Strasse_60388.jpeg,1
2279,Stefan-Zweig-Straße,9,Ginnheim,441,9.67,9,Nord,12.0,60431,Stefan-Zweig-Straße 60431 Frankfurt,50.1417504,8.6554454,highway,way,Stefan-Zweig-Strasse,Stefan-Zweig-Strasse,Stefan-Zweig-Strasse_60431.jpeg,1
1835,Oberfeldstraße,8,Praunheim,426,8.62,7,Nord,14.0,60439,Oberfeldstraße 60439 Frankfurt,50.1547888,8.6239408,highway,way,Oberfeldstrasse,Oberfeldstrasse,Oberfeldstrasse_60439.jpeg,1
601,Clementineweg,4,Ostend,252,4.25,4,Ost,5.0,60385,Clementineweg 60385 Frankfurt,50.1219704,8.7117481,highway,way,Clementineweg,Clementineweg,Clementineweg_60385.jpeg,1
2456,Weckmarkt,1,Altstadt,10,1.01,1,Ost,1.0,60311,Weckmarkt 60311 Frankfurt,50.1103424,8.6859512,highway,way,Weckmarkt,Weckmarkt,Weckmarkt_60311.jpeg,1
940,Ginnheimer Hohl,9,Ginnheim,441,9.67,9,Nord,12.0,60431,Ginnheimer Hohl 60431 Frankfurt,50.1444195,8.6531495,highway,way,Ginnheimer_Hohl,Ginnheimer Hohl,Ginnheimer_Hohl_60431.jpeg,1
3520,Straße der Nationen,2,Bockenheim,163,2.15,2,Bockenheim,13.0,60327,Straße der Nationen 60327 Frankfurt,50.1102201,8.6311559,highway,way,Strasse_der_Nationen,Strasse der Nationen,Strasse_der_Nationen_60327.jpeg,1
250,An der Wildhube,6,Schwanheim,531,6.38,6A,Sachsenhausen,10.0,60529,An der Wildhube 60529 Frankfurt,50.0853988,8.5860525,highway,way,An_der_Wildhube,An der Wildhube,An_der_Wildhube_60529.jpeg,1
1378,Karl-von-Drais-Straße,10,Eckenheim,461,10.72,10,Dornbusch,12.0,60435,Karl-von-Drais-Straße 60435 Frankfurt,50.1476362,8.6808332,highway,way,Karl-von-Drais-Strasse,Karl-von-Drais-Strasse,Karl-von-Drais-Strasse_60435.jpeg,1
1443,Kleinschmidtstraße,9,Eschersheim,452,9.66,9,Dornbusch,12.0,60431,Kleinschmidtstraße 60431 Frankfurt,50.1522087,8.6572515,amenity,node,Kleinschmidtstrasse,Kleinschmidtstrasse,Kleinschmidtstrasse_60431.jpeg,1
231,An der Fähre,6,Griesheim,541,6.39,6A,Gallus,16.0,65933,An der Fähre 65933 Frankfurt,50.0907414,8.6094979,highway,way,An_der_Faehre,An der Faehre,An_der_Faehre_65933.jpeg,1
1372,Karl-Schüler-Weg,6,Unterliederbach,621,6.51,6C,Höchst,17.0,65929,Karl-Schüler-Weg 65929 Frankfurt,50.1109557,8.5260341,highway,way,Karl-Schueler-Weg,Karl-Schueler-Weg,Karl-Schueler-Weg_65929.jpeg,1
3335,Im Nardholz,9,Eschersheim,451,9.65,9,Dornbusch,12.0,60433,Im Nardholz 60433 Frankfurt,50.1626763,8.6628573,highway,way,Im_Nardholz,Im Nardholz,Im_Nardholz_60433.jpeg,1
878,Fritschengäßchen,5,Sachsenhausen-N.,300,5.31,5A,Sachsenhausen,8.0,60594,Fritschengäßchen 60594 Frankfurt,50.1054358,8.6886473,highway,way,Fritschengaesschen,Fritschengaesschen,Fritschengaesschen_60594.jpeg,1
808,Fleckenbühlstraße,10,Bonames,491,10.7,10,Nord,14.0,60437,Fleckenbühlstraße 60437 Frankfurt,50.1818033,8.6599959,highway,way,Fleckenbuehlstrasse,Fleckenbuehlstrasse,Fleckenbuehlstrasse_60437.jpeg,1
2908,Röntgenstraße,16,Bergen-Enkheim,680,16.83,16,Ost,18.0,60388,Röntgenstraße 60388 Frankfurt,50.1410961,8.7492255,amenity,node,Roentgenstrasse,Roentgenstrasse,Roentgenstrasse_60388.jpeg,1
1256,Im Burgfeld,8,Heddernheim,432,8.62,8,Nord,14.0,60439,Im Burgfeld 60439 Frankfurt,50.1516527,8.6341939,highway,way,Im_Burgfeld,Im Burgfeld,Im_Burgfeld_60439.jpeg,1
2231,Sigmund-Freud-Straße,10,Eckenheim,461,10.72,10,Dornbusch,12.0,60435,Sigmund-Freud-Straße 60435 Frankfurt,50.1552119,8.6860901,highway,way,Sigmund-Freud-Strasse,Sigmund-Freud-Strasse,Sigmund-Freud-Strasse_60435.jpeg,1
761,Espenstraße,6,Griesheim,542,6.4,6A,Gallus,16.0,65933,Espenstraße 65933 Frankfurt,50.0965667,8.6077414,highway,way,Espenstrasse,Espenstrasse,Espenstrasse_65933.jpeg,1
130,Am Hühnerberg,6,Nied,561,6.42,6A,Höchst,17.0,65934,Am Hühnerberg 65934 Frankfurt,50.1015431,8.5628144,highway,way,Am_Huehnerberg,Am Huehnerberg,Am_Huehnerberg_65934.jpeg,1
1395,Kelkheimer Straße,1,Gallus,162,1.07,1,Gallus,4.0,60326,Kelkheimer Straße 60326 Frankfurt,50.1053597,8.6305323,highway,way,Kelkheimer_Strasse,Kelkheimer Strasse,Kelkheimer_Strasse_60326.jpeg,1
490,Breidensteiner Weg,7,Rödelheim,402,7.56,7,Bockenheim,11.0,60489,Breidensteiner Weg 60489 Frankfurt,50.1196445,8.6073298,highway,way,Breidensteiner_Weg,Breidensteiner Weg,Breidensteiner_Weg_60489.jpeg,1
1266,Imkerweg,6,Sindlingen,601,6.47,6B,Höchst,17.0,65931,Imkerweg 65931 Frankfurt,50.0764536,8.5169658,highway,way,Imkerweg,Imkerweg,Imkerweg_65931.jpeg,1
68,Alt-Praunheim,7,Praunheim,425,7.6,7,Bockenheim,14.0,60488,Alt-Praunheim 60488 Frankfurt,50.1481574,8.6211212,highway,way,Alt-Praunheim,Alt-Praunheim,Alt-Praunheim_60488.jpeg,1
2031,Römerberg,1,Altstadt,10,1.01,1,Ost,1.0,60311,Römerberg 60311 Frankfurt,50.1102003,8.6821669109375,highway,relation,Roemerberg,Roemerberg,Roemerberg_60311.jpeg,1
1219,Homburger Landstraße,10,Eckenheim,461,10.72,10,Dornbusch,12.0,60435,Homburger Landstraße 60435 Frankfurt,50.1587048,8.6886482,highway,way,Homburger_Landstrasse,Homburger Landstrasse,Homburger_Landstrasse_60435.jpeg,1
2687,Gickelgasse,12,Kalbach-Riedberg,650,12.79,12,Nord,14.0,60437,Gickelgasse 60437 Frankfurt,50.1890412,8.6374718,highway,way,Gickelgasse,Gickelgasse,Gickelgasse_60437.jpeg,1
2517,Wilhelm-Epstein-Straße,9,Ginnheim,441,9.67,9,Nord,12.0,60431,Wilhelm-Epstein-Straße 60431 Frankfurt,50.1368589,8.6470355,amenity,node,Wilhelm-Epstein-Strasse,Wilhelm-Epstein-Strasse,Wilhelm-Epstein-Strasse_60431.jpeg,1
414,Bertramswiese,3,Nordend-West,202,3.16,3,Dornbusch,12.0,60320,Bertramswiese 60320 Frankfurt,50.1370085,8.6774099,highway,way,Bertramswiese,Bertramswiese,Bertramswiese_60320.jpeg,1
838,Frankenallee,1,Gallus,161,1.06,1,Gallus,4.0,60327,Frankenallee 60327 Frankfurt,50.1072778,8.6507872,amenity,node,Frankenallee,Frankenallee,Frankenallee_60327.jpeg,1
3195,Schwedenkronenplatz,1,Innenstadt,70,1.01,1,Ost,1.0,60313,Schwedenkronenplatz 60313 Frankfurt,50.1163515,8.6865277,highway,way,Schwedenkronenplatz,Schwedenkronenplatz,Schwedenkronenplatz_60313.jpeg,1
613,Daimlerstraße,4,Ostend,261,4.27,4,Ost,5.0,60314,Daimlerstraße 60314 Frankfurt,50.1224271,8.7401097,highway,way,Daimlerstrasse,Daimlerstrasse,Daimlerstrasse_60314.jpeg,1
745,Erich-Ollenhauer-Ring,8,Heddernheim,432,8.62,8,Nord,14.0,60439,Erich-Ollenhauer-Ring 60439 Frankfurt,50.1595141,8.6339541,highway,way,Erich-Ollenhauer-Ring,Erich-Ollenhauer-Ring,Erich-Ollenhauer-Ring_60439.jpeg,1
429,Bilsteinweg,10,Preungesheim,470,10.73,10,Dornbusch,12.0,60435,Bilsteinweg 60435 Frankfurt,50.1452124,8.6979626,highway,way,Bilsteinweg,Bilsteinweg,Bilsteinweg_60435.jpeg,1
1938,Porthstraße,10,Eckenheim,461,10.72,10,Dornbusch,12.0,60435,Porthstraße 60435 Frankfurt,50.1434532,8.685132,highway,way,Porthstrasse,Porthstrasse,Porthstrasse_60435.jpeg,1
2149,Schmidtbornstraße,6,Nied,561,6.42,6A,Höchst,16.0,65934,Schmidtbornstraße 65934 Frankfurt,50.1015472,8.5694409,highway,way,Schmidtbornstrasse,Schmidtbornstrasse,Schmidtbornstrasse_65934.jpeg,1
617,Danneckerstraße,5,Sachsenhausen-N.,324,5.32,5A,Sachsenhausen,8.0,60594,Danneckerstraße 60594 Frankfurt,50.1035946,8.6844396,amenity,node,Danneckerstrasse,Danneckerstrasse,Danneckerstrasse_60594.jpeg,1
612,Dahlmannstraße,4,Ostend,252,4.25,4,Ost,5.0,60385,Dahlmannstraße 60385 Frankfurt,50.1204852,8.7072194,highway,way,Dahlmannstrasse,Dahlmannstrasse,Dahlmannstrasse_60385.jpeg,1
582,Burnitzstraße,5,Sachsenhausen-N.,322,5.33,5A,Sachsenhausen,8.0,60596,Burnitzstraße 60596 Frankfurt,50.097426,8.6733865,highway,way,Burnitzstrasse,Burnitzstrasse,Burnitzstrasse_60596.jpeg,1
644,Diezer Straße,8,Heddernheim,431,8.61,8,Nord,14.0,60439,Diezer Straße 60439 Frankfurt,50.157414,8.6482595,highway,way,Diezer_Strasse,Diezer Strasse,Diezer_Strasse_60439.jpeg,1
525,Buchrainstraße,5,Oberrad,380,5.28,5A,Sachsenhausen,8.0,60599,Buchrainstraße 60599 Frankfurt,50.0986702,8.7244186,highway,way,Buchrainstrasse,Buchrainstrasse,Buchrainstrasse_60599.jpeg,1
3522,Lissabonner Straße,1,Gallus,161,1.06,1,Gallus,4.0,60327,Lissabonner Straße 60327 Frankfurt,50.10802405,8.644410544901659,highway,way,Lissabonner_Strasse,Lissabonner Strasse,Lissabonner_Strasse_60327.jpeg,1
1741,Morgenzeile,6,Schwanheim,532,6.37,6A,Sachsenhausen,10.0,60529,Morgenzeile 60529 Frankfurt,50.0853712,8.6173239,highway,way,Morgenzeile,Morgenzeile,Morgenzeile_60529.jpeg,1
2360,Tillystraße,6,Nied,561,6.42,6A,Höchst,17.0,65934,Tillystraße 65934 Frankfurt,50.1020145,8.559575,highway,way,Tillystrasse,Tillystrasse,Tillystrasse_65934.jpeg,1
1099,Hebelstraße,3,Nordend-West,120,3.21,3,Ost,3.0,60318,Hebelstraße 60318 Frankfurt,50.1211309,8.6887506,highway,way,Hebelstrasse,Hebelstrasse,Hebelstrasse_60318.jpeg,1
2052,Heinz-Herbert-Karry-Straße,11,Seckbach,390,11.75,11,Ost,6.0,60389,Heinz-Herbert-Karry-Straße 60389 Frankfurt,50.1374549,8.7135509,highway,way,Heinz-Herbert-Karry-Strasse,Heinz-Herbert-Karry-Strasse,Heinz-Herbert-Karry-Strasse_60389.jpeg,1
307,August-Euler-Straße,2,Bockenheim,163,2.15,2,Bockenheim,13.0,60486,August-Euler-Straße 60486 Frankfurt,50.1137148,8.6230374,highway,way,August-Euler-Strasse,August-Euler-Strasse,August-Euler-Strasse_60486.jpeg,1
1857,Oelmühlgasse,7,Rödelheim,401,7.55,7,Bockenheim,11.0,60489,Oelmühlgasse 60489 Frankfurt,50.1247023,8.6143655,highway,way,Oelmuehlgasse,Oelmuehlgasse,Oelmuehlgasse_60489.jpeg,1
173,Am Saalenbusch,11,Fechenheim,510,11.77,11,Ost,18.0,60386,Am Saalenbusch 60386 Frankfurt,50.1251537,8.7639482,highway,way,Am_Saalenbusch,Am Saalenbusch,Am_Saalenbusch_60386.jpeg,1
1637,Luxemburgerallee,4,Ostend,252,4.25,4,Ost,5.0,60385,Luxemburgerallee 60385 Frankfurt,50.1201902,8.7111561,highway,way,Luxemburgerallee,Luxemburgerallee,Luxemburgerallee_60385.jpeg,1
1555,Lehmkautstraße,6,Sindlingen,601,6.47,6B,Höchst,17.0,65931,Lehmkautstraße 65931 Frankfurt,50.0815828,8.516578,highway,way,Lehmkautstrasse,Lehmkautstrasse,Lehmkautstrasse_65931.jpeg,1
2560,Zeppelinallee,2,Bockenheim,362,2.12,2,Bockenheim,13.0,60487,Zeppelinallee 60487 Frankfurt,50.1289646,8.6452657,highway,way,Zeppelinallee,Zeppelinallee,Zeppelinallee_60487.jpeg,1
1890,Palmstraße,3,Nordend-Ost,130,3.2,3,Ost,3.0,60316,Palmstraße 60316 Frankfurt,50.11746,8.6943159,highway,way,Palmstrasse,Palmstrasse,Palmstrasse_60316.jpeg,1
1433,Kleine Hochstraße,1,Innenstadt,50,1.02,1,Ost,1.0,60313,Kleine Hochstraße 60313 Frankfurt,50.1155007,8.6742697,highway,way,Kleine_Hochstrasse,Kleine Hochstrasse,Kleine_Hochstrasse_60313.jpeg,1
2363,Tischbeinstraße,5,Sachsenhausen-N.,322,5.33,5A,Sachsenhausen,8.0,60596,Tischbeinstraße 60596 Frankfurt,50.1001807,8.6751771,highway,way,Tischbeinstrasse,Tischbeinstrasse,Tischbeinstrasse_60596.jpeg,1
1656,Mannheimer Straße,1,Gutleutviertel,151,1.04,1,Gallus,4.0,60329,Mannheimer Straße 60329 Frankfurt,50.1060668,8.6651842,highway,way,Mannheimer_Strasse,Mannheimer Strasse,Mannheimer_Strasse_60329.jpeg,1
138,Am Kunzengarten,6,Sossenheim,632,6.54,6C,Höchst,17.0,65936,Am Kunzengarten 65936 Frankfurt,50.1203281,8.5683871,highway,way,Am_Kunzengarten,Am Kunzengarten,Am_Kunzengarten_65936.jpeg,1
1121,Heinestraße,3,Nordend-West,201,3.21,3,Dornbusch,3.0,60322,Heinestraße 60322 Frankfurt,50.1229144,8.6760476,highway,way,Heinestrasse,Heinestrasse,Heinestrasse_60322.jpeg,1
1321,Jean-Paul-Straße,9,Dornbusch,442,9.68,9,Dornbusch,12.0,60320,Jean-Paul-Straße 60320 Frankfurt,50.1437131,8.6640631,highway,way,Jean-Paul-Strasse,Jean-Paul-Strasse,Jean-Paul-Strasse_60320.jpeg,1
3207,Alter Wartweg,16,Bergen-Enkheim,680,16.83,16,Ost,18.0,60388,Alter Wartweg 60388 Frankfurt,50.1554019,8.7428479,highway,way,Alter_Wartweg,Alter Wartweg,Alter_Wartweg_60388.jpeg,1
3490,Walter-Schwagenscheidt-Platz,8,Praunheim,426,8.62,7,Nord,14.0,60439,Walter-Schwagenscheidt-Platz 60439 Frankfurt,50.157667700000005,8.630724735326947,leisure,way,Walter-Schwagenscheidt-Platz,Walter-Schwagenscheidt-Platz,Walter-Schwagenscheidt-Platz_60439.jpeg,1
1241,Hungener Straße,3,Nordend-Ost,222,3.18,3,Ost,6.0,60389,Hungener Straße 60389 Frankfurt,50.1336126,8.6973781,highway,way,Hungener_Strasse,Hungener Strasse,Hungener_Strasse_60389.jpeg,1
2256,Sossenheimer Mühlgasse,6,Sossenheim,631,6.53,6C,Höchst,17.0,65936,Sossenheimer Mühlgasse 65936 Frankfurt,50.1195175,8.5653323,highway,way,Sossenheimer_Muehlgasse,Sossenheimer Muehlgasse,Sossenheimer_Muehlgasse_65936.jpeg,1
623,Dehnhardtstraße,9,Eschersheim,452,9.66,9,Dornbusch,12.0,60433,Dehnhardtstraße 60433 Frankfurt,50.1486002,8.667426,highway,way,Dehnhardtstrasse,Dehnhardtstrasse,Dehnhardtstrasse_60433.jpeg,1
1650,Mainzer Landstraße,1,Gallus,152,1.06,1,Gallus,4.0,60327,Mainzer Landstraße 60327 Frankfurt,50.1072505,8.6552022,highway,way,Mainzer_Landstrasse,Mainzer Landstrasse,Mainzer_Landstrasse_60327.jpeg,1
1915,Pfannmüllerstraße,7,Hausen,410,7.58,7,Bockenheim,11.0,60488,Pfannmüllerstraße 60488 Frankfurt,50.1307344,8.6241811,highway,way,Pfannmuellerstrasse,Pfannmuellerstrasse,Pfannmuellerstrasse_60488.jpeg,1
1034,Haardtwaldplatz,5,Niederrad,371,5.35,5B,Sachsenhausen,10.0,60528,Haardtwaldplatz 60528 Frankfurt,50.08642595,8.636397079386711,leisure,way,Haardtwaldplatz,Haardtwaldplatz,Haardtwaldplatz_60528.jpeg,1
2096,Sandplackenstraße,7,Praunheim,422,7.59,7,Bockenheim,14.0,60488,Sandplackenstraße 60488 Frankfurt,50.1481931,8.6200446,highway,way,Sandplackenstrasse,Sandplackenstrasse,Sandplackenstrasse_60488.jpeg,1
1873,Orthstraße,4,Bornheim,281,4.24,4,Ost,6.0,60385,Orthstraße 60385 Frankfurt,50.1262422,8.7116455,highway,way,Orthstrasse,Orthstrasse,Orthstrasse_60385.jpeg,1
1388,Katzenpforte,1,Innenstadt,60,1.02,1,Ost,1.0,60313,Katzenpforte 60313 Frankfurt,50.1164294,8.6817258,highway,way,Katzenpforte,Katzenpforte,Katzenpforte_60313.jpeg,1
672,Dürkheimer Straße,6,Nied,561,6.42,6A,Höchst,16.0,65934,Dürkheimer Straße 65934 Frankfurt,50.0985545,8.575362,highway,way,Duerkheimer_Strasse,Duerkheimer Strasse,Duerkheimer_Strasse_65934.jpeg,1
113,Am Gemeindegarten,6,Griesheim,541,6.39,6A,Gallus,16.0,65933,Am Gemeindegarten 65933 Frankfurt,50.0939391,8.6084568,highway,way,Am_Gemeindegarten,Am Gemeindegarten,Am_Gemeindegarten_65933.jpeg,1
2790,Emser Brücke,1,Gallus,161,1.06,1,Gallus,4.0,60327,Emser Brücke 60327 Frankfurt,50.1124389,8.6436734,highway,way,Emser_Bruecke,Emser Bruecke,Emser_Bruecke_60327.jpeg,1
1384,Kastanienstraße,6,Griesheim,552,6.41,6A,Gallus,16.0,65933,Kastanienstraße 65933 Frankfurt,50.0987089,8.6040648,highway,way,Kastanienstrasse,Kastanienstrasse,Kastanienstrasse_65933.jpeg,1
755,Eschenheimer Anlage,3,Nordend-West,120,3.21,3,Ost,3.0,60318,Eschenheimer Anlage 60318 Frankfurt,50.1200026,8.6864357,highway,way,Eschenheimer_Anlage,Eschenheimer Anlage,Eschenheimer_Anlage_60318.jpeg,1
3012,Obere Rützelstraße,6,Griesheim,541,6.39,6A,Gallus,16.0,65933,Obere Rützelstraße 65933 Frankfurt,50.0931582,8.6084318,highway,way,Obere_Ruetzelstrasse,Obere Ruetzelstrasse,Obere_Ruetzelstrasse_65933.jpeg,1
3506,In den Aspen,14,Harheim,660,14.81,14,Nord,14.0,60437,In den Aspen 60437 Frankfurt,50.1872835,8.6963864,highway,way,In_den_Aspen,In den Aspen,In_den_Aspen_60437.jpeg,1
1523,Kurzröderstraße,10,Eckenheim,461,10.72,10,Dornbusch,12.0,60435,Kurzröderstraße 60435 Frankfurt,50.1463489,8.6841882,highway,way,Kurzroederstrasse,Kurzroederstrasse,Kurzroederstrasse_60435.jpeg,1
232,An der Festeburg,11,Seckbach,390,11.75,11,Ost,6.0,60389,An der Festeburg 60389 Frankfurt,50.1441528,8.705733,amenity,node,An_der_Festeburg,An der Festeburg,An_der_Festeburg_60389.jpeg,1
751,Erntestraße,1,Gutleutviertel,151,1.04,1,Gallus,4.0,60327,Erntestraße 60327 Frankfurt,50.0943028,8.6387957,highway,node,Erntestrasse,Erntestrasse,Erntestrasse_60327.jpeg,1
15,Adolfstraße,5,Niederrad,372,5.36,5B,Sachsenhausen,10.0,60528,Adolfstraße 60528 Frankfurt,50.0837956,8.64647,highway,way,Adolfstrasse,Adolfstrasse,Adolfstrasse_60528.jpeg,1
3,Ackermannstraße,1,Gallus,154,1.05,1,Gallus,16.0,60326,Ackermannstraße 60326 Frankfurt,50.1010322,8.6252843,highway,way,Ackermannstrasse,Ackermannstrasse,Ackermannstrasse_60326.jpeg,1
2044,Roßdorfer Straße,4,Bornheim,282,4.24,4,Ost,5.0,60385,Roßdorfer Straße 60385 Frankfurt,50.1249939,8.7089742,highway,way,Rossdorfer_Strasse,Rossdorfer Strasse,Rossdorfer_Strasse_60385.jpeg,1
2963,Adolf-Leweke-Straße,10,Eckenheim,461,10.72,10,Dornbusch,12.0,60435,Adolf-Leweke-Straße 60435 Frankfurt,50.1531391,8.684761,highway,way,Adolf-Leweke-Strasse,Adolf-Leweke-Strasse,Adolf-Leweke-Strasse_60435.jpeg,1
1659,Marbachweg,11,Seckbach,390,11.75,11,Ost,6.0,60389,Marbachweg 60389 Frankfurt,50.1441165,8.6937501,highway,way,Marbachweg,Marbachweg,Marbachweg_60389.jpeg,1
1369,Karl-Marx-Straße,11,Riederwald,262,11.76,11,Ost,18.0,60386,Karl-Marx-Straße 60386 Frankfurt,50.1307492,8.735674382463138,highway,way,Karl-Marx-Strasse,Karl-Marx-Strasse,Karl-Marx-Strasse_60386.jpeg,1
2833,Otto-Brenner-Straße,6,Sossenheim,632,6.54,6C,Höchst,17.0,65936,Otto-Brenner-Straße 65936 Frankfurt,50.1231471,8.5721772,highway,way,Otto-Brenner-Strasse,Otto-Brenner-Strasse,Otto-Brenner-Strasse_65936.jpeg,1
1214,Holzhausenstraße,3,Nordend-West,203,3.16,3,Dornbusch,3.0,60322,Holzhausenstraße 60322 Frankfurt,50.1269113,8.6747703,amenity,node,Holzhausenstrasse,Holzhausenstrasse,Holzhausenstrasse_60322.jpeg,1
3331,Ignatz-Bubis-Brücke,1,Innenstadt,80,1.01,1,Ost,1.0,60311,Ignatz-Bubis-Brücke 60311 Frankfurt,50.1087362,8.6928959,highway,way,Ignatz-Bubis-Bruecke,Ignatz-Bubis-Bruecke,Ignatz-Bubis-Bruecke_60311.jpeg,1
3568,Ettinghausen-Platz,6,Höchst,591,6.46,6C,Höchst,17.0,65929,Ettinghausen-Platz 65929 Frankfurt,50.0998357,8.546638880534708,highway,way,Ettinghausen-Platz,Ettinghausen-Platz,Ettinghausen-Platz_65929.jpeg,1
2796,In den Seewiesen,12,Kalbach-Riedberg,650,12.79,12,Nord,14.0,60437,In den Seewiesen 60437 Frankfurt,50.1854958,8.6501507,highway,way,In_den_Seewiesen,In den Seewiesen,In_den_Seewiesen_60437.jpeg,1
1289,Inckusstraße,9,Dornbusch,463,9.69,9,Dornbusch,12.0,60320,Inckusstraße 60320 Frankfurt,50.1404257,8.6796949,highway,way,Inckusstrasse,Inckusstrasse,Inckusstrasse_60320.jpeg,1
2636,Alte Fahrt,13,Nieder-Erlenbach,640,13.8,13,Nord,14.0,60437,Alte Fahrt 60437 Frankfurt,50.2014224,8.7099306,highway,way,Alte_Fahrt,Alte Fahrt,Alte_Fahrt_60437.jpeg,1
274,Arnsburger Straße,4,Bornheim,240,4.23,4,Ost,5.0,60385,Arnsburger Straße 60385 Frankfurt,50.1255036,8.7069908,highway,way,Arnsburger_Strasse,Arnsburger Strasse,Arnsburger_Strasse_60385.jpeg,1
1512,Küferstraße,6,Sindlingen,601,6.47,6B,Höchst,17.0,65931,Küferstraße 65931 Frankfurt,50.0821308,8.5150483,highway,way,Kueferstrasse,Kueferstrasse,Kueferstrasse_65931.jpeg,1
905,Gederner Straße,10,Eckenheim,461,10.72,10,Dornbusch,12.0,60435,Gederner Straße 60435 Frankfurt,50.1503625,8.6883054,highway,way,Gederner_Strasse,Gederner Strasse,Gederner_Strasse_60435.jpeg,1
1919,Pfingstbornstraße,6,Sindlingen,601,6.47,6B,Höchst,17.0,65931,Pfingstbornstraße 65931 Frankfurt,50.083465,8.5133421,highway,way,Pfingstbornstrasse,Pfingstbornstrasse,Pfingstbornstrasse_65931.jpeg,1
2026,Rödelheimer Landstraße,7,Bockenheim,343,7.57,2,Bockenheim,11.0,60486,Rödelheimer Landstraße 60486 Frankfurt,50.1212908,8.621238,highway,way,Roedelheimer_Landstrasse,Roedelheimer Landstrasse,Roedelheimer_Landstrasse_60486.jpeg,1
2910,Schalksbornstraße,16,Bergen-Enkheim,680,16.83,16,Ost,18.0,60388,Schalksbornstraße 60388 Frankfurt,50.1571752,8.7543565,highway,way,Schalksbornstrasse,Schalksbornstrasse,Schalksbornstrasse_60388.jpeg,1
3035,Alfred-Delp-Straße,5,Sachsenhausen-S.,332,5.29,5A,Sachsenhausen,8.0,60599,Alfred-Delp-Straße 60599 Frankfurt,50.0969608,8.7137098,highway,way,Alfred-Delp-Strasse,Alfred-Delp-Strasse,Alfred-Delp-Strasse_60599.jpeg,1
3612,Marianne-Beuchert-Platz,10,Preungesheim,470,10.73,10,Dornbusch,12.0,60435,Marianne-Beuchert-Platz 60435 Frankfurt,50.14472325,8.699695960718223,highway,way,Marianne-Beuchert-Platz,Marianne-Beuchert-Platz,Marianne-Beuchert-Platz_60435.jpeg,1
3586,Gref-Völsing-Straße,4,Ostend,261,4.27,4,Ost,5.0,60314,Gref-Völsing-Straße 60314 Frankfurt,50.1132921,8.7128606,highway,way,Gref-Voelsing-Strasse,Gref-Voelsing-Strasse,Gref-Voelsing-Strasse_60314.jpeg,1
640,Diesterwegplatz,5,Sachsenhausen-N.,324,5.32,5A,Sachsenhausen,8.0,60594,Diesterwegplatz 60594 Frankfurt,50.0998521,8.6848388,amenity,node,Diesterwegplatz,Diesterwegplatz,Diesterwegplatz_60594.jpeg,1
1318,Jakobsbrunnenstraße,11,Fechenheim,510,11.77,11,Ost,18.0,60386,Jakobsbrunnenstraße 60386 Frankfurt,50.1266774,8.7663817,highway,way,Jakobsbrunnenstrasse,Jakobsbrunnenstrasse,Jakobsbrunnenstrasse_60386.jpeg,1
868,Friedrich-Kahl-Straße,7,Rödelheim,401,7.55,7,Bockenheim,11.0,60489,Friedrich-Kahl-Straße 60489 Frankfurt,50.1316533,8.5927432,highway,way,Friedrich-Kahl-Strasse,Friedrich-Kahl-Strasse,Friedrich-Kahl-Strasse_60489.jpeg,1
994,Große Gallusstraße,1,Innenstadt,40,1.03,1,Ost,1.0,60311,Große Gallusstraße 60311 Frankfurt,50.1121441,8.6758749,highway,way,Grosse_Gallusstrasse,Grosse Gallusstrasse,Grosse_Gallusstrasse_60311.jpeg,1
188,Am Steinernen Kreuz,6,Griesheim,542,6.4,6A,Gallus,16.0,65933,Am Steinernen Kreuz 65933 Frankfurt,50.1023268,8.5977985,highway,way,Am_Steinernen_Kreuz,Am Steinernen Kreuz,Am_Steinernen_Kreuz_65933.jpeg,1
2588,Niederurseler Steg,8,Heddernheim,432,8.62,8,Nord,14.0,60439,Niederurseler Steg 60439 Frankfurt,50.1596673,8.6324445,highway,way,Niederurseler_Steg,Niederurseler Steg,Niederurseler_Steg_60439.jpeg,1
1426,Kleemannstraße,7,Rödelheim,401,7.55,7,Bockenheim,11.0,60489,Kleemannstraße 60489 Frankfurt,50.1208438,8.6162744,highway,way,Kleemannstrasse,Kleemannstrasse,Kleemannstrasse_60489.jpeg,1
2322,Tacitusstraße,8,Heddernheim,432,8.62,8,Nord,14.0,60439,Tacitusstraße 60439 Frankfurt,50.1589098,8.6370537,highway,way,Tacitusstrasse,Tacitusstrasse,Tacitusstrasse_60439.jpeg,1
1923,Pflugstraße,9,Ginnheim,441,9.67,9,Nord,12.0,60431,Pflugstraße 60431 Frankfurt,50.1426242,8.6549496,highway,way,Pflugstrasse,Pflugstrasse,Pflugstrasse_60431.jpeg,1
1557,Leibbrandstraße,4,Ostend,261,4.27,4,Ost,5.0,60314,Leibbrandstraße 60314 Frankfurt,50.1173026,8.7270561,highway,way,Leibbrandstrasse,Leibbrandstrasse,Leibbrandstrasse_60314.jpeg,1
2916,Siebenbürgenstraße,16,Bergen-Enkheim,680,16.83,16,Ost,18.0,60388,Siebenbürgenstraße 60388 Frankfurt,50.1475843,8.7580046,highway,way,Siebenbuergenstrasse,Siebenbuergenstrasse,Siebenbuergenstrasse_60388.jpeg,1
1258,Im Eichwäldchen,7,Hausen,410,7.58,7,Bockenheim,11.0,60488,Im Eichwäldchen 60488 Frankfurt,50.1370988,8.6221046,highway,way,Im_Eichwaeldchen,Im Eichwaeldchen,Im_Eichwaeldchen_60488.jpeg,1
3584,Philipp-Holzmann-Weg,4,Ostend,261,4.27,4,Ost,5.0,60314,Philipp-Holzmann-Weg 60314 Frankfurt,50.1113282,8.7064271,highway,way,Philipp-Holzmann-Weg,Philipp-Holzmann-Weg,Philipp-Holzmann-Weg_60314.jpeg,1
1830,Nußzeil,9,Eschersheim,451,9.65,9,Dornbusch,12.0,60433,Nußzeil 60433 Frankfurt,50.1551256,8.6632346,highway,way,Nusszeil,Nusszeil,Nusszeil_60433.jpeg,1
769,Fabriciusstraße,6,Griesheim,541,6.39,6A,Gallus,16.0,65933,Fabriciusstraße 65933 Frankfurt,50.0931659,8.6021362,highway,way,Fabriciusstrasse,Fabriciusstrasse,Fabriciusstrasse_65933.jpeg,1
328,Bärenstraße,4,Ostend,261,4.27,4,Ost,5.0,60316,Bärenstraße 60316 Frankfurt,50.1134975,8.7031308,highway,way,Baerenstrasse,Baerenstrasse,Baerenstrasse_60316.jpeg,1
2327,Taubenstraße,1,Innenstadt,50,1.02,1,Ost,1.0,60313,Taubenstraße 60313 Frankfurt,50.1169091,8.6791306,highway,way,Taubenstrasse,Taubenstrasse,Taubenstrasse_60313.jpeg,1
1229,Hügelstraße,9,Dornbusch,462,9.69,9,Dornbusch,12.0,60433,Hügelstraße 60433 Frankfurt,50.1489154,8.670475,highway,way,Huegelstrasse,Huegelstrasse,Huegelstrasse_60433.jpeg,1
1925,Pfortenstraße,11,Fechenheim,520,11.78,11,Ost,18.0,60386,Pfortenstraße 60386 Frankfurt,50.1222206,8.7699593,highway,way,Pfortenstrasse,Pfortenstrasse,Pfortenstrasse_60386.jpeg,1
8,Adelonstraße,6,Höchst,570,6.44,6C,Höchst,17.0,65929,Adelonstraße 65929 Frankfurt,50.103446,8.5413172,highway,way,Adelonstrasse,Adelonstrasse,Adelonstrasse_65929.jpeg,1
2410,Vilbeler Straße,1,Innenstadt,70,1.01,1,Ost,1.0,60313,Vilbeler Straße 60313 Frankfurt,50.1168852,8.6861374,highway,way,Vilbeler_Strasse,Vilbeler Strasse,Vilbeler_Strasse_60313.jpeg,1
3274,Neue Börsenstraße,7,Bockenheim,343,7.57,2,Bockenheim,11.0,60487,Neue Börsenstraße 60487 Frankfurt,50.1263637,8.6289641,highway,way,Neue_Boersenstrasse,Neue Boersenstrasse,Neue_Boersenstrasse_60487.jpeg,1
3163,Wilhelm-Schmelz-Weg,6,Nied,562,6.43,6A,Höchst,16.0,65934,Wilhelm-Schmelz-Weg 65934 Frankfurt,50.1060882,8.5833005,highway,way,Wilhelm-Schmelz-Weg,Wilhelm-Schmelz-Weg,Wilhelm-Schmelz-Weg_65934.jpeg,1
574,Burgenlandweg,5,Oberrad,380,5.28,5A,Sachsenhausen,8.0,60599,Burgenlandweg 60599 Frankfurt,50.0941736,8.7278512,highway,way,Burgenlandweg,Burgenlandweg,Burgenlandweg_60599.jpeg,1
3427,Karpfenweg,1,Gutleutviertel,151,1.04,1,Gallus,4.0,60327,Karpfenweg 60327 Frankfurt,50.0991894,8.6616454,highway,way,Karpfenweg,Karpfenweg,Karpfenweg_60327.jpeg,1
758,Eschersheimer Landstraße,2,Westend-Nord,191,2.09,2,Dornbusch,3.0,60323,Eschersheimer Landstraße 60323 Frankfurt,50.1299055,8.6720858,highway,way,Eschersheimer_Landstrasse,Eschersheimer Landstrasse,Eschersheimer_Landstrasse_60323.jpeg,1
1802,Niddagaustraße,7,Rödelheim,401,7.55,7,Bockenheim,11.0,60489,Niddagaustraße 60489 Frankfurt,50.1267689,8.6092404,highway,way,Niddagaustrasse,Niddagaustrasse,Niddagaustrasse_60489.jpeg,1
1581,Lichtensteinstraße,3,Nordend-West,203,3.16,3,Dornbusch,3.0,60322,Lichtensteinstraße 60322 Frankfurt,50.1271437,8.6817259,highway,way,Lichtensteinstrasse,Lichtensteinstrasse,Lichtensteinstrasse_60322.jpeg,1
1522,Kurzgasse,7,Rödelheim,401,7.55,7,Bockenheim,11.0,60489,Kurzgasse 60489 Frankfurt,50.1254673,8.6142583,highway,way,Kurzgasse,Kurzgasse,Kurzgasse_60489.jpeg,1
53,Alt-Eschersheim,9,Eschersheim,452,9.66,9,Dornbusch,12.0,60433,Alt-Eschersheim 60433 Frankfurt,50.162416,8.6567631,highway,way,Alt-Eschersheim,Alt-Eschersheim,Alt-Eschersheim_60433.jpeg,1
2281,Stegstraße,5,Sachsenhausen-N.,324,5.32,5A,Sachsenhausen,8.0,60594,Stegstraße 60594 Frankfurt,50.1016191,8.6847109,highway,way,Stegstrasse,Stegstrasse,Stegstrasse_60594.jpeg,1
1016,Günther-Groenhoff-Straße,2,Bockenheim,362,2.12,2,Bockenheim,13.0,60487,Günther-Groenhoff-Straße 60487 Frankfurt,50.1299845,8.6469944,highway,way,Guenther-Groenhoff-Strasse,Guenther-Groenhoff-Strasse,Guenther-Groenhoff-Strasse_60487.jpeg,1
2015,Riedrain,6,Sossenheim,632,6.54,6C,Höchst,17.0,65936,Riedrain 65936 Frankfurt,50.1226916,8.5703481,highway,way,Riedrain,Riedrain,Riedrain_65936.jpeg,1
1229,Hügelstraße,10,Eckenheim,461,10.72,10,Dornbusch,12.0,60435,Hügelstraße 60435 Frankfurt,50.1497001,8.675972,highway,way,Huegelstrasse,Huegelstrasse,Huegelstrasse_60435.jpeg,1
821,Flughafenstraße,5,Sachsenhausen-S.,325,5.34,5A,Sachsenhausen,10.0,60528,Flughafenstraße 60528 Frankfurt,50.0679046,8.6334856,amenity,node,Flughafenstrasse,Flughafenstrasse,Flughafenstrasse_60528.jpeg,1
2156,Schneidmühlenweg,6,Unterliederbach,622,6.52,6C,Höchst,17.0,65929,Schneidmühlenweg 65929 Frankfurt,50.109656,8.539785,highway,way,Schneidmuehlenweg,Schneidmuehlenweg,Schneidmuehlenweg_65929.jpeg,1
867,Friedrich-Ebert-Anlage,2,Westend-Süd,170,2.11,2,Bockenheim,13.0,60325,Friedrich-Ebert-Anlage 60325 Frankfurt,50.110307,8.6590225,highway,way,Friedrich-Ebert-Anlage,Friedrich-Ebert-Anlage,Friedrich-Ebert-Anlage_60325.jpeg,1
3419,Friedberger Tor,1,Innenstadt,60,1.02,1,Ost,1.0,60313,Friedberger Tor 60313 Frankfurt,50.1178817,8.688181,highway,way,Friedberger_Tor,Friedberger Tor,Friedberger_Tor_60313.jpeg,1
10,Adlerflychtplatz,3,Nordend-West,201,3.21,3,Dornbusch,3.0,60318,Adlerflychtplatz 60318 Frankfurt,50.12427725,8.681756760648549,leisure,way,Adlerflychtplatz,Adlerflychtplatz,Adlerflychtplatz_60318.jpeg,1
1519,Kurhessenstraße,9,Eschersheim,452,9.66,9,Dornbusch,12.0,60431,Kurhessenstraße 60431 Frankfurt,50.1486869,8.6565697,highway,way,Kurhessenstrasse,Kurhessenstrasse,Kurhessenstrasse_60431.jpeg,1
1778,Neue Mainzer Straße,1,Innenstadt,40,1.03,1,Ost,1.0,60311,Neue Mainzer Straße 60311 Frankfurt,50.107557,8.6757955,highway,way,Neue_Mainzer_Strasse,Neue Mainzer Strasse,Neue_Mainzer_Strasse_60311.jpeg,1
2125,Schifferstraße,5,Sachsenhausen-N.,324,5.32,5A,Sachsenhausen,8.0,60594,Schifferstraße 60594 Frankfurt,50.1038618,8.6890228,highway,way,Schifferstrasse,Schifferstrasse,Schifferstrasse_60594.jpeg,1
1349,Kaiserstraße,1,Innenstadt,40,1.03,1,Ost,1.0,60311,Kaiserstraße 60311 Frankfurt,50.1107293,8.6755811,highway,way,Kaiserstrasse,Kaiserstrasse,Kaiserstrasse_60311.jpeg,1
486,Braumannstraße,10,Preungesheim,470,10.73,10,Dornbusch,12.0,60435,Braumannstraße 60435 Frankfurt,50.1525087,8.6906565,highway,way,Braumannstrasse,Braumannstrasse,Braumannstrasse_60435.jpeg,1
396,Berger Straße,3,Nordend-Ost,130,3.2,3,Ost,3.0,60316,Berger Straße 60316 Frankfurt,50.1204576,8.6960354,highway,way,Berger_Strasse,Berger Strasse,Berger_Strasse_60316.jpeg,1
476,Bornheimer Landstraße,3,Nordend-Ost,230,3.2,3,Ost,3.0,60316,Bornheimer Landstraße 60316 Frankfurt,50.1218229,8.698757,highway,way,Bornheimer_Landstrasse,Bornheimer Landstrasse,Bornheimer_Landstrasse_60316.jpeg,1
2795,Ben-Gurion-Ring,15,Nieder-Eschbach,670,15.82,15,Nord,14.0,60437,Ben-Gurion-Ring 60437 Frankfurt,50.1930229,8.6618406,highway,way,Ben-Gurion-Ring,Ben-Gurion-Ring,Ben-Gurion-Ring_60437.jpeg,1
1249,Idsteiner Straße,1,Gallus,162,1.07,1,Gallus,4.0,60326,Idsteiner Straße 60326 Frankfurt,50.1052426,8.6293941,highway,way,Idsteiner_Strasse,Idsteiner Strasse,Idsteiner_Strasse_60326.jpeg,1
1898,Paul-Bode-Straße,9,Eschersheim,452,9.66,9,Dornbusch,12.0,60433,Paul-Bode-Straße 60433 Frankfurt,50.1558653,8.6594493,highway,way,Paul-Bode-Strasse,Paul-Bode-Strasse,Paul-Bode-Strasse_60433.jpeg,1
1339,Juliusstraße,2,Bockenheim,361,2.12,2,Bockenheim,13.0,60487,Juliusstraße 60487 Frankfurt,50.1238616,8.6450024,highway,way,Juliusstrasse,Juliusstrasse,Juliusstrasse_60487.jpeg,1
2534,Wismarer Straße,2,Westend-Nord,191,2.09,2,Dornbusch,3.0,60323,Wismarer Straße 60323 Frankfurt,50.1303435,8.666415,highway,way,Wismarer_Strasse,Wismarer Strasse,Wismarer_Strasse_60323.jpeg,1
1547,Lappengasse,11,Fechenheim,510,11.77,11,Ost,18.0,60386,Lappengasse 60386 Frankfurt,50.1255376,8.7693629,highway,way,Lappengasse,Lappengasse,Lappengasse_60386.jpeg,1
532,Bundenweg,9,Dornbusch,463,9.69,9,Dornbusch,12.0,60320,Bundenweg 60320 Frankfurt,50.140338,8.6809959,highway,way,Bundenweg,Bundenweg,Bundenweg_60320.jpeg,1
1294,In den Zeuläckern,11,Seckbach,390,11.75,11,Ost,6.0,60389,In den Zeuläckern 60389 Frankfurt,50.1398584,8.7227155,highway,way,In_den_Zeulaeckern,In den Zeulaeckern,In_den_Zeulaeckern_60389.jpeg,1
1806,Niedergärtenstraße,10,Eckenheim,461,10.72,10,Dornbusch,12.0,60435,Niedergärtenstraße 60435 Frankfurt,50.1507757,8.6807746,highway,way,Niedergaertenstrasse,Niedergaertenstrasse,Niedergaertenstrasse_60435.jpeg,1
886,Fuchshohl,9,Ginnheim,441,9.67,9,Nord,12.0,60431,Fuchshohl 60431 Frankfurt,50.1481036,8.6542109,highway,way,Fuchshohl,Fuchshohl,Fuchshohl_60431.jpeg,1
3034,Bruno-Poelke-Straße,2,Bockenheim,163,2.15,2,Bockenheim,13.0,60486,Bruno-Poelke-Straße 60486 Frankfurt,50.1135556,8.6144671,highway,way,Bruno-Poelke-Strasse,Bruno-Poelke-Strasse,Bruno-Poelke-Strasse_60486.jpeg,1
590,Carl-Heicke-Weg,4,Ostend,252,4.25,4,Ost,5.0,60385,Carl-Heicke-Weg 60385 Frankfurt,50.1193836,8.7170407,highway,way,Carl-Heicke-Weg,Carl-Heicke-Weg,Carl-Heicke-Weg_60385.jpeg,1
1474,Kolberger Weg,6,Zeilsheim,611,6.49,6B,Höchst,17.0,65931,Kolberger Weg 65931 Frankfurt,50.095729,8.496118,highway,way,Kolberger_Weg,Kolberger Weg,Kolberger_Weg_65931.jpeg,1
2364,Titusstraße,8,Heddernheim,431,8.61,8,Nord,14.0,60439,Titusstraße 60439 Frankfurt,50.1586619,8.6392454,amenity,node,Titusstrasse,Titusstrasse,Titusstrasse_60439.jpeg,1
1341,Jungmannstraße,6,Griesheim,551,6.39,6A,Gallus,16.0,65933,Jungmannstraße 65933 Frankfurt,50.0923854,8.6054038,highway,way,Jungmannstrasse,Jungmannstrasse,Jungmannstrasse_65933.jpeg,1
2851,An den Gerlachswiesen,16,Bergen-Enkheim,680,16.83,16,Ost,18.0,60388,An den Gerlachswiesen 60388 Frankfurt,50.1499677,8.7598387,highway,way,An_den_Gerlachswiesen,An den Gerlachswiesen,An_den_Gerlachswiesen_60388.jpeg,1
817,Florastraße,2,Bockenheim,361,2.12,2,Bockenheim,13.0,60487,Florastraße 60487 Frankfurt,50.1254433,8.6401223,highway,way,Florastrasse,Florastrasse,Florastrasse_60487.jpeg,1
1055,Hafnerstraße,6,Griesheim,541,6.39,6A,Gallus,16.0,65933,Hafnerstraße 65933 Frankfurt,50.0903533,8.6054191,highway,way,Hafnerstrasse,Hafnerstrasse,Hafnerstrasse_65933.jpeg,1
1075,Hansaallee,2,Westend-Nord,191,2.09,2,Dornbusch,3.0,60322,Hansaallee 60322 Frankfurt,50.1229722,8.6757373,highway,way,Hansaallee,Hansaallee,Hansaallee_60322.jpeg,1
2119,Schenkendorfstraße,9,Eschersheim,452,9.66,9,Dornbusch,12.0,60431,Schenkendorfstraße 60431 Frankfurt,50.150237,8.6577149,highway,way,Schenkendorfstrasse,Schenkendorfstrasse,Schenkendorfstrasse_60431.jpeg,1
935,Gervinusstraße,2,Westend-Nord,191,2.09,2,Dornbusch,3.0,60322,Gervinusstraße 60322 Frankfurt,50.1221868,8.6740529,highway,way,Gervinusstrasse,Gervinusstrasse,Gervinusstrasse_60322.jpeg,1
1918,Pferdskopfweg,6,Zeilsheim,612,6.5,6B,Höchst,17.0,65931,Pferdskopfweg 65931 Frankfurt,50.1010583,8.5014146,highway,way,Pferdskopfweg,Pferdskopfweg,Pferdskopfweg_65931.jpeg,1
233,An der Hauptwache,1,Innenstadt,40,1.03,1,Ost,1.0,60313,An der Hauptwache 60313 Frankfurt,50.1135653,8.6791648,highway,way,An_der_Hauptwache,An der Hauptwache,An_der_Hauptwache_60313.jpeg,1
444,Blauhandgasse,1,Altstadt,10,1.01,1,Ost,1.0,60311,Blauhandgasse 60311 Frankfurt,50.1097953,8.6789304,highway,way,Blauhandgasse,Blauhandgasse,Blauhandgasse_60311.jpeg,1
2983,Schreberweg,7,Rödelheim,402,7.56,7,Bockenheim,11.0,60489,Schreberweg 60489 Frankfurt,50.1170268,8.60804,highway,way,Schreberweg,Schreberweg,Schreberweg_60489.jpeg,1
3299,Felsenbirnenweg,6,Höchst,570,6.44,6C,Höchst,17.0,65929,Felsenbirnenweg 65929 Frankfurt,50.1123901,8.5501501,highway,way,Felsenbirnenweg,Felsenbirnenweg,Felsenbirnenweg_65929.jpeg,1
3290,Zur Kalbacher Höhe,12,Kalbach-Riedberg,651,12.79,12,Nord,14.0,60438,Zur Kalbacher Höhe 60438 Frankfurt,50.1754632,8.6420994,highway,way,Zur_Kalbacher_Hoehe,Zur Kalbacher Hoehe,Zur_Kalbacher_Hoehe_60438.jpeg,1
1856,Oeder Weg,3,Nordend-West,120,3.21,3,Ost,3.0,60322,Oeder Weg 60322 Frankfurt,50.1279843,8.6830405,highway,way,Oeder_Weg,Oeder Weg,Oeder_Weg_60322.jpeg,1
855,Freiherr-vom-Stein-Straße,2,Westend-Süd,180,2.1,2,Bockenheim,3.0,60323,Freiherr-vom-Stein-Straße 60323 Frankfurt,50.1187955,8.6640005,amenity,node,Freiherr-vom-Stein-Strasse,Freiherr-vom-Stein-Strasse,Freiherr-vom-Stein-Strasse_60323.jpeg,1
2328,Taufsteinweg,10,Eckenheim,461,10.72,10,Dornbusch,12.0,60435,Taufsteinweg 60435 Frankfurt,50.1513497,8.6858324,highway,way,Taufsteinweg,Taufsteinweg,Taufsteinweg_60435.jpeg,1
373,Balduinstraße,5,Oberrad,380,5.28,5A,Sachsenhausen,8.0,60599,Balduinstraße 60599 Frankfurt,50.0983841,8.7147436,highway,way,Balduinstrasse,Balduinstrasse,Balduinstrasse_60599.jpeg,1
3484,Alte Riedbergstraße,12,Kalbach-Riedberg,650,12.79,12,Nord,14.0,60437,Alte Riedbergstraße 60437 Frankfurt,50.1853757,8.6461174,highway,way,Alte_Riedbergstrasse,Alte Riedbergstrasse,Alte_Riedbergstrasse_60437.jpeg,1
1921,Pfingstweidstraße,4,Ostend,140,4.26,4,Ost,5.0,60316,Pfingstweidstraße 60316 Frankfurt,50.1158233,8.6973753,highway,way,Pfingstweidstrasse,Pfingstweidstrasse,Pfingstweidstrasse_60316.jpeg,1
3198,Heinrich-Hopf-Straße,6,Sossenheim,632,6.54,6C,Höchst,17.0,65936,Heinrich-Hopf-Straße 65936 Frankfurt,50.1281732,8.5876017,highway,way,Heinrich-Hopf-Strasse,Heinrich-Hopf-Strasse,Heinrich-Hopf-Strasse_65936.jpeg,1
3616,Martin-Elsässer-Platz,4,Ostend,140,4.26,4,Ost,5.0,60314,Martin-Elsässer-Platz 60314 Frankfurt,50.1091623,8.696963065433902,landuse,way,Martin-Elsaesser-Platz,Martin-Elsaesser-Platz,Martin-Elsaesser-Platz_60314.jpeg,1
1670,Markt,1,Altstadt,10,1.01,1,Ost,1.0,60311,Markt 60311 Frankfurt,50.1108673,8.683880235367184,highway,way,Markt,Markt,Markt_60311.jpeg,1
2267,Spielmannstraße,6,Nied,561,6.42,6A,Höchst,16.0,65934,Spielmannstraße 65934 Frankfurt,50.0987612,8.5695486,highway,way,Spielmannstrasse,Spielmannstrasse,Spielmannstrasse_65934.jpeg,1
2361,Tilsiter Straße,7,Bockenheim,343,7.57,2,Bockenheim,11.0,60487,Tilsiter Straße 60487 Frankfurt,50.1285287,8.6271656,highway,way,Tilsiter_Strasse,Tilsiter Strasse,Tilsiter_Strasse_60487.jpeg,1
1482,Konstantinstraße,8,Heddernheim,432,8.62,8,Nord,14.0,60439,Konstantinstraße 60439 Frankfurt,50.1578251,8.6375476,highway,way,Konstantinstrasse,Konstantinstrasse,Konstantinstrasse_60439.jpeg,1
1986,Reifenberger Straße,7,Rödelheim,401,7.55,7,Bockenheim,11.0,60489,Reifenberger Straße 60489 Frankfurt,50.1293617,8.6140144,highway,way,Reifenberger_Strasse,Reifenberger Strasse,Reifenberger_Strasse_60489.jpeg,1
1768,Nathan-Trier-Straße,6,Griesheim,541,6.39,6A,Gallus,16.0,65933,Nathan-Trier-Straße 65933 Frankfurt,50.0931588,8.6109625,highway,way,Nathan-Trier-Strasse,Nathan-Trier-Strasse,Nathan-Trier-Strasse_65933.jpeg,1
2725,Merzenstraße,14,Harheim,660,14.81,14,Nord,14.0,60437,Merzenstraße 60437 Frankfurt,50.1860463,8.6954329,highway,way,Merzenstrasse,Merzenstrasse,Merzenstrasse_60437.jpeg,1
81,Am Ameisenberg,4,Bornheim,272,4.22,4,Ost,6.0,60385,Am Ameisenberg 60385 Frankfurt,50.1325033,8.7125437,highway,way,Am_Ameisenberg,Am Ameisenberg,Am_Ameisenberg_60385.jpeg,1
2062,Rudolf-Hilferding-Straße,8,Niederursel,482,8.64,8,Nord,14.0,60439,Rudolf-Hilferding-Straße 60439 Frankfurt,50.1561928,8.6216144,highway,way,Rudolf-Hilferding-Strasse,Rudolf-Hilferding-Strasse,Rudolf-Hilferding-Strasse_60439.jpeg,1
1606,Lönsweg,6,Schwanheim,531,6.38,6A,Sachsenhausen,10.0,60529,Lönsweg 60529 Frankfurt,50.0833364,8.5761734,highway,way,Loensweg,Loensweg,Loensweg_60529.jpeg,1
1440,Kleine Wiesenau,2,Westend-Süd,180,2.1,2,Bockenheim,3.0,60323,Kleine Wiesenau 60323 Frankfurt,50.119907,8.6628602,highway,way,Kleine_Wiesenau,Kleine Wiesenau,Kleine_Wiesenau_60323.jpeg,1
3421,Colmarer Straße,5,Niederrad,373,5.36,5B,Sachsenhausen,10.0,60528,Colmarer Straße 60528 Frankfurt,50.0814168,8.6209319,highway,way,Colmarer_Strasse,Colmarer Strasse,Colmarer_Strasse_60528.jpeg,1
385,Baumweg,3,Nordend-Ost,130,3.2,3,Ost,3.0,60316,Baumweg 60316 Frankfurt,50.1186131,8.6942202,highway,way,Baumweg,Baumweg,Baumweg_60316.jpeg,1
3555,Ringelnatzgässchen,9,Dornbusch,442,9.68,9,Dornbusch,12.0,60431,Ringelnatzgässchen 60431 Frankfurt,50.149558,8.6636675,highway,way,Ringelnatzgaesschen,Ringelnatzgaesschen,Ringelnatzgaesschen_60431.jpeg,1
2384,Unter den Akazien,5,Sachsenhausen-N.,322,5.33,5A,Sachsenhausen,8.0,60596,Unter den Akazien 60596 Frankfurt,50.0914487,8.6684633,highway,way,Unter_den_Akazien,Unter den Akazien,Unter_den_Akazien_60596.jpeg,1
1184,Höchster Bahnstraße,6,Höchst,570,6.44,6C,Höchst,17.0,65929,Höchster Bahnstraße 65929 Frankfurt,50.1034312,8.5429429,highway,way,Hoechster_Bahnstrasse,Hoechster Bahnstrasse,Hoechster_Bahnstrasse_65929.jpeg,1
3686,Matthias-Beltz-Platz,3,Nordend-West,211,3.19,3,Ost,3.0,60318,Matthias-Beltz-Platz 60318 Frankfurt,50.12579805,8.691657118127502,highway,way,Matthias-Beltz-Platz,Matthias-Beltz-Platz,Matthias-Beltz-Platz_60318.jpeg,1
24,Albert-Linel-Straße,2,Bockenheim,163,2.15,2,Bockenheim,13.0,60486,Albert-Linel-Straße 60486 Frankfurt,50.1119357,8.6341981,highway,way,Albert-Linel-Strasse,Albert-Linel-Strasse,Albert-Linel-Strasse_60486.jpeg,1
1387,Kattowitzer Straße,6,Griesheim,552,6.41,6A,Gallus,16.0,65933,Kattowitzer Straße 65933 Frankfurt,50.103999,8.5929911,highway,way,Kattowitzer_Strasse,Kattowitzer Strasse,Kattowitzer_Strasse_65933.jpeg,1
2317,Stützeläckerweg,7,Rödelheim,402,7.56,7,Bockenheim,11.0,60489,Stützeläckerweg 60489 Frankfurt,50.1303777,8.596839530043916,highway,way,Stuetzelaeckerweg,Stuetzelaeckerweg,Stuetzelaeckerweg_60489.jpeg,1
2017,Ringelstraße,4,Bornheim,282,4.24,4,Ost,5.0,60385,Ringelstraße 60385 Frankfurt,50.1254351,8.71019,highway,way,Ringelstrasse,Ringelstrasse,Ringelstrasse_60385.jpeg,1
2113,Scheidstraße,9,Dornbusch,463,9.69,9,Dornbusch,12.0,60320,Scheidstraße 60320 Frankfurt,50.1413109,8.6824513,highway,way,Scheidstrasse,Scheidstrasse,Scheidstrasse_60320.jpeg,1
210,Am Wendelsgarten,10,Bonames,491,10.7,10,Nord,14.0,60437,Am Wendelsgarten 60437 Frankfurt,50.1838783,8.6660835,highway,way,Am_Wendelsgarten,Am Wendelsgarten,Am_Wendelsgarten_60437.jpeg,1
215,An den Drei Brunnen,9,Ginnheim,441,9.67,9,Nord,12.0,60431,An den Drei Brunnen 60431 Frankfurt,50.1381098,8.6499133,highway,way,An_den_Drei_Brunnen,An den Drei Brunnen,An_den_Drei_Brunnen_60431.jpeg,1
3293,Josef-Dey-Weg,6,Höchst,570,6.44,6C,Höchst,17.0,65929,Josef-Dey-Weg 65929 Frankfurt,50.1143052,8.5515035,highway,way,Josef-Dey-Weg,Josef-Dey-Weg,Josef-Dey-Weg_65929.jpeg,1
1713,Mendelssohnstraße,2,Westend-Süd,170,2.11,2,Bockenheim,13.0,60325,Mendelssohnstraße 60325 Frankfurt,50.1171423,8.6586045,amenity,node,Mendelssohnstrasse,Mendelssohnstrasse,Mendelssohnstrasse_60325.jpeg,1
1319,Jacob-Schiff-Straße,9,Dornbusch,462,9.69,9,Dornbusch,12.0,60433,Jacob-Schiff-Straße 60433 Frankfurt,50.1477632,8.6689007,highway,way,Jacob-Schiff-Strasse,Jacob-Schiff-Strasse,Jacob-Schiff-Strasse_60433.jpeg,1
1615,Lotzstraße,6,Nied,561,6.42,6A,Höchst,16.0,65934,Lotzstraße 65934 Frankfurt,50.1006474,8.5705483,highway,way,Lotzstrasse,Lotzstrasse,Lotzstrasse_65934.jpeg,1
1767,Nassauer Straße,8,Heddernheim,431,8.61,8,Nord,14.0,60439,Nassauer Straße 60439 Frankfurt,50.1601311,8.6472643,highway,way,Nassauer_Strasse,Nassauer Strasse,Nassauer_Strasse_60439.jpeg,1
1157,Hersfelder Straße,2,Bockenheim,350,2.13,2,Bockenheim,13.0,60487,Hersfelder Straße 60487 Frankfurt,50.1228315,8.6359217,highway,way,Hersfelder_Strasse,Hersfelder Strasse,Hersfelder_Strasse_60487.jpeg,1
2844,Am Michlersbrunnen,16,Bergen-Enkheim,680,16.83,16,Ost,18.0,60388,Am Michlersbrunnen 60388 Frankfurt,50.1564272,8.7556129,highway,way,Am_Michlersbrunnen,Am Michlersbrunnen,Am_Michlersbrunnen_60388.jpeg,1
739,Eppsteiner Straße,2,Westend-Süd,180,2.1,2,Bockenheim,3.0,60323,Eppsteiner Straße 60323 Frankfurt,50.1202398,8.6653468,highway,way,Eppsteiner_Strasse,Eppsteiner Strasse,Eppsteiner_Strasse_60323.jpeg,1
2205,Schweizer Straße,5,Sachsenhausen-N.,324,5.32,5A,Sachsenhausen,8.0,60594,Schweizer Straße 60594 Frankfurt,50.0994764,8.6825434,highway,way,Schweizer_Strasse,Schweizer Strasse,Schweizer_Strasse_60594.jpeg,1
599,Cheruskerweg,6,Unterliederbach,622,6.52,6C,Höchst,17.0,65929,Cheruskerweg 65929 Frankfurt,50.1158053,8.5361671,highway,way,Cheruskerweg,Cheruskerweg,Cheruskerweg_65929.jpeg,1
1112,Heidetränkstraße,8,Niederursel,481,8.63,8,Nord,14.0,60439,Heidetränkstraße 60439 Frankfurt,50.1650116,8.628471,highway,way,Heidetraenkstrasse,Heidetraenkstrasse,Heidetraenkstrasse_60439.jpeg,1
1342,Jungstraße,2,Bockenheim,341,2.13,2,Bockenheim,13.0,60486,Jungstraße 60486 Frankfurt,50.118547,8.647356,highway,way,Jungstrasse,Jungstrasse,Jungstrasse_60486.jpeg,1
285,Auerswaldstraße,4,Ostend,252,4.25,4,Ost,5.0,60385,Auerswaldstraße 60385 Frankfurt,50.1195007,8.7134998,highway,way,Auerswaldstrasse,Auerswaldstrasse,Auerswaldstrasse_60385.jpeg,1
3722,Ostpark,4,Ostend,261,4.27,4,Ost,5.0,60385,Ostpark 60385 Frankfurt,50.11988655,8.722473844163996,leisure,way,Ostpark,Ostpark,Ostpark_60385.jpeg,1
1789,Neumannstraße,9,Eschersheim,452,9.66,9,Dornbusch,12.0,60433,Neumannstraße 60433 Frankfurt,50.1497557,8.6658711,highway,way,Neumannstrasse,Neumannstrasse,Neumannstrasse_60433.jpeg,1
1123,Heinrich-Hardt-Straße,6,Griesheim,542,6.4,6A,Gallus,16.0,65933,Heinrich-Hardt-Straße 65933 Frankfurt,50.1031913,8.6002274,highway,way,Heinrich-Hardt-Strasse,Heinrich-Hardt-Strasse,Heinrich-Hardt-Strasse_65933.jpeg,1
852,Frauenlobstraße,2,Bockenheim,362,2.12,2,Bockenheim,13.0,60487,Frauenlobstraße 60487 Frankfurt,50.1286271,8.6533768,amenity,node,Frauenlobstrasse,Frauenlobstrasse,Frauenlobstrasse_60487.jpeg,1
994,Große Gallusstraße,1,Innenstadt,40,1.03,1,Ost,1.0,60315,Große Gallusstraße 60315 Frankfurt,50.1116764,8.6744835,highway,way,Grosse_Gallusstrasse,Grosse Gallusstrasse,Grosse_Gallusstrasse_60315.jpeg,1
696,Ehingerstraße,1,Gallus,154,1.05,1,Gallus,16.0,60326,Ehingerstraße 60326 Frankfurt,50.1000903,8.626903,highway,way,Ehingerstrasse,Ehingerstrasse,Ehingerstrasse_60326.jpeg,1
2127,Schillerstraße,1,Innenstadt,50,1.02,1,Ost,1.0,60313,Schillerstraße 60313 Frankfurt,50.1147237,8.6786061,amenity,node,Schillerstrasse,Schillerstrasse,Schillerstrasse_60313.jpeg,1
693,Egelsbacher Straße,5,Niederrad,371,5.35,5B,Sachsenhausen,10.0,60528,Egelsbacher Straße 60528 Frankfurt,50.0858783,8.6480372,highway,way,Egelsbacher_Strasse,Egelsbacher Strasse,Egelsbacher_Strasse_60528.jpeg,1
43,Alte Brücke,5,Sachsenhausen-N.,300,5.31,5A,Sachsenhausen,8.0,60594,Alte Brücke 60594 Frankfurt,50.107379,8.6877596,highway,way,Alte_Bruecke,Alte Bruecke,Alte_Bruecke_60594.jpeg,1
1855,Odrellstraße,2,Bockenheim,163,2.15,2,Bockenheim,13.0,60486,Odrellstraße 60486 Frankfurt,50.1143184,8.6329495,highway,way,Odrellstrasse,Odrellstrasse,Odrellstrasse_60486.jpeg,1
1589,Liliencronstraße,9,Dornbusch,442,9.68,9,Dornbusch,12.0,60320,Liliencronstraße 60320 Frankfurt,50.140628,8.6682312,highway,way,Liliencronstrasse,Liliencronstrasse,Liliencronstrasse_60320.jpeg,1
2316,Strubbergstraße,7,Rödelheim,402,7.56,7,Bockenheim,11.0,60489,Strubbergstraße 60489 Frankfurt,50.1226167,8.6055333,highway,way,Strubbergstrasse,Strubbergstrasse,Strubbergstrasse_60489.jpeg,1
2048,Roßmarkt,1,Innenstadt,40,1.03,1,Ost,1.0,60311,Roßmarkt 60311 Frankfurt,50.11225945,8.676652392870064,highway,way,Rossmarkt,Rossmarkt,Rossmarkt_60311.jpeg,1
1859,Oestricher Weg,6,Schwanheim,531,6.38,6A,Sachsenhausen,10.0,60529,Oestricher Weg 60529 Frankfurt,50.0827866,8.5676042,highway,way,Oestricher_Weg,Oestricher Weg,Oestricher_Weg_60529.jpeg,1
2376,Trümpertstraße,7,Rödelheim,401,7.55,7,Bockenheim,11.0,60489,Trümpertstraße 60489 Frankfurt,50.1276493,8.6131119,highway,way,Truempertstrasse,Truempertstrasse,Truempertstrasse_60489.jpeg,1
3292,Felix-Wankel-Straße,4,Ostend,261,4.27,4,Ost,5.0,60314,Felix-Wankel-Straße 60314 Frankfurt,50.1220285,8.7420034,highway,way,Felix-Wankel-Strasse,Felix-Wankel-Strasse,Felix-Wankel-Strasse_60314.jpeg,1
1156,Herrnstraße,5,Oberrad,380,5.28,5A,Sachsenhausen,8.0,60599,Herrnstraße 60599 Frankfurt,50.0983294,8.7273586,highway,way,Herrnstrasse,Herrnstrasse,Herrnstrasse_60599.jpeg,1
1324,Johanna-Kirchner-Straße,7,Praunheim,423,7.59,7,Bockenheim,11.0,60488,Johanna-Kirchner-Straße 60488 Frankfurt,50.1355029,8.6127725,highway,way,Johanna-Kirchner-Strasse,Johanna-Kirchner-Strasse,Johanna-Kirchner-Strasse_60488.jpeg,1
865,Friedensstraße,1,Innenstadt,40,1.03,1,Ost,1.0,60311,Friedensstraße 60311 Frankfurt,50.1099243,8.6751075,highway,way,Friedensstrasse,Friedensstrasse,Friedensstrasse_60311.jpeg,1
2432,Waldschulstraße,6,Griesheim,552,6.41,6A,Gallus,16.0,65933,Waldschulstraße 65933 Frankfurt,50.1002701,8.6033458,highway,way,Waldschulstrasse,Waldschulstrasse,Waldschulstrasse_65933.jpeg,1
1210,Hollerkopfstraße,8,Niederursel,481,8.63,8,Nord,14.0,60439,Hollerkopfstraße 60439 Frankfurt,50.1630124,8.6269953,highway,way,Hollerkopfstrasse,Hollerkopfstrasse,Hollerkopfstrasse_60439.jpeg,1
3606,Sophie-von-La-Roche-Weg,9,Ginnheim,441,9.67,9,Nord,12.0,60431,Sophie-von-La-Roche-Weg 60431 Frankfurt,50.140407,8.6596005,highway,way,Sophie-von-La-Roche-Weg,Sophie-von-La-Roche-Weg,Sophie-von-La-Roche-Weg_60431.jpeg,1
2791,Esperantostraße,5,Sachsenhausen-S.,323,5.3,5A,Sachsenhausen,8.0,60598,Esperantostraße 60598 Frankfurt,50.0902165,8.6827002,highway,way,Esperantostrasse,Esperantostrasse,Esperantostrasse_60598.jpeg,1
2680,An der Grünhohl,12,Kalbach-Riedberg,650,12.79,12,Nord,14.0,60437,An der Grünhohl 60437 Frankfurt,50.1879379,8.6420069,highway,way,An_der_Gruenhohl,An der Gruenhohl,An_der_Gruenhohl_60437.jpeg,1
174,Am Salzhaus,1,Innenstadt,40,1.03,1,Ost,1.0,60311,Am Salzhaus 60311 Frankfurt,50.1119432,8.6771759,highway,way,Am_Salzhaus,Am Salzhaus,Am_Salzhaus_60311.jpeg,1
1103,Heddernheimer Landstraße,8,Heddernheim,431,8.61,8,Nord,14.0,60439,Heddernheimer Landstraße 60439 Frankfurt,50.1639065,8.635121781903571,highway,way,Heddernheimer_Landstrasse,Heddernheimer Landstrasse,Heddernheimer_Landstrasse_60439.jpeg,1
482,Bottenhorner Weg,7,Rödelheim,402,7.56,7,Bockenheim,11.0,60489,Bottenhorner Weg 60489 Frankfurt,50.1200356,8.6029527,highway,way,Bottenhorner_Weg,Bottenhorner Weg,Bottenhorner_Weg_60489.jpeg,1
1979,Rebstöcker Weg,7,Rödelheim,401,7.55,7,Bockenheim,11.0,60489,Rebstöcker Weg 60489 Frankfurt,50.1212208,8.6146444,highway,way,Rebstoecker_Weg,Rebstoecker Weg,Rebstoecker_Weg_60489.jpeg,1
627,de-Ridder-Weg,6,Unterliederbach,621,6.51,6C,Höchst,17.0,65929,de-Ridder-Weg 65929 Frankfurt,50.1065032,8.5384382,highway,way,de-Ridder-Weg,de-Ridder-Weg,de-Ridder-Weg_65929.jpeg,1
2635,Toni-Sender-Straße,6,Sossenheim,632,6.54,6C,Höchst,17.0,65936,Toni-Sender-Straße 65936 Frankfurt,50.1239222,8.5684946,highway,way,Toni-Sender-Strasse,Toni-Sender-Strasse,Toni-Sender-Strasse_65936.jpeg,1
2154,Schneiderstraße,6,Sindlingen,601,6.47,6B,Höchst,17.0,65931,Schneiderstraße 65931 Frankfurt,50.0874663,8.5130056,highway,way,Schneiderstrasse,Schneiderstrasse,Schneiderstrasse_65931.jpeg,1
2903,Ostpreußenstraße,16,Bergen-Enkheim,680,16.83,16,Ost,18.0,60388,Ostpreußenstraße 60388 Frankfurt,50.1459975,8.7580313,highway,way,Ostpreussenstrasse,Ostpreussenstrasse,Ostpreussenstrasse_60388.jpeg,1
2604,Coventrystraße,6,Nied,562,6.43,6A,Höchst,16.0,65934,Coventrystraße 65934 Frankfurt,50.1025049,8.5755777,highway,way,Coventrystrasse,Coventrystrasse,Coventrystrasse_65934.jpeg,1
467,Bolongarostraße,6,Nied,561,6.42,6A,Höchst,17.0,65934,Bolongarostraße 65934 Frankfurt,50.1013756,8.5615862,highway,way,Bolongarostrasse,Bolongarostrasse,Bolongarostrasse_65934.jpeg,1
126,Am Hohen Weg,7,Hausen,410,7.58,7,Bockenheim,11.0,60488,Am Hohen Weg 60488 Frankfurt,50.1354626,8.6253061,highway,way,Am_Hohen_Weg,Am Hohen Weg,Am_Hohen_Weg_60488.jpeg,1
1626,Ludwigshafener Straße,6,Höchst,591,6.46,6C,Höchst,17.0,65929,Ludwigshafener Straße 65929 Frankfurt,50.1005581,8.5414616,highway,way,Ludwigshafener_Strasse,Ludwigshafener Strasse,Ludwigshafener_Strasse_65929.jpeg,1
2475,Weißkirchener Weg,8,Niederursel,482,8.64,8,Nord,14.0,60439,Weißkirchener Weg 60439 Frankfurt,50.1656391,8.6201529,highway,way,Weisskirchener_Weg,Weisskirchener Weg,Weisskirchener_Weg_60439.jpeg,1
1544,Langheckenweg,9,Eschersheim,452,9.66,9,Dornbusch,12.0,60433,Langheckenweg 60433 Frankfurt,50.1529674,8.6674864,highway,way,Langheckenweg,Langheckenweg,Langheckenweg_60433.jpeg,1
2366,Töplitzstraße,5,Sachsenhausen-N.,322,5.33,5A,Sachsenhausen,8.0,60596,Töplitzstraße 60596 Frankfurt,50.0966923,8.6657521,highway,way,Toeplitzstrasse,Toeplitzstrasse,Toeplitzstrasse_60596.jpeg,1
2188,Schwanenstraße,4,Ostend,140,4.26,4,Ost,5.0,60314,Schwanenstraße 60314 Frankfurt,50.1113705,8.6946367,highway,way,Schwanenstrasse,Schwanenstrasse,Schwanenstrasse_60314.jpeg,1
178,Am Schwalbenschwanz,9,Dornbusch,442,9.68,9,Dornbusch,12.0,60431,Am Schwalbenschwanz 60431 Frankfurt,50.1503979,8.6633662,highway,way,Am_Schwalbenschwanz,Am Schwalbenschwanz,Am_Schwalbenschwanz_60431.jpeg,1
2560,Zeppelinallee,2,Bockenheim,361,2.12,2,Bockenheim,13.0,60325,Zeppelinallee 60325 Frankfurt,50.1214083,8.6539618,highway,way,Zeppelinallee,Zeppelinallee,Zeppelinallee_60325.jpeg,1
2375,Triftstraße,5,Niederrad,372,5.36,5B,Sachsenhausen,10.0,60528,Triftstraße 60528 Frankfurt,50.0837347,8.6448173,highway,way,Triftstrasse,Triftstrasse,Triftstrasse_60528.jpeg,1
2181,Schulze-Delitzsch-Straße,11,Riederwald,262,11.76,11,Ost,18.0,60386,Schulze-Delitzsch-Straße 60386 Frankfurt,50.1292388,8.7300052,amenity,node,Schulze-Delitzsch-Strasse,Schulze-Delitzsch-Strasse,Schulze-Delitzsch-Strasse_60386.jpeg,1
3320,Erich-Fromm-Platz,2,Westend-Süd,180,2.1,2,Bockenheim,3.0,60323,Erich-Fromm-Platz 60323 Frankfurt,50.1205687,8.665413765891198,leisure,way,Erich-Fromm-Platz,Erich-Fromm-Platz,Erich-Fromm-Platz_60323.jpeg,1
2529,Windmühlstraße,1,Bahnhofsviertel,90,1.03,1,Gallus,4.0,60329,Windmühlstraße 60329 Frankfurt,50.1049003,8.6707832,highway,way,Windmuehlstrasse,Windmuehlstrasse,Windmuehlstrasse_60329.jpeg,1
3331,Ignatz-Bubis-Brücke,1,Innenstadt,80,1.01,1,Ost,1.0,60594,Ignatz-Bubis-Brücke 60594 Frankfurt,50.107876950000005,8.69274424977528,man_made,way,Ignatz-Bubis-Bruecke,Ignatz-Bubis-Bruecke,Ignatz-Bubis-Bruecke_60594.jpeg,1
579,Burglehen,11,Fechenheim,520,11.78,11,Ost,18.0,60386,Burglehen 60386 Frankfurt,50.1218563,8.7718833,highway,way,Burglehen,Burglehen,Burglehen_60386.jpeg,1
2437,Wallstraße,5,Sachsenhausen-N.,300,5.31,5A,Sachsenhausen,8.0,60594,Wallstraße 60594 Frankfurt,50.1050584,8.6884359,highway,way,Wallstrasse,Wallstrasse,Wallstrasse_60594.jpeg,1
1013,Grusonstraße,4,Ostend,261,4.27,4,Ost,5.0,60314,Grusonstraße 60314 Frankfurt,50.1125766,8.7069404,highway,way,Grusonstrasse,Grusonstrasse,Grusonstrasse_60314.jpeg,1
3386,Herrenapfelstraße,10,Preungesheim,470,10.73,10,Dornbusch,12.0,60435,Herrenapfelstraße 60435 Frankfurt,50.1531891,8.7012502,highway,way,Herrenapfelstrasse,Herrenapfelstrasse,Herrenapfelstrasse_60435.jpeg,1
851,Frauenhofstraße,5,Niederrad,371,5.35,5B,Sachsenhausen,10.0,60528,Frauenhofstraße 60528 Frankfurt,50.0874125,8.6489345,highway,way,Frauenhofstrasse,Frauenhofstrasse,Frauenhofstrasse_60528.jpeg,1
735,Engelsruhe,6,Unterliederbach,622,6.52,6C,Höchst,17.0,65929,Engelsruhe 65929 Frankfurt,50.1153386,8.5383001,highway,way,Engelsruhe,Engelsruhe,Engelsruhe_65929.jpeg,1
3379,Gustavsburgplatz,1,Gallus,153,1.05,1,Gallus,4.0,60326,Gustavsburgplatz 60326 Frankfurt,50.10100615,8.630141172361387,leisure,way,Gustavsburgplatz,Gustavsburgplatz,Gustavsburgplatz_60326.jpeg,1
1545,Langobardenweg,6,Unterliederbach,622,6.52,6C,Höchst,17.0,65929,Langobardenweg 65929 Frankfurt,50.1137776,8.5387451,highway,way,Langobardenweg,Langobardenweg,Langobardenweg_65929.jpeg,1
3025,Kurt-Blaum-Straße,6,Nied,562,6.43,6A,Höchst,16.0,65934,Kurt-Blaum-Straße 65934 Frankfurt,50.1026484,8.5795208,highway,way,Kurt-Blaum-Strasse,Kurt-Blaum-Strasse,Kurt-Blaum-Strasse_65934.jpeg,1
1779,Neuenhainer Straße,1,Gallus,162,1.07,1,Gallus,4.0,60326,Neuenhainer Straße 60326 Frankfurt,50.1027694,8.6322796,highway,way,Neuenhainer_Strasse,Neuenhainer Strasse,Neuenhainer_Strasse_60326.jpeg,1
180,Amselweg,6,Unterliederbach,621,6.51,6C,Höchst,17.0,65929,Amselweg 65929 Frankfurt,50.1048121,8.5326398,highway,way,Amselweg,Amselweg,Amselweg_65929.jpeg,1
1449,Klingenberger Straße,5,Sachsenhausen-S.,332,5.29,5A,Sachsenhausen,8.0,60599,Klingenberger Straße 60599 Frankfurt,50.0961058,8.697865,highway,way,Klingenberger_Strasse,Klingenberger Strasse,Klingenberger_Strasse_60599.jpeg,1
2580,Zwischenstraße,5,Sachsenhausen-N.,331,5.31,5A,Sachsenhausen,8.0,60594,Zwischenstraße 60594 Frankfurt,50.1030391,8.6941301,highway,way,Zwischenstrasse,Zwischenstrasse,Zwischenstrasse_60594.jpeg,1
120,Am Hauptbahnhof,1,Gallus,152,1.06,1,Gallus,4.0,60329,Am Hauptbahnhof 60329 Frankfurt,50.1071922,8.6653033,highway,way,Am_Hauptbahnhof,Am Hauptbahnhof,Am_Hauptbahnhof_60329.jpeg,1
3277,Ernst-Achilles-Platz,4,Ostend,261,4.27,4,Ost,5.0,60314,Ernst-Achilles-Platz 60314 Frankfurt,50.11280425,8.703894153561771,leisure,way,Ernst-Achilles-Platz,Ernst-Achilles-Platz,Ernst-Achilles-Platz_60314.jpeg,1
501,Breubergstraße,5,Niederrad,371,5.35,5B,Sachsenhausen,10.0,60528,Breubergstraße 60528 Frankfurt,50.0856382,8.6420579,highway,way,Breubergstrasse,Breubergstrasse,Breubergstrasse_60528.jpeg,1
1360,Kappusstraße,6,Sossenheim,632,6.54,6C,Höchst,17.0,65936,Kappusstraße 65936 Frankfurt,50.1199635,8.5675798,highway,way,Kappusstrasse,Kappusstrasse,Kappusstrasse_65936.jpeg,1
1201,Hofheimer Straße,6,Zeilsheim,611,6.49,6B,Höchst,17.0,65931,Hofheimer Straße 65931 Frankfurt,50.0965606,8.4885374,highway,way,Hofheimer_Strasse,Hofheimer Strasse,Hofheimer_Strasse_65931.jpeg,1
1838,Obermainanlage,4,Ostend,140,4.26,4,Ost,5.0,60314,Obermainanlage 60314 Frankfurt,50.1090122,8.6943508,highway,way,Obermainanlage,Obermainanlage,Obermainanlage_60314.jpeg,1
738,Eppenhainer Straße,1,Gallus,165,1.08,1,Gallus,4.0,60326,Eppenhainer Straße 60326 Frankfurt,50.1041765,8.6255365,highway,way,Eppenhainer_Strasse,Eppenhainer Strasse,Eppenhainer_Strasse_60326.jpeg,1
2162,Schöne Aussicht,1,Innenstadt,80,1.01,1,Ost,1.0,60311,Schöne Aussicht 60311 Frankfurt,50.1096245,8.6877292,highway,way,Schoene_Aussicht,Schoene Aussicht,Schoene_Aussicht_60311.jpeg,1
2102,Schäfergasse,1,Innenstadt,60,1.02,1,Ost,1.0,60313,Schäfergasse 60313 Frankfurt,50.1167018,8.6850048,amenity,node,Schaefergasse,Schaefergasse,Schaefergasse_60313.jpeg,1
1009,Grüne Weide,6,Nied,562,6.43,6A,Höchst,16.0,65934,Grüne Weide 65934 Frankfurt,50.1043004,8.5657641,highway,way,Gruene_Weide,Gruene Weide,Gruene_Weide_65934.jpeg,1
2216,Seehofstraße,5,Sachsenhausen-N.,331,5.31,5A,Sachsenhausen,8.0,60594,Seehofstraße 60594 Frankfurt,50.1068802,8.692268,highway,way,Seehofstrasse,Seehofstrasse,Seehofstrasse_60594.jpeg,1
2721,In den Biegen,14,Harheim,660,14.81,14,Nord,14.0,60437,In den Biegen 60437 Frankfurt,50.18089,8.6960141,highway,way,In_den_Biegen,In den Biegen,In_den_Biegen_60437.jpeg,1
1809,Niederräder Brücke,5,Niederrad,371,5.35,5B,Sachsenhausen,10.0,60528,Niederräder Brücke 60528 Frankfurt,50.0881385,8.631699,highway,way,Niederraeder_Bruecke,Niederraeder Bruecke,Niederraeder_Bruecke_60528.jpeg,1
2882,Hinter der Burg,16,Bergen-Enkheim,680,16.83,16,Ost,18.0,60388,Hinter der Burg 60388 Frankfurt,50.1567031,8.7530074,highway,way,Hinter_der_Burg,Hinter der Burg,Hinter_der_Burg_60388.jpeg,1
249,An der Tillylinde,6,Schwanheim,531,6.38,6A,Sachsenhausen,10.0,60529,An der Tillylinde 60529 Frankfurt,50.0971727,8.5514375,highway,way,An_der_Tillylinde,An der Tillylinde,An_der_Tillylinde_60529.jpeg,1
1018,Günthersburgpark,3,Nordend-Ost,222,3.18,3,Ost,6.0,60389,Günthersburgpark 60389 Frankfurt,50.1305565,8.703421129517356,leisure,way,Guenthersburgpark,Guenthersburgpark,Guenthersburgpark_60389.jpeg,1
3425,Stichlingstraße,1,Gutleutviertel,151,1.04,1,Gallus,4.0,60327,Stichlingstraße 60327 Frankfurt,50.0994818,8.6582349,highway,way,Stichlingstrasse,Stichlingstrasse,Stichlingstrasse_60327.jpeg,1
222,An den Röthen,4,Bornheim,272,4.22,4,Ost,6.0,60389,An den Röthen 60389 Frankfurt,50.1342667,8.7107576,highway,way,An_den_Roethen,An den Roethen,An_den_Roethen_60389.jpeg,1
1969,Raugasse,6,Höchst,591,6.46,6C,Höchst,17.0,65929,Raugasse 65929 Frankfurt,50.1005715,8.5397099,highway,way,Raugasse,Raugasse,Raugasse_65929.jpeg,1
1876,Ostbahnhofstraße,4,Ostend,261,4.27,4,Ost,5.0,60314,Ostbahnhofstraße 60314 Frankfurt,50.1129383,8.7054989,highway,way,Ostbahnhofstrasse,Ostbahnhofstrasse,Ostbahnhofstrasse_60314.jpeg,1
2167,Schopenhauerstraße,3,Nordend-Ost,230,3.2,3,Ost,3.0,60316,Schopenhauerstraße 60316 Frankfurt,50.1220653,8.6992523,highway,way,Schopenhauerstrasse,Schopenhauerstrasse,Schopenhauerstrasse_60316.jpeg,1
3318,H.-P.-Müller-Platz,8,Heddernheim,431,8.61,8,Nord,14.0,60439,H.-P.-Müller-Platz 60439 Frankfurt,50.1616619,8.648871467860253,leisure,way,H.-P.-Mueller-Platz,H.-P.-Mueller-Platz,H.-P.-Mueller-Platz_60439.jpeg,1
1521,Kurt-Schumacher-Straße,1,Altstadt,10,1.01,1,Ost,1.0,60313,Kurt-Schumacher-Straße 60313 Frankfurt,50.1145759,8.6877241,highway,way,Kurt-Schumacher-Strasse,Kurt-Schumacher-Strasse,Kurt-Schumacher-Strasse_60313.jpeg,1
2466,Weilbrunnstraße,10,Preungesheim,470,10.73,10,Dornbusch,12.0,60435,Weilbrunnstraße 60435 Frankfurt,50.1547604,8.6932755,highway,way,Weilbrunnstrasse,Weilbrunnstrasse,Weilbrunnstrasse_60435.jpeg,1
3170,Friedrich-Stoltze-Platz,1,Altstadt,10,1.01,1,Ost,1.0,60311,Friedrich-Stoltze-Platz 60311 Frankfurt,50.1127095,8.679743900614376,highway,way,Friedrich-Stoltze-Platz,Friedrich-Stoltze-Platz,Friedrich-Stoltze-Platz_60311.jpeg,1
3200,Carl-Theodor-Reiffenstein-Platz,1,Altstadt,10,1.01,1,Ost,1.0,60313,Carl-Theodor-Reiffenstein-Platz 60313 Frankfurt,50.11409135,8.683973818422317,highway,way,Carl-Theodor-Reiffenstein-Platz,Carl-Theodor-Reiffenstein-Platz,Carl-Theodor-Reiffenstein-Platz_60313.jpeg,1
1203,Hohe Kanzel,6,Zeilsheim,612,6.5,6B,Höchst,17.0,65931,Hohe Kanzel 65931 Frankfurt,50.1013262,8.5038986,highway,way,Hohe_Kanzel,Hohe Kanzel,Hohe_Kanzel_65931.jpeg,1
451,Bockenheimer Anlage,2,Westend-Süd,110,2.1,2,Bockenheim,3.0,60322,Bockenheimer Anlage 60322 Frankfurt,50.11702555,8.67572734736429,leisure,way,Bockenheimer_Anlage,Bockenheimer Anlage,Bockenheimer_Anlage_60322.jpeg,1
255,Andreasplatz,6,Höchst,580,6.45,6C,Höchst,17.0,65929,Andreasplatz 65929 Frankfurt,50.10245295,8.550217689547063,highway,way,Andreasplatz,Andreasplatz,Andreasplatz_65929.jpeg,1
2171,Schreyerstraße,5,Sachsenhausen-N.,322,5.33,5A,Sachsenhausen,8.0,60596,Schreyerstraße 60596 Frankfurt,50.0994272,8.6713669,highway,way,Schreyerstrasse,Schreyerstrasse,Schreyerstrasse_60596.jpeg,1
1409,Kinkelstraße,4,Ostend,252,4.25,4,Ost,5.0,60385,Kinkelstraße 60385 Frankfurt,50.1171091,8.7121555,highway,way,Kinkelstrasse,Kinkelstrasse,Kinkelstrasse_60385.jpeg,1
137,Am Kreuz,6,Sossenheim,632,6.54,6C,Höchst,17.0,65936,Am Kreuz 65936 Frankfurt,50.1214739,8.5671075,highway,way,Am_Kreuz,Am Kreuz,Am_Kreuz_65936.jpeg,1
321,Bachmannstraße,7,Hausen,410,7.58,7,Bockenheim,11.0,60488,Bachmannstraße 60488 Frankfurt,50.1314746,8.6257744,highway,way,Bachmannstrasse,Bachmannstrasse,Bachmannstrasse_60488.jpeg,1
946,Ginsterweg,10,Frankfurter Berg,492,10.71,10,Nord,14.0,60433,Ginsterweg 60433 Frankfurt,50.1656145,8.6758236,highway,way,Ginsterweg,Ginsterweg,Ginsterweg_60433.jpeg,1
2027,Rödelheimer Parkweg,7,Rödelheim,401,7.55,7,Bockenheim,11.0,60489,Rödelheimer Parkweg 60489 Frankfurt,50.1218829,8.615064,highway,way,Roedelheimer_Parkweg,Roedelheimer Parkweg,Roedelheimer_Parkweg_60489.jpeg,1
2148,Schmickstraße,4,Ostend,261,4.27,4,Ost,5.0,60314,Schmickstraße 60314 Frankfurt,50.1139563,8.7292364,amenity,node,Schmickstrasse,Schmickstrasse,Schmickstrasse_60314.jpeg,1
1332,Josef-May-Straße,7,Rödelheim,401,7.55,7,Bockenheim,11.0,60489,Josef-May-Straße 60489 Frankfurt,50.1270646,8.6153222,highway,way,Josef-May-Strasse,Josef-May-Strasse,Josef-May-Strasse_60489.jpeg,1
2032,Roggengasse,6,Unterliederbach,621,6.51,6C,Höchst,17.0,65929,Roggengasse 65929 Frankfurt,50.1109823,8.5322751,highway,way,Roggengasse,Roggengasse,Roggengasse_65929.jpeg,1
1546,Langweidenstraße,7,Hausen,410,7.58,7,Bockenheim,11.0,60488,Langweidenstraße 60488 Frankfurt,50.1323153,8.630206,highway,way,Langweidenstrasse,Langweidenstrasse,Langweidenstrasse_60488.jpeg,1
758,Eschersheimer Landstraße,2,Westend-Nord,192,2.09,2,Dornbusch,12.0,60320,Eschersheimer Landstraße 60320 Frankfurt,50.138728,8.6705059,highway,way,Eschersheimer_Landstrasse,Eschersheimer Landstrasse,Eschersheimer_Landstrasse_60320.jpeg,1
3492,An den Katharinenhöfen,2,Bockenheim,163,2.15,2,Bockenheim,13.0,60486,An den Katharinenhöfen 60486 Frankfurt,50.1139309,8.6347726,highway,way,An_den_Katharinenhoefen,An den Katharinenhoefen,An_den_Katharinenhoefen_60486.jpeg,1
2336,Teutonenweg,6,Unterliederbach,622,6.52,6C,Höchst,17.0,65929,Teutonenweg 65929 Frankfurt,50.114346,8.5434334,highway,way,Teutonenweg,Teutonenweg,Teutonenweg_65929.jpeg,1
2132,Schleifergasse,6,Höchst,591,6.46,6C,Höchst,17.0,65929,Schleifergasse 65929 Frankfurt,50.1000408,8.5469486,highway,way,Schleifergasse,Schleifergasse,Schleifergasse_65929.jpeg,1
1117,Heiligkreuzgasse,1,Innenstadt,70,1.01,1,Ost,1.0,60313,Heiligkreuzgasse 60313 Frankfurt,50.1156862,8.6884596,highway,way,Heiligkreuzgasse,Heiligkreuzgasse,Heiligkreuzgasse_60313.jpeg,1
1167,Heussenstammstraße,9,Dornbusch,462,9.69,9,Dornbusch,12.0,60433,Heussenstammstraße 60433 Frankfurt,50.1486143,8.6747627,amenity,node,Heussenstammstrasse,Heussenstammstrasse,Heussenstammstrasse_60433.jpeg,1
1814,Niedwiesenstraße,9,Eschersheim,452,9.66,9,Dornbusch,12.0,60431,Niedwiesenstraße 60431 Frankfurt,50.1565901,8.652402,amenity,node,Niedwiesenstrasse,Niedwiesenstrasse,Niedwiesenstrasse_60431.jpeg,1
1660,Marburger Straße,2,Bockenheim,361,2.12,2,Bockenheim,13.0,60487,Marburger Straße 60487 Frankfurt,50.1242596,8.6431702,highway,way,Marburger_Strasse,Marburger Strasse,Marburger_Strasse_60487.jpeg,1
3736,Saalhof,1,Altstadt,10,1.01,1,Ost,1.0,60311,Saalhof 60311 Frankfurt,50.1095428,8.682947137997978,tourism,way,Saalhof,Saalhof,Saalhof_60311.jpeg,1
2250,Sonnemannstraße,4,Ostend,140,4.26,4,Ost,5.0,60314,Sonnemannstraße 60314 Frankfurt,50.1110869,8.7029767,amenity,node,Sonnemannstrasse,Sonnemannstrasse,Sonnemannstrasse_60314.jpeg,1
999,Großer Hasenpfad,5,Sachsenhausen-S.,323,5.3,5A,Sachsenhausen,8.0,60598,Großer Hasenpfad 60598 Frankfurt,50.0928216,8.685943,highway,way,Grosser_Hasenpfad,Grosser Hasenpfad,Grosser_Hasenpfad_60598.jpeg,1
1706,Meininger Weg,6,Zeilsheim,611,6.49,6B,Höchst,17.0,65931,Meininger Weg 65931 Frankfurt,50.0968647,8.4960539,highway,way,Meininger_Weg,Meininger Weg,Meininger_Weg_65931.jpeg,1
3186,Nikolaus-Brum-Straße,6,Sossenheim,631,6.53,6C,Höchst,17.0,65936,Nikolaus-Brum-Straße 65936 Frankfurt,50.1130947,8.5544658,highway,way,Nikolaus-Brum-Strasse,Nikolaus-Brum-Strasse,Nikolaus-Brum-Strasse_65936.jpeg,1
219,An den Pflanzländern,7,Praunheim,424,7.6,7,Bockenheim,14.0,60488,An den Pflanzländern 60488 Frankfurt,50.1438574,8.6241808,amenity,node,An_den_Pflanzlaendern,An den Pflanzlaendern,An_den_Pflanzlaendern_60488.jpeg,1
2,Achenbachstraße,5,Sachsenhausen-N.,322,5.33,5A,Sachsenhausen,8.0,60596,Achenbachstraße 60596 Frankfurt,50.0974901,8.676911,highway,way,Achenbachstrasse,Achenbachstrasse,Achenbachstrasse_60596.jpeg,1
1148,Herderstraße,3,Nordend-Ost,130,3.2,3,Ost,3.0,60316,Herderstraße 60316 Frankfurt,50.1187639,8.6951771,highway,way,Herderstrasse,Herderstrasse,Herderstrasse_60316.jpeg,1
1572,Lessingstraße,2,Westend-Süd,100,2.11,2,Bockenheim,13.0,60325,Lessingstraße 60325 Frankfurt,50.114754,8.6616589,highway,way,Lessingstrasse,Lessingstrasse,Lessingstrasse_60325.jpeg,1
1444,Kleiststraße,3,Nordend-West,212,3.17,3,Ost,3.0,60318,Kleiststraße 60318 Frankfurt,50.1319982,8.6925482,highway,way,Kleiststrasse,Kleiststrasse,Kleiststrasse_60318.jpeg,1
3253,Liesel-Christ-Anlage,1,Innenstadt,50,1.02,1,Ost,1.0,60322,Liesel-Christ-Anlage 60322 Frankfurt,50.11636065,8.671408044417388,leisure,way,Liesel-Christ-Anlage,Liesel-Christ-Anlage,Liesel-Christ-Anlage_60322.jpeg,1
2295,Stephanstraße,1,Innenstadt,60,1.02,1,Ost,1.0,60313,Stephanstraße 60313 Frankfurt,50.1163781,8.6820969,highway,way,Stephanstrasse,Stephanstrasse,Stephanstrasse_60313.jpeg,1
1322,Jenaer Weg,6,Zeilsheim,611,6.49,6B,Höchst,17.0,65931,Jenaer Weg 65931 Frankfurt,50.0955505,8.4965528,highway,way,Jenaer_Weg,Jenaer Weg,Jenaer_Weg_65931.jpeg,1
1473,Kolbenbergstraße,7,Praunheim,425,7.6,7,Bockenheim,14.0,60488,Kolbenbergstraße 60488 Frankfurt,50.149082,8.6211795,highway,way,Kolbenbergstrasse,Kolbenbergstrasse,Kolbenbergstrasse_60488.jpeg,1
1854,Odenwaldstraße,5,Niederrad,371,5.35,5B,Sachsenhausen,10.0,60528,Odenwaldstraße 60528 Frankfurt,50.0857444,8.6423357,highway,way,Odenwaldstrasse,Odenwaldstrasse,Odenwaldstrasse_60528.jpeg,1
52,Alter Schulpfad,6,Nied,561,6.42,6A,Höchst,16.0,65934,Alter Schulpfad 65934 Frankfurt,50.0995548,8.5652867,highway,way,Alter_Schulpfad,Alter Schulpfad,Alter_Schulpfad_65934.jpeg,1
3191,Niedernhausener Straße,1,Gallus,162,1.07,1,Gallus,4.0,60326,Niedernhausener Straße 60326 Frankfurt,50.1073089,8.632143,highway,way,Niedernhausener_Strasse,Niedernhausener Strasse,Niedernhausener_Strasse_60326.jpeg,1
3228,Oberräder Markt,5,Oberrad,380,5.28,5A,Sachsenhausen,8.0,60599,Oberräder Markt 60599 Frankfurt,50.1006537,8.724295878222886,highway,way,Oberraeder_Markt,Oberraeder Markt,Oberraeder_Markt_60599.jpeg,1
604,Comeniusstraße,3,Nordend-Ost,222,3.18,3,Ost,6.0,60389,Comeniusstraße 60389 Frankfurt,50.1335832,8.7061155,highway,way,Comeniusstrasse,Comeniusstrasse,Comeniusstrasse_60389.jpeg,1
2695,Kalbacher Hauptstraße,12,Kalbach-Riedberg,650,12.79,12,Nord,14.0,60437,Kalbacher Hauptstraße 60437 Frankfurt,50.1862502,8.6494903,highway,way,Kalbacher_Hauptstrasse,Kalbacher Hauptstrasse,Kalbacher_Hauptstrasse_60437.jpeg,1
1420,Klapperfeldstraße,1,Innenstadt,70,1.01,1,Ost,1.0,60313,Klapperfeldstraße 60313 Frankfurt,50.1149246,8.6900897,highway,way,Klapperfeldstrasse,Klapperfeldstrasse,Klapperfeldstrasse_60313.jpeg,1
3422,Rotfeder Ring,1,Gutleutviertel,151,1.04,1,Gallus,4.0,60327,Rotfeder Ring 60327 Frankfurt,50.0979071,8.656013,highway,way,Rotfeder_Ring,Rotfeder Ring,Rotfeder_Ring_60327.jpeg,1
1594,Lindenhag,6,Griesheim,542,6.4,6A,Gallus,16.0,65933,Lindenhag 65933 Frankfurt,50.1069488,8.6019399,highway,way,Lindenhag,Lindenhag,Lindenhag_65933.jpeg,1
3256,Kirchpfad,5,Niederrad,371,5.35,5B,Sachsenhausen,10.0,60528,Kirchpfad 60528 Frankfurt,50.0891709,8.6452774,highway,way,Kirchpfad,Kirchpfad,Kirchpfad_60528.jpeg,1
2352,Thomestraße,6,Sossenheim,631,6.53,6C,Höchst,17.0,65936,Thomestraße 65936 Frankfurt,50.118721,8.5642144,highway,way,Thomestrasse,Thomestrasse,Thomestrasse_65936.jpeg,1
1223,Honsellstraße,4,Ostend,261,4.27,4,Ost,5.0,60314,Honsellstraße 60314 Frankfurt,50.111386,8.7087198,highway,way,Honsellstrasse,Honsellstrasse,Honsellstrasse_60314.jpeg,1
631,Deutschherrnufer,5,Sachsenhausen-N.,300,5.31,5A,Sachsenhausen,8.0,60594,Deutschherrnufer 60594 Frankfurt,50.1071911,8.6880864,highway,way,Deutschherrnufer,Deutschherrnufer,Deutschherrnufer_60594.jpeg,1
1642,Mainfeldstraße,5,Niederrad,371,5.35,5B,Sachsenhausen,10.0,60528,Mainfeldstraße 60528 Frankfurt,50.0912551,8.6427847,highway,way,Mainfeldstrasse,Mainfeldstrasse,Mainfeldstrasse_60528.jpeg,1
2684,Carbonestraße,12,Kalbach-Riedberg,650,12.79,12,Nord,14.0,60437,Carbonestraße 60437 Frankfurt,50.1836838,8.6530087,highway,way,Carbonestrasse,Carbonestrasse,Carbonestrasse_60437.jpeg,1
3592,Otto-Horn-Straße,6,Schwanheim,531,6.38,6A,Sachsenhausen,10.0,65929,Otto-Horn-Straße 65929 Frankfurt,50.0808407,8.5463016,highway,way,Otto-Horn-Strasse,Otto-Horn-Strasse,Otto-Horn-Strasse_65929.jpeg,1
2056,Rotkehlchenweg,6,Unterliederbach,621,6.51,6C,Höchst,17.0,65929,Rotkehlchenweg 65929 Frankfurt,50.1041254,8.530611,highway,way,Rotkehlchenweg,Rotkehlchenweg,Rotkehlchenweg_65929.jpeg,1
3190,Neue Niedenau,2,Westend-Süd,100,2.11,2,Bockenheim,13.0,60325,Neue Niedenau 60325 Frankfurt,50.1114333,8.6628265,highway,way,Neue_Niedenau,Neue Niedenau,Neue_Niedenau_60325.jpeg,1
